name,lat,long,country,state
fort hunt,38.73289,-77.05803,us,va
bessemer,33.40178,-86.95444,us,al
paducah,37.08339,-88.60005,us,ky
birmingham,33.52066,-86.80249,us,al
center point,33.64566,-86.6836,us,al
daphne,30.60353,-87.9036,us,al
decatur,34.60593,-86.98334,us,al
dothan,31.22323,-85.39049,us,al
east florence,34.80953,-87.64947,us,al
enterprise,31.31517,-85.85522,us,al
fairhope,30.52297,-87.90333,us,al
florence,34.79981,-87.67725,us,al
gadsden,34.01426,-86.00664,us,al
helena,33.29622,-86.8436,us,al
homewood,33.47177,-86.80082,us,al
hoover,33.40539,-86.81138,us,al
hueytown,33.45122,-86.99666,us,al
huntsville,34.73037,-86.5861,us,al
madison,34.69926,-86.74833,us,al
mobile,30.69436,-88.04305,us,al
montgomery,32.36681,-86.29997,us,al
mountain brook,33.50094,-86.75221,us,al
northport,33.22901,-87.57723,us,al
opelika,32.64541,-85.37828,us,al
oxford,33.61427,-85.83496,us,al
pelham,33.28567,-86.80999,us,al
phenix city,32.47098,-85.00077,us,al
prattville,32.46402,-86.4597,us,al
prichard,30.7388,-88.07889,us,al
selma,32.40736,-87.0211,us,al
talladega,33.43594,-86.1058,us,al
tillmans corner,30.59019,-88.17084,us,al
troy,31.80877,-85.96995,us,al
trussville,33.61983,-86.60888,us,al
tuscaloosa,33.20984,-87.56917,us,al
vestavia hills,33.44872,-86.78777,us,al
bella vista,36.4807,-94.27134,us,ar
benton,34.56454,-92.58683,us,ar
bentonville,36.37285,-94.20882,us,ar
blytheville,35.9273,-89.91898,us,ar
bryant,34.59593,-92.48905,us,ar
cabot,34.97453,-92.01653,us,ar
conway,35.0887,-92.4421,us,ar
el dorado,33.20763,-92.66627,us,ar
fayetteville,36.06258,-94.15743,us,ar
forrest city,35.00815,-90.78983,us,ar
fort smith,35.38592,-94.39855,us,ar
hot springs,34.5037,-93.05518,us,ar
jacksonville,34.8662,-92.11015,us,ar
jonesboro,35.8423,-90.70428,us,ar
little rock,34.74648,-92.28959,us,ar
maumelle,34.86676,-92.40432,us,ar
north little rock,34.76954,-92.26709,us,ar
paragould,36.0584,-90.49733,us,ar
pine bluff,34.22843,-92.0032,us,ar
rogers,36.33202,-94.11854,us,ar
russellville,35.27842,-93.13379,us,ar
searcy,35.25064,-91.73625,us,ar
siloam springs,36.18814,-94.5405,us,ar
springdale,36.18674,-94.12881,us,ar
texarkana,33.44179,-94.03769,us,ar
van buren,35.43676,-94.34827,us,ar
west memphis,35.14648,-90.18454,us,ar
"washington, d.c.",38.89511,-77.03637,us,dc
bear,39.62928,-75.65826,us,de
dover,39.15817,-75.52437,us,de
middletown,39.44956,-75.71632,us,de
newark,39.68372,-75.74966,us,de
wilmington,39.74595,-75.54659,us,de
allapattah,25.81454,-80.22394,us,fl
altamonte springs,28.66111,-81.36562,us,fl
apopka,28.67617,-81.51186,us,fl
aventura,25.95648,-80.13921,us,fl
bartow,27.89641,-81.84314,us,fl
bayonet point,28.32667,-82.68343,us,fl
bayshore gardens,27.42532,-82.59038,us,fl
belle glade,26.68451,-80.66756,us,fl
bellview,30.46159,-87.31497,us,fl
bloomingdale,27.89364,-82.24037,us,fl
boca del mar,26.34508,-80.14671,us,fl
boca raton,26.35869,-80.0831,us,fl
bonita springs,26.33981,-81.7787,us,fl
boynton beach,26.52535,-80.06643,us,fl
bradenton,27.49893,-82.57482,us,fl
brandon,27.9378,-82.28592,us,fl
brent,30.46881,-87.23608,us,fl
brownsville,25.82176,-80.24116,us,fl
buenaventura lakes,28.33584,-81.35313,us,fl
cantonment,30.60853,-87.33998,us,fl
cape coral,26.56285,-81.94953,us,fl
carol city,25.94065,-80.2456,us,fl
carrollwood,28.05002,-82.49287,us,fl
carrollwood village,28.06752,-82.52093,us,fl
casselberry,28.67778,-81.32785,us,fl
citrus park,28.07835,-82.56982,us,fl
clearwater,27.96585,-82.8001,us,fl
clermont,28.54944,-81.77285,us,fl
cocoa,28.38612,-80.742,us,fl
coconut creek,26.25175,-80.17894,us,fl
coconut grove,25.7126,-80.25699,us,fl
cooper city,26.05731,-80.27172,us,fl
coral gables,25.72149,-80.26838,us,fl
coral springs,26.27119,-80.2706,us,fl
coral terrace,25.74593,-80.3045,us,fl
country walk,25.63399,-80.43228,us,fl
country club,25.94815,-80.317,us,fl
crestview,30.76213,-86.57051,us,fl
cutler,25.6151,-80.31061,us,fl
cutler ridge,25.58066,-80.34672,us,fl
dania beach,26.05231,-80.14393,us,fl
davie,26.06287,-80.2331,us,fl
daytona beach,29.21081,-81.02283,us,fl
deland,29.02832,-81.30312,us,fl
debary,28.88305,-81.30868,us,fl
deerfield beach,26.31841,-80.09977,us,fl
delray beach,26.46146,-80.07282,us,fl
deltona,28.90054,-81.26367,us,fl
doral,25.81954,-80.35533,us,fl
dunedin,28.0199,-82.77323,us,fl
east lake,28.11085,-82.69482,us,fl
east pensacola heights,30.42881,-87.17997,us,fl
edgewater,28.98888,-80.90228,us,fl
egypt lake-leto,28.01769,-82.50619,us,fl
ensley,30.51881,-87.27275,us,fl
estero,26.43814,-81.80675,us,fl
eustis,28.85277,-81.68535,us,fl
ferry pass,30.5102,-87.21247,us,fl
flagami,25.76232,-80.31616,us,fl
florida ridge,27.58031,-80.38672,us,fl
fort lauderdale,26.12231,-80.14338,us,fl
fort myers,26.62168,-81.84059,us,fl
fort pierce,27.44671,-80.32561,us,fl
fort walton beach,30.42077,-86.61939,us,fl
fountainebleau,25.77288,-80.34783,us,fl
fruit cove,30.11107,-81.64176,us,fl
gainesville,29.65163,-82.32483,us,fl
glenvar heights,25.7076,-80.32561,us,fl
golden gate,26.18787,-81.69509,us,fl
golden glades,25.91176,-80.20033,us,fl
greenacres city,26.62368,-80.12532,us,fl
haines city,28.1145,-81.62009,us,fl
hallandale beach,25.9812,-80.14838,us,fl
hialeah,25.8576,-80.27811,us,fl
hialeah gardens,25.8651,-80.3245,us,fl
holiday,28.18779,-82.73955,us,fl
hollywood,26.0112,-80.14949,us,fl
homestead,25.46872,-80.47756,us,fl
immokalee,26.41869,-81.4173,us,fl
iona,26.52036,-81.96398,us,fl
ives estates,25.96231,-80.17671,us,fl
jacksonville,30.33218,-81.65565,us,fl
jacksonville beach,30.29469,-81.39314,us,fl
jasmine estates,28.29306,-82.6901,us,fl
jupiter,26.93422,-80.09421,us,fl
kendale lakes,25.70816,-80.407,us,fl
kendall,25.67927,-80.31727,us,fl
key west,24.55524,-81.78163,us,fl
keystone,28.15585,-82.62121,us,fl
kissimmee,28.30468,-81.41667,us,fl
lake butler,28.50167,-81.54091,us,fl
lake magdalene,28.07418,-82.47176,us,fl
lake worth,26.61708,-80.07231,us,fl
lake worth corridor,26.61649,-80.10102,us,fl
lakeland,28.03947,-81.9498,us,fl
lakeside,30.12996,-81.76815,us,fl
land o' lakes,28.2189,-82.45759,us,fl
largo,27.90979,-82.78842,us,fl
lauderdale lakes,26.16647,-80.20838,us,fl
lauderhill,26.14036,-80.21338,us,fl
lealman,27.82114,-82.67927,us,fl
leesburg,28.81082,-81.87786,us,fl
lehigh acres,26.62535,-81.6248,us,fl
leisure city,25.49539,-80.42922,us,fl
lutz,28.15112,-82.46148,us,fl
lynn haven,30.24548,-85.64826,us,fl
maitland,28.62778,-81.36312,us,fl
margate,26.24453,-80.20644,us,fl
meadow woods,28.38556,-81.36646,us,fl
melbourne,28.08363,-80.60811,us,fl
merritt island,28.53917,-80.672,us,fl
miami,25.77427,-80.19366,us,fl
miami beach,25.79065,-80.13005,us,fl
miami gardens,25.94204,-80.2456,us,fl
miami lakes,25.90871,-80.30866,us,fl
miramar,25.98731,-80.23227,us,fl
myrtle grove,30.42103,-87.30747,us,fl
naples,26.14234,-81.79596,us,fl
navarre,30.40159,-86.86357,us,fl
new smyrna beach,29.02582,-80.927,us,fl
norland,25.94898,-80.21227,us,fl
north fort myers,26.66729,-81.88009,us,fl
north lauderdale,26.2173,-80.22588,us,fl
north miami,25.89009,-80.18671,us,fl
north miami beach,25.93315,-80.16255,us,fl
north port,27.04422,-82.23593,us,fl
oak ridge,28.47112,-81.42452,us,fl
oakland park,26.17231,-80.13199,us,fl
ocala,29.1872,-82.14009,us,fl
ocoee,28.56917,-81.54396,us,fl
ojus,25.94843,-80.1506,us,fl
opa-locka,25.90232,-80.25033,us,fl
orlando,28.53834,-81.37924,us,fl
ormond beach,29.28581,-81.05589,us,fl
oviedo,28.67,-81.20812,us,fl
pace,30.59936,-87.16108,us,fl
palm bay,28.03446,-80.58866,us,fl
palm beach gardens,26.82339,-80.13865,us,fl
palm city,27.16783,-80.26616,us,fl
palm coast,29.58497,-81.20784,us,fl
palm harbor,28.07807,-82.76371,us,fl
palm springs,26.6359,-80.09615,us,fl
palm valley,30.17746,-81.38758,us,fl
palmetto bay,25.62177,-80.32477,us,fl
panama city,30.15946,-85.65983,us,fl
parkland,26.31008,-80.23727,us,fl
pembroke pines,26.00315,-80.22394,us,fl
pensacola,30.42131,-87.21691,us,fl
pine hills,28.55778,-81.4534,us,fl
pinecrest,25.66705,-80.30811,us,fl
pinellas park,27.8428,-82.69954,us,fl
pinewood,25.86898,-80.21699,us,fl
plant city,28.01888,-82.11469,us,fl
plantation,26.13421,-80.23184,us,fl
poinciana,28.14029,-81.45841,us,fl
pompano beach,26.23786,-80.12477,us,fl
ponte vedra beach,30.23969,-81.38564,us,fl
port charlotte,26.97617,-82.09064,us,fl
port orange,29.13832,-80.99561,us,fl
port saint lucie,27.29393,-80.35033,us,fl
princeton,25.53844,-80.40894,us,fl
punta gorda,26.92978,-82.04537,us,fl
punta gorda isles,26.91756,-82.07842,us,fl
richmond west,25.6105,-80.42971,us,fl
riverview,27.86614,-82.32648,us,fl
riviera beach,26.77534,-80.0581,us,fl
rockledge,28.35084,-80.72533,us,fl
royal palm beach,26.7084,-80.2306,us,fl
ruskin,27.72086,-82.43315,us,fl
safety harbor,27.99085,-82.69316,us,fl
saint cloud,28.2489,-81.28118,us,fl
st. petersburg,27.77086,-82.67927,us,fl
saint petersburg,27.77086,-82.67927,us,FL
san carlos park,26.4673,-81.80147,us,fl
sanford,28.80055,-81.27312,us,fl
sarasota,27.33643,-82.53065,us,fl
sebastian,27.81641,-80.47061,us,fl
seminole,27.83975,-82.79121,us,fl
south bradenton,27.4631,-82.58176,us,fl
south miami heights,25.59761,-80.38061,us,fl
southchase,28.39306,-81.3834,us,fl
spring hill,28.47688,-82.52546,us,fl
stuart,27.19755,-80.25283,us,fl
sun city center,27.71809,-82.35176,us,fl
sunny isles beach,25.95065,-80.12282,us,fl
sunrise,26.13397,-80.1131,us,fl
sunset,25.70594,-80.35228,us,fl
tallahassee,30.43826,-84.28073,us,fl
tamarac,26.21286,-80.24977,us,fl
tamiami,25.75871,-80.39839,us,fl
tampa,27.94752,-82.45843,us,fl
tarpon springs,28.14612,-82.75677,us,fl
temple terrace,28.0353,-82.38926,us,fl
the crossings,25.67066,-80.40117,us,fl
the hammocks,25.67149,-80.4445,us,fl
the villages,28.93408,-81.95994,us,fl
three lakes,25.64205,-80.39839,us,fl
titusville,28.61222,-80.80755,us,fl
town 'n' country,28.01057,-82.57732,us,fl
university park,25.74649,-80.36755,us,fl
valrico,27.93789,-82.23644,us,fl
venice,27.09978,-82.45426,us,fl
vero beach,27.63864,-80.39727,us,fl
wekiwa springs,28.69861,-81.42563,us,fl
wellington,26.65868,-80.24144,us,fl
wesley chapel,28.23973,-82.32787,us,fl
westchase,28.05502,-82.60982,us,fl
west little river,25.85704,-80.23699,us,fl
west melbourne,28.07168,-80.65339,us,fl
west palm beach,26.71534,-80.05337,us,fl
west pensacola,30.42659,-87.27969,us,fl
west and east lealman,27.81993,-82.68944,us,fl
westchester,25.75482,-80.32727,us,fl
weston,26.10037,-80.39977,us,fl
winter garden,28.56528,-81.58618,us,fl
winter haven,28.02224,-81.73286,us,fl
winter park,28.6,-81.33924,us,fl
winter springs,28.69889,-81.30812,us,fl
wright,30.45575,-86.63829,us,fl
acworth,34.06635,-84.67837,us,ga
albany,31.57851,-84.15574,us,ga
alpharetta,34.07538,-84.29409,us,ga
americus,32.07239,-84.23269,us,ga
athens,33.96095,-83.37794,us,ga
atlanta,33.749,-84.38798,us,ga
augusta,33.47097,-81.97484,us,ga
belvedere park,33.75483,-84.26742,us,ga
brookhaven,33.85844,-84.3402,us,ga
brunswick,31.14995,-81.49149,us,ga
calhoun,34.50259,-84.95105,us,ga
canton,34.23676,-84.49076,us,ga
carrollton,33.58011,-85.07661,us,ga
cartersville,34.16533,-84.80231,us,ga
columbus,32.46098,-84.98771,us,ga
conyers,33.66761,-84.01769,us,ga
dalton,34.7698,-84.97022,us,ga
decatur,33.77483,-84.29631,us,ga
douglasville,33.7515,-84.74771,us,ga
dublin,32.54044,-82.90375,us,ga
duluth,34.00288,-84.14464,us,ga
dunwoody,33.94621,-84.33465,us,ga
east point,33.67955,-84.43937,us,ga
evans,33.53375,-82.13067,us,ga
fayetteville,33.44873,-84.45493,us,ga
forest park,33.62205,-84.36909,us,ga
gainesville,34.29788,-83.82407,us,ga
griffin,33.24678,-84.26409,us,ga
hinesville,31.84688,-81.59595,us,ga
kennesaw,34.02343,-84.61549,us,ga
kingsland,30.79996,-81.68983,us,ga
la grange,33.03929,-85.03133,us,ga
lawrenceville,33.95621,-83.98796,us,ga
lithia springs,33.794,-84.66049,us,ga
mableton,33.81872,-84.58243,us,ga
macon,32.84069,-83.6324,us,ga
marietta,33.9526,-84.54993,us,ga
martinez,33.51736,-82.07567,us,ga
mcdonough,33.44734,-84.14686,us,ga
milledgeville,33.08014,-83.2321,us,ga
newnan,33.38067,-84.79966,us,ga
north decatur,33.79038,-84.30603,us,ga
north druid hills,33.81677,-84.31326,us,ga
peachtree city,33.39678,-84.59576,us,ga
pooler,32.11548,-81.24706,us,ga
redan,33.74538,-84.13158,us,ga
riverdale,33.57261,-84.41326,us,ga
rome,34.25704,-85.16467,us,ga
roswell,34.02316,-84.36159,us,ga
st. marys,30.73051,-81.54649,us,ga
sandy springs,33.92427,-84.37854,us,ga
savannah,32.08354,-81.09983,us,ga
smyrna,33.88399,-84.51438,us,ga
snellville,33.85733,-84.01991,us,ga
statesboro,32.44879,-81.78317,us,ga
stockbridge,33.54428,-84.23381,us,ga
sugar hill,34.10649,-84.03352,us,ga
suwanee,34.05149,-84.0713,us,ga
thomasville,30.83658,-83.97878,us,ga
tifton,31.45046,-83.5085,us,ga
tucker,33.85455,-84.21714,us,ga
union city,33.58706,-84.54243,us,ga
valdosta,30.83334,-83.28032,us,ga
warner robins,32.61574,-83.62664,us,ga
wilmington island,32.00355,-80.97372,us,ga
woodstock,34.10149,-84.51938,us,ga
alton,38.8906,-90.18428,us,il
belleville,38.52005,-89.98399,us,il
cahokia,38.57088,-90.19011,us,il
carbondale,37.72727,-89.21675,us,il
charleston,39.49615,-88.17615,us,il
collinsville,38.67033,-89.98455,us,il
decatur,39.84031,-88.9548,us,il
east saint louis,38.6245,-90.15094,us,il
edwardsville,38.81144,-89.95316,us,il
fairview heights,38.58894,-89.99038,us,il
godfrey,38.9556,-90.18678,us,il
granite city,38.70144,-90.14872,us,il
jacksonville,39.73394,-90.22901,us,il
marion,37.73061,-88.93313,us,il
mattoon,39.48309,-88.37283,us,il
mount vernon,38.31727,-88.90312,us,il
o'fallon,38.59227,-89.91121,us,il
quincy,39.9356,-91.40987,us,il
springfield,39.80172,-89.64371,us,il
upper alton,38.91144,-90.15066,us,il
bloomington,39.16533,-86.52639,us,in
broad ripple,39.86671,-86.14165,us,in
brownsburg,39.84338,-86.39777,us,in
carmel,39.97837,-86.11804,us,in
clarksville,38.29674,-85.75996,us,in
columbus,39.20144,-85.92138,us,in
evansville,37.97476,-87.55585,us,in
fishers,39.95559,-86.01387,us,in
greenfield,39.78504,-85.76942,us,in
greenwood,39.61366,-86.10665,us,in
indianapolis,39.76838,-86.15804,us,in
jasper,38.39144,-86.93111,us,in
jeffersonville,38.27757,-85.73718,us,in
lawrence,39.83865,-86.02526,us,in
new albany,38.28562,-85.82413,us,in
new castle,39.92894,-85.37025,us,in
plainfield,39.70421,-86.39944,us,in
richmond,39.82894,-84.89024,us,in
seymour,38.95922,-85.89025,us,in
shelbyville,39.52144,-85.77692,us,in
terre haute,39.4667,-87.41391,us,in
vincennes,38.67727,-87.52863,us,in
derby,37.54557,-97.26893,us,ks
emporia,38.4039,-96.18166,us,ks
gardner,38.81084,-94.92719,us,ks
great bend,38.36446,-98.76481,us,ks
hays,38.87918,-99.32677,us,ks
hutchinson,38.06084,-97.92977,us,ks
junction city,39.02861,-96.8314,us,ks
kansas city,39.11417,-94.62746,us,ks
lawrence,38.97167,-95.23525,us,ks
leavenworth,39.31111,-94.92246,us,ks
leawood,38.96667,-94.6169,us,ks
lenexa,38.95362,-94.73357,us,ks
manhattan,39.18361,-96.57167,us,ks
newton,38.04668,-97.34504,us,ks
olathe,38.8814,-94.81913,us,ks
overland park,38.98223,-94.67079,us,ks
pittsburg,37.41088,-94.70496,us,ks
prairie village,38.99167,-94.63357,us,ks
salina,38.84028,-97.61142,us,ks
shawnee,39.04167,-94.72024,us,ks
topeka,39.04833,-95.67804,us,ks
wichita,37.69224,-97.33754,us,ks
ashland,38.47841,-82.63794,us,ky
bowling green,36.99032,-86.4436,us,ky
burlington,39.02756,-84.72411,us,ky
covington,39.08367,-84.50855,us,ky
danville,37.64563,-84.77217,us,ky
elizabethtown,37.69395,-85.85913,us,ky
erlanger,39.01673,-84.60078,us,ky
fern creek,38.15979,-85.58774,us,ky
florence,38.99895,-84.62661,us,ky
fort thomas,39.07506,-84.44716,us,ky
frankfort,38.20091,-84.87328,us,ky
georgetown,38.2098,-84.55883,us,ky
henderson,37.83615,-87.59001,us,ky
highview,38.14285,-85.62413,us,ky
hopkinsville,36.86561,-87.49117,us,ky
independence,38.94312,-84.54411,us,ky
ironville,38.45647,-82.69238,us,ky
jeffersontown,38.19424,-85.5644,us,ky
lexington,37.98869,-84.47772,us,ky
lexington-fayette,38.0498,-84.45855,us,ky
louisville,38.25424,-85.75941,us,ky
madisonville,37.3281,-87.49889,us,ky
meads,38.41258,-82.70905,us,ky
murray,36.61033,-88.31476,us,ky
newburg,38.16007,-85.65968,us,ky
newport,39.09145,-84.49578,us,ky
nicholasville,37.88063,-84.573,us,ky
okolona,38.14118,-85.68774,us,ky
owensboro,37.77422,-87.11333,us,ky
pleasure ridge park,38.14535,-85.8583,us,ky
radcliff,37.84035,-85.94913,us,ky
richmond,37.74786,-84.29465,us,ky
saint matthews,38.25285,-85.65579,us,ky
shively,38.20007,-85.82274,us,ky
valley station,38.11118,-85.87024,us,ky
winchester,37.99008,-84.17965,us,ky
alexandria,31.31129,-92.44514,us,la
baton rouge,30.45075,-91.15455,us,la
bayou cane,29.6241,-90.7512,us,la
bossier city,32.51599,-93.73212,us,la
central,30.55435,-91.03677,us,la
chalmette,29.94296,-89.96537,us,la
estelle,29.84576,-90.10674,us,la
gretna,29.91465,-90.05396,us,la
hammond,30.50463,-90.46293,us,la
harvey,29.90354,-90.07729,us,la
houma,29.59577,-90.71953,us,la
kenner,29.99409,-90.24174,us,la
lafayette,30.22409,-92.01984,us,la
lake charles,30.21309,-93.2044,us,la
laplace,30.06698,-90.48147,us,la
marrero,29.89937,-90.10035,us,la
metairie,29.98409,-90.15285,us,la
metairie terrace,29.97854,-90.16396,us,la
monroe,32.50931,-92.1193,us,la
natchitoches,31.76072,-93.08627,us,la
new iberia,30.00354,-91.81873,us,la
new orleans,29.95465,-90.07507,us,la
opelousas,30.53353,-92.08151,us,la
prairieville,30.30297,-90.97205,us,la
ruston,32.52321,-92.63793,us,la
shenandoah,30.4013,-91.00094,us,la
shreveport,32.52515,-93.75018,us,la
slidell,30.27519,-89.78117,us,la
sulphur,30.23659,-93.37738,us,la
terrytown,29.91021,-90.03257,us,la
adelphi,39.00317,-76.97192,us,md
annapolis,38.97845,-76.49218,us,md
arbutus,39.25455,-76.69997,us,md
arnold,39.03206,-76.50274,us,md
aspen hill,39.07955,-77.07303,us,md
baltimore,39.29038,-76.61219,us,md
ballenger creek,39.3726,-77.43526,us,md
beltsville,39.03483,-76.90747,us,md
bethesda,38.98067,-77.10026,us,md
bowie,38.94278,-76.73028,us,md
calverton,39.05761,-76.93581,us,md
camp springs,38.804,-76.90664,us,md
carney,39.39427,-76.52358,us,md
catonsville,39.27205,-76.73192,us,md
chillum,38.96372,-76.99081,us,md
cloverly,39.10816,-76.99775,us,md
clinton,38.76511,-76.89831,us,md
cockeysville,39.48122,-76.64386,us,md
college park,38.98067,-76.93692,us,md
columbia,39.24038,-76.83942,us,md
crofton,39.00178,-76.68747,us,md
cumberland,39.65287,-78.76252,us,md
damascus,39.28844,-77.20387,us,md
dundalk,39.25066,-76.52052,us,md
east riverdale,38.96206,-76.92192,us,md
easton,38.77428,-76.07633,us,md
edgewood,39.41872,-76.2944,us,md
eldersburg,39.40371,-76.95026,us,md
elkton,39.60678,-75.83327,us,md
elkridge,39.21261,-76.71358,us,md
ellicott city,39.26733,-76.79831,us,md
essex,39.30927,-76.47496,us,md
fairland,39.07622,-76.95775,us,md
ferndale,39.18316,-76.64024,us,md
fort washington,38.70734,-77.02303,us,md
frederick,39.41427,-77.41054,us,md
gaithersburg,39.14344,-77.20137,us,md
germantown,39.17316,-77.27165,us,md
glassmanor,38.819,-76.99859,us,md
glen burnie,39.16261,-76.62469,us,md
green haven,39.13955,-76.54774,us,md
greenbelt,39.00455,-76.87553,us,md
hagerstown,39.64176,-77.71999,us,md
hanover,39.19289,-76.72414,us,md
hillcrest heights,38.83289,-76.95942,us,md
hunt valley,39.49983,-76.64108,us,md
hyattsville,38.95594,-76.94553,us,md
ilchester,39.25094,-76.76469,us,md
lake shore,39.10705,-76.48496,us,md
landover,38.934,-76.89664,us,md
langley park,38.98872,-76.98136,us,md
laurel,39.09928,-76.84831,us,md
lochearn,39.34066,-76.72219,us,md
maryland city,39.09205,-76.81775,us,md
middle river,39.33427,-76.43941,us,md
milford mill,39.34788,-76.76997,us,md
montgomery village,39.17677,-77.19526,us,md
north bel air,39.53983,-76.35496,us,md
north bethesda,39.04455,-77.11887,us,md
north potomac,39.08289,-77.26498,us,md
odenton,39.084,-76.70025,us,md
olney,39.15316,-77.06692,us,md
owings mills,39.41955,-76.78025,us,md
oxon hill,38.80345,-76.9897,us,md
parkville,39.37733,-76.53969,us,md
parole,38.97956,-76.53052,us,md
pasadena,39.10733,-76.57108,us,md
perry hall,39.41261,-76.46357,us,md
pikesville,39.37427,-76.72247,us,md
potomac,39.01817,-77.20859,us,md
randallstown,39.36733,-76.79525,us,md
redland,39.14539,-77.14415,us,md
reisterstown,39.46976,-76.8319,us,md
rockville,39.084,-77.15276,us,md
rosedale,39.32011,-76.51552,us,md
rossville,39.33844,-76.47968,us,md
saint charles,38.60317,-76.93858,us,md
salisbury,38.36067,-75.59937,us,md
seabrook,38.96805,-76.84658,us,md
severn,39.13705,-76.6983,us,md
severna park,39.07039,-76.54524,us,md
silver spring,38.99067,-77.02609,us,md
south bel air,39.53316,-76.33746,us,md
south gate,39.129,-76.6258,us,md
south laurel,39.06983,-76.85025,us,md
suitland,38.84872,-76.92386,us,md
takoma park,38.97789,-77.00748,us,md
towson,39.4015,-76.60191,us,md
waldorf,38.62456,-76.93914,us,md
west elkridge,39.20705,-76.72692,us,md
westminster,39.57538,-76.99581,us,md
wheaton,39.03983,-77.05526,us,md
white oak,39.03983,-76.99303,us,md
woodlawn,39.32288,-76.72803,us,md
affton,38.55061,-90.33317,us,mo
arnold,38.43283,-90.37762,us,mo
ballwin,38.59505,-90.54623,us,mo
belton,38.81195,-94.5319,us,mo
blue springs,39.01695,-94.28161,us,mo
cape girardeau,37.30588,-89.51815,us,mo
chesterfield,38.66311,-90.57707,us,mo
clayton,38.64255,-90.32373,us,mo
columbia,38.95171,-92.33407,us,mo
concord,38.5245,-90.35734,us,mo
creve coeur,38.66089,-90.42262,us,mo
east independence,39.09556,-94.35523,us,mo
farmington,37.78088,-90.42179,us,mo
ferguson,38.74422,-90.30539,us,mo
florissant,38.78922,-90.32261,us,mo
gladstone,39.20389,-94.55468,us,mo
grandview,38.88584,-94.53301,us,mo
hannibal,39.70838,-91.35848,us,mo
hazelwood,38.77144,-90.37095,us,mo
independence,39.09112,-94.41551,us,mo
jefferson city,38.5767,-92.17352,us,mo
joplin,37.08423,-94.51328,us,mo
kansas city,39.09973,-94.57857,us,mo
kirkwood,38.58339,-90.40678,us,mo
lee's summit,38.91084,-94.38217,us,mo
lemay,38.53339,-90.27928,us,mo
liberty,39.24611,-94.41912,us,mo
manchester,38.597,-90.50929,us,mo
maryland heights,38.71311,-90.42984,us,mo
mehlville,38.50839,-90.32289,us,mo
nixa,37.04339,-93.29435,us,mo
o'fallon,38.81061,-90.69985,us,mo
oakville,38.47005,-90.30456,us,mo
overland,38.70116,-90.36234,us,mo
ozark,37.02089,-93.20602,us,mo
poplar bluff,36.757,-90.39289,us,mo
raymore,38.80195,-94.45273,us,mo
raytown,39.00862,-94.46356,us,mo
rolla,37.95143,-91.77127,us,mo
saint charles,38.78394,-90.48123,us,mo
saint joseph,39.76861,-94.84663,us,mo
st. louis,38.62727,-90.19789,us,mo
saint peters,38.80033,-90.62651,us,mo
sedalia,38.70446,-93.22826,us,mo
sikeston,36.87672,-89.58786,us,mo
spanish lake,38.78783,-90.21594,us,mo
springfield,37.21533,-93.29824,us,mo
university city,38.65588,-90.30928,us,mo
warrensburg,38.76279,-93.73605,us,mo
webster groves,38.59255,-90.35734,us,mo
wentzville,38.81144,-90.85291,us,mo
wildwood,38.58283,-90.6629,us,mo
biloxi,30.39603,-88.88531,us,ms
brandon,32.2732,-89.98592,us,ms
clarksdale,34.20011,-90.57093,us,ms
clinton,32.34153,-90.32176,us,ms
columbus,33.49567,-88.42726,us,ms
gautier,30.38575,-88.61169,us,ms
greenville,33.41012,-91.06177,us,ms
greenwood,33.51623,-90.17953,us,ms
gulfport,30.36742,-89.09282,us,ms
hattiesburg,31.32712,-89.29034,us,ms
horn lake,34.95537,-90.03481,us,ms
jackson,32.29876,-90.18481,us,ms
laurel,31.69405,-89.13061,us,ms
madison,32.46181,-90.11536,us,ms
meridian,32.36431,-88.70366,us,ms
natchez,31.56044,-91.40317,us,ms
ocean springs,30.41131,-88.82781,us,ms
olive branch,34.96176,-89.82953,us,ms
oxford,34.3665,-89.51925,us,ms
pascagoula,30.36576,-88.55613,us,ms
pearl,32.27459,-90.13203,us,ms
ridgeland,32.42848,-90.13231,us,ms
southaven,34.98898,-90.01259,us,ms
starkville,33.45049,-88.81961,us,ms
tupelo,34.25807,-88.70464,us,ms
vicksburg,32.35265,-90.87788,us,ms
west gulfport,30.40409,-89.0942,us,ms
albemarle,35.35014,-80.20006,us,nc
apex,35.73265,-78.85029,us,nc
asheboro,35.70791,-79.81364,us,nc
asheville,35.60095,-82.55402,us,nc
boone,36.21679,-81.67455,us,nc
burlington,36.09569,-79.4378,us,nc
carrboro,35.91014,-79.07529,us,nc
cary,35.79154,-78.78112,us,nc
chapel hill,35.9132,-79.05584,us,nc
charlotte,35.22709,-80.84313,us,nc
clayton,35.65071,-78.45639,us,nc
clemmons,36.02153,-80.382,us,nc
concord,35.40888,-80.58158,us,nc
cornelius,35.4868,-80.86007,us,nc
durham,35.99403,-78.89862,us,nc
eden,36.48847,-79.7667,us,nc
elizabeth city,36.2946,-76.25105,us,nc
fayetteville,35.05266,-78.87836,us,nc
fuquay-varina,35.58432,-78.80001,us,nc
garner,35.71126,-78.61417,us,nc
gastonia,35.26208,-81.1873,us,nc
goldsboro,35.38488,-77.99277,us,nc
greensboro,36.07264,-79.79198,us,nc
greenville,35.61266,-77.36635,us,nc
havelock,34.87905,-76.90133,us,nc
henderson,36.32959,-78.39916,us,nc
hickory,35.73319,-81.3412,us,nc
high point,35.95569,-80.00532,us,nc
holly springs,35.65127,-78.83362,us,nc
hope mills,34.97044,-78.94531,us,nc
huntersville,35.41069,-80.84285,us,nc
indian trail,35.07681,-80.66924,us,nc
jacksonville,34.75405,-77.43024,us,nc
kannapolis,35.48736,-80.62173,us,nc
kernersville,36.11986,-80.07365,us,nc
kinston,35.26266,-77.58164,us,nc
laurinburg,34.77405,-79.46282,us,nc
lenoir,35.91402,-81.53898,us,nc
lexington,35.82403,-80.25338,us,nc
lumberton,34.61834,-79.01045,us,nc
matthews,35.11681,-80.72368,us,nc
mint hill,35.17959,-80.64729,us,nc
monroe,34.98543,-80.54951,us,nc
mooresville,35.58486,-80.81007,us,nc
morganton,35.74541,-81.68482,us,nc
morrisville,35.82348,-78.82556,us,nc
new bern,35.10849,-77.04411,us,nc
raleigh,35.7721,-78.63861,us,nc
roanoke rapids,36.46154,-77.65415,us,nc
rocky mount,35.93821,-77.79053,us,nc
salisbury,35.67097,-80.47423,us,nc
sanford,35.47988,-79.1803,us,nc
shelby,35.29235,-81.53565,us,nc
statesville,35.78264,-80.8873,us,nc
thomasville,35.88264,-80.08199,us,nc
wake forest,35.97987,-78.50972,us,nc
west raleigh,35.78682,-78.66389,us,nc
wilmington,34.22573,-77.94471,us,nc
wilson,35.72127,-77.91554,us,nc
winston-salem,36.09986,-80.24422,us,nc
atlantic city,39.36428,-74.42293,us,nj
bridgeton,39.42734,-75.23408,us,nj
camden,39.92595,-75.11962,us,nj
cherry hill,39.93484,-75.03073,us,nj
glassboro,39.70289,-75.11184,us,nj
jackson,39.7765,-74.86238,us,nj
lindenwold,39.82428,-74.99767,us,nj
maple shade,39.95261,-74.99239,us,nj
millville,39.40206,-75.03934,us,nj
mount laurel,39.934,-74.891,us,nj
ocean acres,39.74345,-74.28098,us,nj
pennsauken,39.95622,-75.05795,us,nj
pleasantville,39.38984,-74.52404,us,nj
sicklerville,39.71734,-74.96933,us,nj
south vineland,39.44595,-75.02879,us,nj
toms river,39.95373,-74.19792,us,nj
vineland,39.48623,-75.02573,us,nj
williamstown,39.68623,-74.99517,us,nj
athens,39.32924,-82.10126,us,oh
beavercreek,39.70923,-84.06327,us,oh
centerville,39.62839,-84.15938,us,oh
cincinnati,39.162,-84.45689,us,oh
columbus,39.96118,-82.99879,us,oh
dayton,39.75895,-84.19161,us,oh
fairborn,39.82089,-84.01938,us,oh
fairfield,39.34589,-84.5605,us,oh
forest park,39.29034,-84.50411,us,oh
grove city,39.88145,-83.09296,us,oh
hamilton,39.3995,-84.56134,us,oh
huber heights,39.84395,-84.12466,us,oh
kettering,39.6895,-84.16883,us,oh
lancaster,39.71368,-82.59933,us,oh
lebanon,39.43534,-84.20299,us,oh
mason,39.36006,-84.30994,us,oh
miamisburg,39.64284,-84.28661,us,oh
middletown,39.51506,-84.39828,us,oh
norwood,39.15561,-84.45966,us,oh
oxford,39.507,-84.74523,us,oh
pickerington,39.88423,-82.7535,us,oh
portsmouth,38.73174,-82.99767,us,oh
reynoldsburg,39.95479,-82.81212,us,oh
riverside,39.77978,-84.1241,us,oh
springboro,39.55228,-84.23327,us,oh
springfield,39.92423,-83.80882,us,oh
trotwood,39.79728,-84.31133,us,oh
upper arlington,39.99451,-83.06241,us,oh
vandalia,39.89061,-84.19883,us,oh
white oak,39.21311,-84.59939,us,oh
whitehall,39.96673,-82.88546,us,oh
xenia,39.68478,-83.92965,us,oh
zanesville,39.94035,-82.01319,us,oh
ada,34.77453,-96.67834,us,ok
altus,34.63813,-99.33398,us,ok
ardmore,34.17426,-97.14363,us,ok
bartlesville,36.74731,-95.98082,us,ok
bethany,35.51867,-97.63226,us,ok
bixby,35.94204,-95.88332,us,ok
broken arrow,36.0526,-95.79082,us,ok
chickasha,35.05257,-97.93643,us,ok
claremore,36.3126,-95.61609,us,ok
del city,35.44201,-97.44087,us,ok
duncan,34.5023,-97.95781,us,ok
durant,33.99399,-96.37082,us,ok
edmond,35.65283,-97.4781,us,ok
el reno,35.53227,-97.95505,us,ok
enid,36.39559,-97.87839,us,ok
jenks,36.02287,-95.96833,us,ok
lawton,34.60869,-98.39033,us,ok
mcalester,34.93343,-95.76971,us,ok
midwest city,35.44951,-97.3967,us,ok
moore,35.33951,-97.4867,us,ok
muskogee,35.74788,-95.36969,us,ok
mustang,35.38423,-97.72449,us,ok
norman,35.22257,-97.43948,us,ok
oklahoma city,35.46756,-97.51643,us,ok
owasso,36.26954,-95.85471,us,ok
ponca city,36.70698,-97.08559,us,ok
sand springs,36.13981,-96.10889,us,ok
sapulpa,35.9987,-96.11417,us,ok
shawnee,35.32729,-96.9253,us,ok
stillwater,36.11561,-97.05837,us,ok
tahlequah,35.91537,-94.96996,us,ok
tulsa,36.15398,-95.99277,us,ok
yukon,35.50672,-97.76254,us,ok
chambersburg,39.93759,-77.6611,us,pa
chester,39.84967,-75.35707,us,pa
drexel hill,39.94706,-75.29213,us,pa
hanover,39.80066,-76.98304,us,pa
philadelphia,39.95233,-75.16379,us,pa
springfield,39.93067,-75.32019,us,pa
west chester,39.96097,-75.60804,us,pa
york,39.9626,-76.72774,us,pa
aiken,33.56042,-81.71955,us,sc
anderson,34.50344,-82.65013,us,sc
charleston,32.77657,-79.93092,us,sc
columbia,34.00071,-81.03481,us,sc
conway,33.836,-79.04781,us,sc
easley,34.82984,-82.60152,us,sc
florence,34.19543,-79.76256,us,sc
goose creek,32.98101,-80.03259,us,sc
greenville,34.85262,-82.39401,us,sc
greenwood,34.1954,-82.16179,us,sc
greer,34.93873,-82.22706,us,sc
hanahan,32.91851,-80.02203,us,sc
hilton head,32.21632,-80.75261,us,sc
lexington,33.98154,-81.23621,us,sc
mauldin,34.77873,-82.31012,us,sc
mount pleasant,32.79407,-79.86259,us,sc
myrtle beach,33.68906,-78.88669,us,sc
north augusta,33.5018,-81.96512,us,sc
north charleston,32.85462,-79.97481,us,sc
rock hill,34.92487,-81.02508,us,sc
saint andrews,34.04543,-81.12926,us,sc
seven oaks,34.04876,-81.14648,us,sc
simpsonville,34.73706,-82.25428,us,sc
socastee,33.6835,-78.99837,us,sc
spartanburg,34.94957,-81.93205,us,sc
summerville,33.0185,-80.17565,us,sc
sumter,33.92044,-80.34147,us,sc
taylors,34.92039,-82.29623,us,sc
wade hampton,34.90373,-82.33317,us,sc
bartlett,35.20453,-89.87398,us,tn
brentwood,36.03312,-86.78278,us,tn
brentwood estates,36.02506,-86.77917,us,tn
bristol,36.59511,-82.18874,us,tn
chattanooga,35.04563,-85.30968,us,tn
clarksville,36.52977,-87.35945,us,tn
cleveland,35.15952,-84.87661,us,tn
collierville,35.04204,-89.66453,us,tn
columbia,35.61507,-87.03528,us,tn
cookeville,36.16284,-85.50164,us,tn
dyersburg,36.03452,-89.38563,us,tn
east brainerd,34.99591,-85.15023,us,tn
east chattanooga,35.06535,-85.24912,us,tn
east ridge,35.01424,-85.2519,us,tn
farragut,35.88452,-84.15353,us,tn
franklin,35.92506,-86.86889,us,tn
gallatin,36.38838,-86.44666,us,tn
germantown,35.08676,-89.81009,us,tn
goodlettsville,36.32311,-86.71333,us,tn
greeneville,36.16316,-82.83099,us,tn
hendersonville,36.30477,-86.62,us,tn
jackson,35.61452,-88.81395,us,tn
johnson city,36.31344,-82.35347,us,tn
kingsport,36.54843,-82.56182,us,tn
knoxville,35.96064,-83.92074,us,tn
la vergne,36.01562,-86.58194,us,tn
lebanon,36.20811,-86.2911,us,tn
maryville,35.75647,-83.97046,us,tn
memphis,35.14953,-90.04898,us,tn
morristown,36.21398,-83.29489,us,tn
mount juliet,36.20005,-86.51861,us,tn
murfreesboro,35.84562,-86.39027,us,tn
nashville,36.16589,-86.78444,us,tn
new south memphis,35.08676,-90.05676,us,tn
oak ridge,36.01036,-84.26964,us,tn
shelbyville,35.48341,-86.46027,us,tn
smyrna,35.98284,-86.5186,us,tn
spring hill,35.75118,-86.93,us,tn
springfield,36.50921,-86.885,us,tn
tullahoma,35.36202,-86.20943,us,tn
abilene,32.44874,-99.73314,us,tx
alamo,26.18369,-98.12306,us,tx
aldine,29.93245,-95.38021,us,tx
alice,27.75225,-98.06972,us,tx
allen,33.10317,-96.67055,us,tx
alvin,29.42385,-95.2441,us,tx
angleton,29.16941,-95.43188,us,tx
arlington,32.73569,-97.10807,us,tx
atascocita,29.99883,-95.1766,us,tx
austin,30.26715,-97.74306,us,tx
balch springs,32.72874,-96.62277,us,tx
baytown,29.7355,-94.97743,us,tx
beaumont,30.08605,-94.10185,us,tx
bedford,32.84402,-97.14307,us,tx
bellaire,29.70579,-95.45883,us,tx
belton,31.05601,-97.46445,us,tx
benbrook,32.67319,-97.46058,us,tx
brenham,30.16688,-96.39774,us,tx
brownsville,25.90175,-97.49748,us,tx
brownwood,31.70932,-98.99116,us,tx
brushy creek,30.51353,-97.73973,us,tx
bryan,30.67436,-96.36996,us,tx
burleson,32.54208,-97.32085,us,tx
canyon lake,29.87522,-98.26251,us,tx
carrollton,32.95373,-96.89028,us,tx
cedar hill,32.58847,-96.95612,us,tx
cedar park,30.5052,-97.82029,us,tx
channelview,29.77606,-95.11465,us,tx
cibolo,29.56162,-98.22696,us,tx
cinco ranch,29.73884,-95.758,us,tx
cleburne,32.34764,-97.38668,us,tx
cloverleaf,29.77828,-95.17188,us,tx
college station,30.62798,-96.33441,us,tx
colleyville,32.88096,-97.15501,us,tx
conroe,30.31188,-95.45605,us,tx
converse,29.51801,-98.31612,us,tx
coppell,32.95457,-97.01501,us,tx
copperas cove,31.12406,-97.90308,us,tx
corinth,33.15401,-97.06473,us,tx
corpus christi,27.80058,-97.39638,us,tx
corsicana,32.09543,-96.46887,us,tx
cypress,29.96911,-95.69717,us,tx
dallas,32.78306,-96.80667,us,tx
desoto,32.58986,-96.85695,us,tx
deer park,29.70523,-95.12382,us,tx
denison,33.75566,-96.53666,us,tx
denton,33.21484,-97.13307,us,tx
dickinson,29.46079,-95.05132,us,tx
donna,26.17035,-98.05195,us,tx
duncanville,32.6518,-96.90834,us,tx
edinburg,26.30174,-98.16334,us,tx
ennis,32.32931,-96.62527,us,tx
euless,32.83707,-97.08195,us,tx
farmers branch,32.92651,-96.89612,us,tx
flower mound,33.01457,-97.09696,us,tx
fort worth,32.72541,-97.32085,us,tx
fresno,29.53885,-95.44744,us,tx
friendswood,29.5294,-95.20104,us,tx
frisco,33.15067,-96.82361,us,tx
gainesville,33.62594,-97.13335,us,tx
galveston,29.30135,-94.7977,us,tx
garland,32.91262,-96.63888,us,tx
gatesville,31.43516,-97.74391,us,tx
georgetown,30.63269,-97.67723,us,tx
grand prairie,32.74596,-96.99778,us,tx
grapevine,32.93429,-97.07807,us,tx
greenville,33.13845,-96.11081,us,tx
groves,29.94827,-93.91712,us,tx
haltom city,32.79957,-97.26918,us,tx
harker heights,31.08351,-97.65974,us,tx
harlingen,26.19063,-97.6961,us,tx
highland village,33.09179,-97.04668,us,tx
houston,29.76328,-95.36327,us,tx
humble,29.99883,-95.26216,us,tx
huntsville,30.72353,-95.55078,us,tx
hurst,32.82346,-97.17057,us,tx
irving,41.55815,-73.0515,us,ct
west hartford,41.76204,-72.74204,us,ct
west haven,41.27065,-72.94705,us,ct
west torrington,41.81843,-73.14372,us,ct
westport,41.14149,-73.3579,us,ct
wethersfield,41.71427,-72.65259,us,ct
willimantic,41.71065,-72.20813,us,ct
wilton,41.19537,-73.4379,us,ct
windham,41.69982,-72.15702,us,ct
windsor,41.8526,-72.6437,us,ct
wolcott,41.60232,-72.98677,us,ct
ames,42.03471,-93.61994,us,ia
ankeny,41.72971,-93.60577,us,ia
bettendorf,41.52448,-90.51569,us,ia
burlington,40.80754,-91.11292,us,ia
cedar falls,42.52776,-92.44547,us,ia
cedar rapids,42.00833,-91.64407,us,ia
clinton,41.84447,-90.18874,us,ia
clive,41.60304,-93.72411,us,ia
coralville,41.6764,-91.58045,us,ia
council bluffs,41.26194,-95.86083,us,ia
davenport,41.52364,-90.57764,us,ia
des moines,41.60054,-93.60911,us,ia
dubuque,42.50056,-90.66457,us,ia
fort dodge,42.49747,-94.16802,us,ia
iowa city,41.66113,-91.53017,us,ia
johnston,41.67304,-93.69772,us,ia
marion,42.03417,-91.59768,us,ia
marshalltown,42.04943,-92.90798,us,ia
mason city,43.15357,-93.20104,us,ia
muscatine,41.42447,-91.04321,us,ia
newton,41.69971,-93.04798,us,ia
ottumwa,41.02001,-92.4113,us,ia
sioux city,42.49999,-96.40031,us,ia
urbandale,41.62666,-93.71217,us,ia
waterloo,42.49276,-92.34296,us,ia
west des moines,41.57721,-93.71133,us,ia
addison,41.9317,-87.98896,us,il
algonquin,42.16558,-88.29425,us,il
alsip,41.66892,-87.73866,us,il
arlington heights,42.08836,-87.98063,us,il
aurora,41.76058,-88.32007,us,il
bartlett,41.99503,-88.18563,us,il
batavia,41.85003,-88.31257,us,il
bellwood,41.88142,-87.88312,us,il
belvidere,42.26391,-88.84427,us,il
bensenville,41.95503,-87.94007,us,il
berwyn,41.85059,-87.79367,us,il
bloomingdale,41.95753,-88.0809,us,il
bloomington,40.4842,-88.99369,us,il
blue island,41.65726,-87.68005,us,il
bolingbrook,41.69864,-88.0684,us,il
bourbonnais,41.15376,-87.88754,us,il
bradley,41.14198,-87.86115,us,il
bridgeview,41.75003,-87.80422,us,il
brookfield,41.82392,-87.85173,us,il
buffalo grove,42.15141,-87.95979,us,il
burbank,41.73392,-87.7795,us,il
calumet city,41.61559,-87.52949,us,il
carol stream,41.91253,-88.13479,us,il
carpentersville,42.12114,-88.25786,us,il
cary,42.21197,-88.23814,us,il
champaign,40.11642,-88.24338,us,il
chicago,41.85003,-87.65005,us,il
chicago heights,41.50615,-87.6356,us,il
cicero,41.84559,-87.75394,us,il
country club hills,41.56809,-87.72033,us,il
crest hill,41.55475,-88.09867,us,il
crystal lake,42.24113,-88.3162,us,il
danville,40.12448,-87.63002,us,il
darien,41.75198,-87.97395,us,il
dekalb,41.92947,-88.75036,us,il
deerfield,42.17114,-87.84451,us,il
des plaines,42.03336,-87.8834,us,il
dixon,41.83892,-89.47955,us,il
dolton,41.63892,-87.60727,us,il
downers grove,41.80892,-88.01117,us,il
east moline,41.50087,-90.4443,us,il
east peoria,40.66615,-89.5801,us,il
elgin,42.03725,-88.28119,us,il
elk grove village,42.00392,-87.97035,us,il
elmhurst,41.89947,-87.94034,us,il
elmwood park,41.92114,-87.80923,us,il
evanston,42.04114,-87.69006,us,il
evergreen park,41.72059,-87.70172,us,il
frankfort,41.49587,-87.84866,us,il
franklin park,41.93531,-87.86562,us,il
freeport,42.29669,-89.62123,us,il
galesburg,40.94782,-90.37124,us,il
geneva,41.88753,-88.30535,us,il
glen ellyn,41.87753,-88.06701,us,il
glenview,42.06975,-87.78784,us,il
goodings grove,41.6292,-87.93089,us,il
grayslake,42.34447,-88.04175,us,il
gurnee,42.3703,-87.90202,us,il
hanover park,41.99947,-88.14507,us,il
harvey,41.61003,-87.64671,us,il
highland park,42.18169,-87.80034,us,il
hinsdale,41.80086,-87.93701,us,il
hoffman estates,42.04281,-88.0798,us,il
homer glen,41.60003,-87.93811,us,il
homewood,41.55726,-87.6656,us,il
huntley,42.16808,-88.42814,us,il
joliet,41.52519,-88.0834,us,il
kankakee,41.12003,-87.86115,us,il
la grange,41.80503,-87.86923,us,il
lake forest,42.25863,-87.84063,us,il
lake zurich,42.19697,-88.09341,us,il
lake in the hills,42.18169,-88.33036,us,il
lansing,41.56476,-87.53893,us,il
lemont,41.67364,-88.00173,us,il
libertyville,42.28308,-87.95313,us,il
lisle,41.80114,-88.07479,us,il
lockport,41.58948,-88.05784,us,il
lombard,41.88003,-88.00784,us,il
loves park,42.32002,-89.05816,us,il
machesney park,42.34724,-89.039,us,il
macomb,40.45921,-90.6718,us,il
matteson,41.50392,-87.7131,us,il
maywood,41.8792,-87.84312,us,il
mchenry,42.33335,-88.26675,us,il
melrose park,41.90059,-87.85673,us,il
mokena,41.52614,-87.88922,us,il
moline,41.5067,-90.51513,us,il
montgomery,41.73058,-88.3459,us,il
morton,40.61282,-89.45926,us,il
morton grove,42.04059,-87.78256,us,il
mount prospect,42.06642,-87.93729,us,il
mundelein,42.26308,-88.00397,us,il
naperville,41.78586,-88.14729,us,il
new lenox,41.51198,-87.96561,us,il
niles,42.01892,-87.80284,us,il
normal,40.5142,-88.99063,us,il
north aurora,41.80614,-88.3273,us,il
north chicago,42.32558,-87.84118,us,il
north peoria,40.71754,-89.58426,us,il
northbrook,42.12753,-87.82895,us,il
oak forest,41.60281,-87.74394,us,il
oak lawn,41.71087,-87.75811,us,il
oak park,41.88503,-87.7845,us,il
orland park,41.63031,-87.85394,us,il
oswego,41.68281,-88.35146,us,il
ottawa,41.34559,-88.84258,us,il
palatine,42.1103,-88.03424,us,il
palos hills,41.6967,-87.817,us,il
park forest,41.49142,-87.67449,us,il
park ridge,42.01114,-87.84062,us,il
pekin,40.56754,-89.64066,us,il
peoria,40.69365,-89.58899,us,il
plainfield,41.62697,-88.20395,us,il
prospect heights,42.0953,-87.93757,us,il
rock island,41.50948,-90.57875,us,il
rockford,42.27113,-89.094,us,il
rolling meadows,42.08419,-88.01313,us,il
romeoville,41.64753,-88.08951,us,il
roselle,41.98475,-88.07979,us,il
round lake,42.35336,-88.09341,us,il
round lake beach,42.37169,-88.09008,us,il
saint charles,41.91419,-88.30869,us,il
schaumburg,42.03336,-88.08341,us,il
shorewood,41.52003,-88.20173,us,il
skokie,42.03336,-87.73339,us,il
south elgin,41.99419,-88.2923,us,il
south holland,41.60087,-87.60699,us,il
sterling,41.78864,-89.69622,us,il
streamwood,42.02558,-88.17841,us,il
sycamore,41.98892,-88.68675,us,il
tinley park,41.57337,-87.78449,us,il
urbana,40.11059,-88.20727,us,il
vernon hills,42.21947,-87.97952,us,il
villa park,41.88975,-87.98895,us,il
wasco,41.93808,-88.40452,us,il
washington,40.70365,-89.40731,us,il
waukegan,42.36363,-87.84479,us,il
west chicago,41.88475,-88.20396,us,il
westchester,41.85059,-87.882,us,il
westmont,41.79586,-87.97562,us,il
wheaton,41.86614,-88.10701,us,il
wheeling,42.13919,-87.92896,us,il
wilmette,42.07225,-87.72284,us,il
woodridge,41.74697,-88.05034,us,il
woodstock,42.31474,-88.4487,us,il
yorkville,41.64114,-88.44729,us,il
zion,42.44613,-87.83285,us,il
anderson,40.10532,-85.68025,us,in
crawfordsville,40.04115,-86.87445,us,in
crown point,41.41698,-87.36531,us,in
dyer,41.4942,-87.52171,us,in
east chicago,41.6392,-87.45476,us,in
elkhart,41.68199,-85.97667,us,in
fort wayne,41.1306,-85.12886,us,in
frankfort,40.27948,-86.51084,us,in
gary,41.59337,-87.34643,us,in
goshen,41.58227,-85.83444,us,in
granger,41.75338,-86.11084,us,in
griffith,41.52837,-87.42365,us,in
hammond,41.58337,-87.50004,us,in
highland,41.55365,-87.45198,us,in
hobart,41.53226,-87.25504,us,in
huntington,40.8831,-85.49748,us,in
kokomo,40.48643,-86.1336,us,in
laporte,41.6106,-86.72252,us,in
lafayette,40.4167,-86.87529,us,in
lebanon,40.04837,-86.46917,us,in
logansport,40.75448,-86.35667,us,in
marion,40.55837,-85.65914,us,in
merrillville,41.48281,-87.33281,us,in
michigan city,41.70754,-86.89503,us,in
mishawaka,41.66199,-86.15862,us,in
muncie,40.19338,-85.38636,us,in
munster,41.56448,-87.51254,us,in
noblesville,40.04559,-86.0086,us,in
portage,41.57587,-87.17615,us,in
schererville,41.47892,-87.45476,us,in
south bend,41.68338,-86.25001,us,in
valparaiso,41.47309,-87.06114,us,in
west lafayette,40.42587,-86.90807,us,in
westfield,40.04282,-86.12749,us,in
abington,42.10482,-70.94532,us,ma
acton,42.48509,-71.43284,us,ma
agawam,42.06954,-72.61481,us,ma
amesbury,42.85842,-70.93005,us,ma
amherst center,42.37537,-72.51925,us,ma
arlington,42.41537,-71.15644,us,ma
ashland,42.26121,-71.4634,us,ma
attleboro,41.94454,-71.28561,us,ma
auburn,42.19454,-71.83563,us,ma
barnstable,41.70011,-70.29947,us,ma
belmont,42.39593,-71.17867,us,ma
beverly,42.55843,-70.88005,us,ma
beverly cove,42.55343,-70.85366,us,ma
billerica,42.55843,-71.26895,us,ma
boston,42.35843,-71.05977,us,ma
braintree,42.22232,-70.99949,us,ma
brockton,42.08343,-71.01838,us,ma
brookline,42.33176,-71.12116,us,ma
burlington,42.50482,-71.19561,us,ma
cambridge,42.3751,-71.10561,us,ma
canton,42.15843,-71.14477,us,ma
chelmsford,42.59981,-71.36728,us,ma
chelsea,42.39176,-71.03283,us,ma
chicopee,42.1487,-72.60787,us,ma
concord,42.46037,-71.34895,us,ma
danvers,42.57509,-70.93005,us,ma
dedham,42.24177,-71.16616,us,ma
dracut,42.67037,-71.30201,us,ma
east longmeadow,42.06454,-72.51259,us,ma
easthampton,42.26676,-72.66898,us,ma
easton,42.02454,-71.12866,us,ma
everett,42.40843,-71.05366,us,ma
fairhaven,41.6376,-70.90365,us,ma
fall river,41.70149,-71.15505,us,ma
fitchburg,42.58342,-71.8023,us,ma
framingham,42.27926,-71.41617,us,ma
framingham center,42.29732,-71.43701,us,ma
franklin,42.08343,-71.39673,us,ma
gardner,42.57509,-71.99813,us,ma
gloucester,42.61593,-70.66199,us,ma
grafton,42.20704,-71.68562,us,ma
greenfield,42.58759,-72.59953,us,ma
hanover,42.11316,-70.81199,us,ma
haverhill,42.7762,-71.07728,us,ma
holden,42.35176,-71.86341,us,ma
holyoke,42.20426,-72.6162,us,ma
jamaica plain,42.30982,-71.12033,us,ma
lawrence,42.70704,-71.16311,us,ma
leominster,42.52509,-71.75979,us,ma
lexington,42.44732,-71.2245,us,ma
longmeadow,42.0501,-72.58287,us,ma
lowell,42.63342,-71.31617,us,ma
ludlow,42.16009,-72.47592,us,ma
lynn,42.46676,-70.94949,us,ma
malden,42.4251,-71.06616,us,ma
mansfield,42.03343,-71.21894,us,ma
marblehead,42.5001,-70.85783,us,ma
marlborough,42.34593,-71.55229,us,ma
medford,42.41843,-71.10616,us,ma
melrose,42.45843,-71.06616,us,ma
methuen,42.7262,-71.19089,us,ma
milford,42.13982,-71.51617,us,ma
milton,42.24954,-71.06616,us,ma
natick,42.28343,-71.3495,us,ma
needham,42.28343,-71.23283,us,ma
new bedford,41.63622,-70.93421,us,ma
newburyport,42.81259,-70.87728,us,ma
newton,42.33704,-71.20922,us,ma
north chicopee,42.18343,-72.59953,us,ma
northampton,42.32509,-72.6412,us,ma
norton,41.96677,-71.18699,us,ma
norwood,42.19454,-71.1995,us,ma
palmer,42.15843,-72.32869,us,ma
peabody,42.52787,-70.92866,us,ma
pittsfield,42.45008,-73.24538,us,ma
quincy,42.25288,-71.00227,us,ma
randolph,42.1626,-71.04116,us,ma
reading,42.52565,-71.09533,us,ma
rockland,42.13066,-70.91616,us,ma
salem,42.51954,-70.89672,us,ma
saugus,42.46482,-71.01005,us,ma
shrewsbury,42.29593,-71.71285,us,ma
somerset,41.76955,-71.12866,us,ma
somerville,42.3876,-71.0995,us,ma
south boston,42.33343,-71.04949,us,ma
south hadley,42.25842,-72.57453,us,ma
south peabody,42.50982,-70.94949,us,ma
southbridge,42.0751,-72.03341,us,ma
springfield,42.10148,-72.58981,us,ma
stoneham,42.4801,-71.0995,us,ma
stoughton,42.1251,-71.10227,us,ma
sudbury,42.38343,-71.41617,us,ma
swansea,41.74816,-71.18977,us,ma
taunton,41.9001,-71.08977,us,ma
tewksbury,42.61065,-71.23422,us,ma
wakefield,42.50648,-71.07283,us,ma
waltham,42.37649,-71.23561,us,ma
watertown,42.37093,-71.18283,us,ma
wellesley,42.29649,-71.29256,us,ma
west springfield,42.10704,-72.62037,us,ma
westfield,42.12509,-72.74954,us,ma
westford,42.57926,-71.43784,us,ma
weymouth,42.22093,-70.93977,us,ma
wilmington,42.54648,-71.17367,us,ma
winchester,42.45232,-71.137,us,ma
winthrop,42.3751,-70.98283,us,ma
woburn,42.47926,-71.15228,us,ma
worcester,42.26259,-71.80229,us,ma
yarmouth,41.70567,-70.22863,us,ma
auburn,44.09785,-70.23117,us,me
augusta,44.31062,-69.77949,us,me
bangor,44.80118,-68.77781,us,me
biddeford,43.49258,-70.45338,us,me
brunswick,43.91452,-69.96533,us,me
lewiston,44.10035,-70.21478,us,me
portland,43.66147,-70.25533,us,me
saco,43.50092,-70.44283,us,me
south portland,43.64147,-70.24088,us,me
south portland gardens,43.63897,-70.31533,us,me
waterville,44.55201,-69.63171,us,me
west scarborough,43.57036,-70.38783,us,me
westbrook,43.67703,-70.37116,us,me
adrian,41.89755,-84.03717,us,mi
allen park,42.25754,-83.21104,us,mi
allendale,42.97225,-85.95365,us,mi
ann arbor,42.27756,-83.74088,us,mi
auburn hills,42.68753,-83.2341,us,mi
battle creek,42.3173,-85.17816,us,mi
bay city,43.59447,-83.88886,us,mi
birmingham,42.5467,-83.21132,us,mi
burton,42.99947,-83.61634,us,mi
canton,42.30865,-83.48216,us,mi
clinton,42.58698,-82.91992,us,mi
dearborn,42.32226,-83.17631,us,mi
dearborn heights,42.33698,-83.27326,us,mi
detroit,42.33143,-83.04575,us,mi
east lansing,42.73698,-84.48387,us,mi
eastpointe,42.46837,-82.95547,us,mi
farmington hills,42.48531,-83.37716,us,mi
ferndale,42.46059,-83.13465,us,mi
flint,43.01253,-83.68746,us,mi
forest hills,42.95947,-85.48975,us,mi
garden city,42.32559,-83.33104,us,mi
grand rapids,42.96336,-85.66809,us,mi
grandville,42.90975,-85.76309,us,mi
grosse pointe woods,42.44365,-82.90686,us,mi
hamtramck,42.39282,-83.04964,us,mi
haslett,42.74698,-84.40108,us,mi
hazel park,42.46254,-83.10409,us,mi
holland,42.78752,-86.10893,us,mi
holt,42.64059,-84.51525,us,mi
iron river,46.09273,-88.64235,us,mi
jackson,42.24587,-84.40135,us,mi
jenison,42.90725,-85.79198,us,mi
kalamazoo,42.29171,-85.58723,us,mi
kentwood,42.86947,-85.64475,us,mi
lansing,42.73253,-84.55553,us,mi
lincoln park,42.25059,-83.17854,us,mi
livonia,42.36837,-83.35271,us,mi
madison heights,42.48587,-83.1052,us,mi
marquette,46.54354,-87.39542,us,mi
midland,43.61558,-84.24721,us,mi
monroe,41.91643,-83.39771,us,mi
mount clemens,42.59726,-82.87798,us,mi
mount pleasant,43.59781,-84.76751,us,mi
muskegon,43.23418,-86.24839,us,mi
norton shores,43.1689,-86.26395,us,mi
novi,42.48059,-83.47549,us,mi
oak park,42.45948,-83.18271,us,mi
okemos,42.72226,-84.42747,us,mi
owosso,42.9978,-84.17664,us,mi
pontiac,42.63892,-83.29105,us,mi
port huron,42.97086,-82.42491,us,mi
portage,42.20115,-85.58,us,mi
redford,42.38337,-83.2966,us,mi
rochester hills,42.65837,-83.14993,us,mi
romulus,42.22226,-83.3966,us,mi
roseville,42.49726,-82.93714,us,mi
royal oak,42.48948,-83.14465,us,mi
saginaw,43.41947,-83.95081,us,mi
shelby,42.67087,-83.03298,us,mi
southfield,42.47337,-83.22187,us,mi
southgate,42.21393,-83.19381,us,mi
saint clair shores,42.49698,-82.88881,us,mi
sterling heights,42.58031,-83.0302,us,mi
taylor,42.24087,-83.26965,us,mi
trenton,42.13949,-83.17826,us,mi
troy,42.60559,-83.14993,us,mi
walker,43.00141,-85.76809,us,mi
warren,42.47754,-83.0277,us,mi
waterford,42.69303,-83.41181,us,mi
waverly,42.7392,-84.62081,us,mi
wayne,42.28143,-83.38632,us,mi
westland,42.3242,-83.40021,us,mi
wyandotte,42.21421,-83.14992,us,mi
wyoming,42.91336,-85.70531,us,mi
ypsilanti,42.24115,-83.61299,us,mi
albert lea,43.64801,-93.36827,us,mn
andover,45.2333,-93.29134,us,mn
anoka,45.19774,-93.38718,us,mn
apple valley,44.73191,-93.21772,us,mn
austin,43.66663,-92.97464,us,mn
blaine,45.1608,-93.23495,us,mn
bloomington,44.8408,-93.29828,us,mn
brooklyn center,45.07608,-93.33273,us,mn
brooklyn park,45.09413,-93.35634,us,mn
buffalo,45.17191,-93.87469,us,mn
burnsville,44.76774,-93.27772,us,mn
champlin,45.18885,-93.39745,us,mn
chanhassen,44.86219,-93.53079,us,mn
chaska,44.78941,-93.60218,us,mn
columbia heights,45.0408,-93.263,us,mn
coon rapids,45.11997,-93.28773,us,mn
cottage grove,44.82774,-92.94382,us,mn
crystal,45.03274,-93.36023,us,mn
duluth,46.78327,-92.10658,us,mn
eagan,44.80413,-93.16689,us,mn
eden prairie,44.85469,-93.47079,us,mn
edina,44.88969,-93.34995,us,mn
elk river,45.30385,-93.56718,us,mn
faribault,44.29496,-93.26883,us,mn
farmington,44.64024,-93.14355,us,mn
forest lake,45.27886,-92.98522,us,mn
fridley,45.08608,-93.26328,us,mn
golden valley,45.00969,-93.34912,us,mn
ham lake,45.25024,-93.24995,us,mn
hastings,44.7433,-92.85243,us,mn
hibbing,47.42715,-92.93769,us,mn
hopkins,44.92496,-93.46273,us,mn
inver grove heights,44.84802,-93.04272,us,mn
lakeville,44.64969,-93.24272,us,mn
lino lakes,45.16024,-93.08883,us,mn
mankato,44.15906,-94.00915,us,mn
maple grove,45.07246,-93.45579,us,mn
maplewood,44.95302,-92.99522,us,mn
minneapolis,44.97997,-93.26384,us,mn
minnetonka,44.9133,-93.50329,us,mn
minnetonka mills,44.94107,-93.4419,us,mn
moorhead,46.87386,-96.76951,us,mn
new brighton,45.06552,-93.20189,us,mn
new hope,45.03802,-93.38662,us,mn
northfield,44.4583,-93.1616,us,mn
oakdale,44.96302,-92.96494,us,mn
owatonna,44.08385,-93.22604,us,mn
plymouth,45.01052,-93.45551,us,mn
prior lake,44.7133,-93.42273,us,mn
ramsey,45.2611,-93.45,us,mn
red wing,44.56247,-92.5338,us,mn
richfield,44.8833,-93.283,us,mn
rochester,44.02163,-92.4699,us,mn
rosemount,44.73941,-93.12577,us,mn
roseville,45.00608,-93.15661,us,mn
saint cloud,45.5608,-94.16249,us,mn
saint louis park,44.9483,-93.34801,us,mn
saint michael,45.20996,-93.66496,us,mn
saint paul,44.94441,-93.09327,us,mn
sartell,45.62163,-94.20694,us,mn
savage,44.77913,-93.33634,us,mn
shakopee,44.79802,-93.5269,us,mn
shoreview,45.07913,-93.14717,us,mn
south saint paul,44.89274,-93.03494,us,mn
stillwater,45.05636,-92.80604,us,mn
west coon rapids,45.15969,-93.34967,us,mn
west saint paul,44.91608,-93.10161,us,mn
white bear lake,45.08469,-93.00994,us,mn
willmar,45.12191,-95.04334,us,mn
winona,44.04996,-91.63932,us,mn
woodbury,44.92386,-92.95938,us,mn
kirksville,40.19475,-92.58325,us,mo
fargo,46.87719,-96.7898,us,nd
grand forks,47.92526,-97.03285,us,nd
jamestown,46.91054,-98.70844,us,nd
west fargo,46.87497,-96.90036,us,nd
bellevue,41.13667,-95.89084,us,ne
columbus,41.42973,-97.36838,us,ne
fremont,41.43333,-96.49808,us,ne
grand island,40.92501,-98.34201,us,ne
hastings,40.58612,-98.38839,us,ne
kearney,40.69946,-99.08148,us,ne
la vista,41.18389,-96.03113,us,ne
lincoln,40.8,-96.66696,us,ne
norfolk,42.02834,-97.417,us,ne
omaha,41.25626,-95.94043,us,ne
papillion,41.15444,-96.04224,us,ne
bedford,42.94647,-71.5159,us,nh
concord,43.20814,-71.53757,us,nh
derry,42.88064,-71.32729,us,nh
derry village,42.89175,-71.31201,us,nh
dover,43.19786,-70.87367,us,nh
east concord,43.24202,-71.53813,us,nh
keene,42.93369,-72.27814,us,nh
laconia,43.52785,-71.47035,us,nh
manchester,42.99564,-71.45479,us,nh
merrimack,42.86509,-71.4934,us,nh
nashua,42.76537,-71.46757,us,nh
portsmouth,43.07176,-70.76255,us,nh
rochester,43.30453,-70.97562,us,nh
salem,42.78842,-71.20089,us,nh
asbury park,40.22039,-74.01208,us,nj
avenel,40.58038,-74.28515,us,nj
bayonne,40.66871,-74.11431,us,nj
belleville,40.79371,-74.15014,us,nj
bergenfield,40.9276,-73.99736,us,nj
bloomfield,40.80677,-74.18542,us,nj
carteret,40.57733,-74.2282,us,nj
cliffside park,40.82149,-73.98764,us,nj
clifton,40.85843,-74.16376,us,nj
colonia,40.57455,-74.30209,us,nj
cranford,40.65844,-74.29959,us,nj
dover,40.88399,-74.5621,us,nj
dumont,40.94065,-73.99681,us,nj
east brunswick,40.42788,-74.41598,us,nj
east orange,40.76732,-74.20487,us,nj
edison,40.51872,-74.4121,us,nj
elizabeth,40.66399,-74.2107,us,nj
elmwood park,40.90399,-74.11848,us,nj
englewood,40.89288,-73.97264,us,nj
ewing,40.26983,-74.79988,us,nj
fair lawn,40.94038,-74.13181,us,nj
fords,40.52927,-74.31598,us,nj
fort lee,40.85093,-73.97014,us,nj
garfield,40.88149,-74.1132,us,nj
hackensack,40.88593,-74.04347,us,nj
hawthorne,40.94926,-74.15375,us,nj
hillside,40.70121,-74.23015,us,nj
hoboken,40.74399,-74.03236,us,nj
hopatcong,40.93288,-74.65933,us,nj
hopatcong hills,40.94399,-74.67072,us,nj
irvington,40.73232,-74.23487,us,nj
iselin,40.57538,-74.32237,us,nj
jersey city,40.72816,-74.07764,us,nj
kearny,40.76843,-74.14542,us,nj
lakewood,40.09789,-74.21764,us,nj
linden,40.62205,-74.24459,us,nj
livingston,40.79593,-74.31487,us,nj
lodi,40.88232,-74.0832,us,nj
long branch,40.30428,-73.99236,us,nj
lyndhurst,40.81204,-74.12431,us,nj
madison,40.75982,-74.4171,us,nj
mahwah,41.08871,-74.14376,us,nj
maplewood,40.73121,-74.27348,us,nj
marlboro,40.31539,-74.24626,us,nj
montclair,40.82593,-74.20903,us,nj
morristown,40.79677,-74.48154,us,nj
new brunswick,40.48622,-74.45182,us,nj
new milford,40.9351,-74.01903,us,nj
newark,40.73566,-74.17237,us,nj
north arlington,40.78843,-74.1332,us,nj
north bergen,40.80427,-74.01208,us,nj
north plainfield,40.6301,-74.42737,us,nj
nutley,40.82232,-74.15987,us,nj
old bridge,40.41483,-74.36543,us,nj
orange,40.77066,-74.23265,us,nj
palisades park,40.84816,-73.99764,us,nj
paramus,40.94454,-74.07542,us,nj
parsippany,40.85788,-74.42599,us,nj
passaic,40.85677,-74.12848,us,nj
paterson,40.91677,-74.17181,us,nj
perth amboy,40.50677,-74.26542,us,nj
piscataway,40.49927,-74.39904,us,nj
plainfield,40.63371,-74.40737,us,nj
point pleasant,40.08317,-74.06819,us,nj
rahway,40.60816,-74.27765,us,nj
ridgewood,40.97926,-74.11653,us,nj
roselle,40.65223,-74.25882,us,nj
rutherford,40.82649,-74.10681,us,nj
sayreville,40.45927,-74.36098,us,nj
sayreville junction,40.46538,-74.33043,us,nj
scotch plains,40.65538,-74.38987,us,nj
secaucus,40.78955,-74.05653,us,nj
somerset,40.4976,-74.48849,us,nj
south old bridge,40.40816,-74.35432,us,nj
south orange,40.74899,-74.26126,us,nj
south plainfield,40.57927,-74.41154,us,nj
south river,40.44649,-74.38598,us,nj
summit,40.71562,-74.36468,us,nj
teaneck,40.8976,-74.01597,us,nj
tinton falls,40.30428,-74.10042,us,nj
trenton,40.21705,-74.74294,us,nj
union,40.6976,-74.2632,us,nj
union city,40.77955,-74.02375,us,nj
voorhees,40.48122,-74.48321,us,nj
wayne,40.92538,-74.27654,us,nj
west milford,41.13121,-74.36737,us,nj
west new york,40.78788,-74.01431,us,nj
west orange,40.79871,-74.23904,us,nj
westfield,40.65899,-74.34737,us,nj
willingboro,40.02789,-74.86905,us,nj
woodbridge,40.5576,-74.28459,us,nj
wyckoff,41.00954,-74.17292,us,nj
albany,42.65258,-73.75623,us,ny
amherst,42.97839,-78.79976,us,ny
amsterdam,42.93869,-74.18819,us,ny
auburn,42.93173,-76.56605,us,ny
baldwin,40.65649,-73.6093,us,ny
batavia,42.99812,-78.18752,us,ny
bay shore,40.7251,-73.24539,us,ny
beacon,41.50482,-73.96958,us,ny
bellmore,40.66871,-73.52707,us,ny
bensonhurst,40.60177,-73.99403,us,ny
bethpage,40.74427,-73.48207,us,ny
binghamton,42.09869,-75.91797,us,ny
brentwood,40.78121,-73.24623,us,ny
brighton,43.14756,-77.55055,us,ny
the bronx,40.84985,-73.86641,us,ny
brooklyn,40.6501,-73.94958,us,ny
buffalo,42.88645,-78.87837,us,ny
centereach,40.85843,-73.09955,us,ny
central islip,40.79065,-73.20178,us,ny
cheektowaga,42.90339,-78.75475,us,ny
cohoes,42.77424,-73.70012,us,ny
commack,40.84288,-73.29289,us,ny
coney island,40.57788,-73.99403,us,ny
copiague,40.68149,-73.39984,us,ny
coram,40.86871,-73.00149,us,ny
cortland,42.60118,-76.18048,us,ny
deer park,40.76177,-73.32929,us,ny
depew,42.90395,-78.69225,us,ny
dix hills,40.80482,-73.33623,us,ny
east meadow,40.71399,-73.55902,us,ny
east massapequa,40.67343,-73.43651,us,ny
east new york,40.66677,-73.88236,us,ny
east northport,40.87676,-73.32456,us,ny
east patchogue,40.76704,-72.99622,us,ny
east setauket,40.94149,-73.10594,us,ny
eastchester,40.8876,-73.83291,us,ny
eggertsville,42.96339,-78.80392,us,ny
elmira,42.0898,-76.80773,us,ny
elmont,40.70094,-73.71291,us,ny
farmingville,40.83121,-73.02955,us,ny
floral park,40.72371,-73.70485,us,ny
franklin square,40.70732,-73.67596,us,ny
freeport,40.6576,-73.58318,us,ny
garden city,40.72677,-73.6343,us,ny
glen cove,40.86232,-73.63374,us,ny
gloversville,43.05285,-74.34375,us,ny
greenburgh,41.03287,-73.84291,us,ny
harrison,40.96899,-73.71263,us,ny
hauppauge,40.82565,-73.20261,us,ny
hempstead,40.70621,-73.61874,us,ny
hicksville,40.76843,-73.52513,us,ny
holbrook,40.81232,-73.07844,us,ny
holtsville,40.81538,-73.04511,us,ny
huntington,40.86815,-73.42568,us,ny
huntington station,40.85343,-73.41151,us,ny
irondequoit,43.2134,-77.57972,us,ny
islip,40.72982,-73.21039,us,ny
ithaca,42.44063,-76.49661,us,ny
jamaica,40.69149,-73.80569,us,ny
jamestown,42.097,-79.23533,us,ny
johnson city,42.11563,-75.95881,us,ny
kenmore,42.96589,-78.87004,us,ny
kings park,40.88621,-73.25734,us,ny
kingston,41.92704,-73.99736,us,ny
kiryas joel,41.34204,-74.16792,us,ny
lackawanna,42.82561,-78.82337,us,ny
lake ronkonkoma,40.8351,-73.13122,us,ny
levittown,40.72593,-73.51429,us,ny
lindenhurst,40.68677,-73.37345,us,ny
lockport,43.17061,-78.69031,us,ny
long beach,40.58844,-73.65791,us,ny
long island city,40.74482,-73.94875,us,ny
lynbrook,40.65483,-73.6718,us,ny
mamaroneck,40.94871,-73.73263,us,ny
manhattan,40.78343,-73.96625,us,ny
massapequa,40.68066,-73.47429,us,ny
massapequa park,40.68038,-73.45512,us,ny
mastic,40.80204,-72.84094,us,ny
medford,40.8176,-73.00011,us,ny
melville,40.79343,-73.41512,us,ny
merrick,40.66288,-73.55152,us,ny
middletown,41.44593,-74.42293,us,ny
mineola,40.74927,-73.64068,us,ny
monsey,41.11121,-74.06848,us,ny
mount vernon,40.9126,-73.83708,us,ny
nanuet,41.08871,-74.01347,us,ny
new city,41.1476,-73.98931,us,ny
new rochelle,40.91149,-73.78235,us,ny
new york city,40.71427,-74.00597,us,ny
new york,40.71427,-74.00597,us,ny
newburgh,41.50343,-74.01042,us,ny
niagara falls,43.0945,-79.05671,us,ny
north amityville,40.6976,-73.42512,us,ny
north babylon,40.71649,-73.32179,us,ny
north bay shore,40.73621,-73.26262,us,ny
north bellmore,40.69149,-73.53346,us,ny
north massapequa,40.70093,-73.46207,us,ny
north tonawanda,43.03867,-78.8642,us,ny
north valley stream,40.6851,-73.7018,us,ny
oceanside,40.63871,-73.64013,us,ny
ossining,41.16287,-73.86152,us,ny
oswego,43.45535,-76.5105,us,ny
pearl river,41.05899,-74.02181,us,ny
peekskill,41.29009,-73.92042,us,ny
plainview,40.77649,-73.46735,us,ny
plattsburgh,44.69949,-73.45291,us,ny
port chester,41.00176,-73.66568,us,ny
port washington,40.82566,-73.69819,us,ny
poughkeepsie,41.70037,-73.92097,us,ny
borough of queens,40.68149,-73.83652,us,ny
rochester,43.15478,-77.61556,us,ny
rockville centre,40.65871,-73.64124,us,ny
rome,43.21285,-75.45573,us,ny
ronkonkoma,40.81538,-73.11233,us,ny
roosevelt,40.67871,-73.58902,us,ny
rotterdam,42.78702,-73.97096,us,ny
rye,40.98065,-73.68374,us,ny
saratoga springs,43.08313,-73.78457,us,ny
sayville,40.73593,-73.08206,us,ny
scarsdale,41.0051,-73.78458,us,ny
schenectady,42.81424,-73.93957,us,ny
seaford,40.66593,-73.48818,us,ny
selden,40.86649,-73.03566,us,ny
shirley,40.80149,-72.8676,us,ny
smithtown,40.85593,-73.20067,us,ny
spring valley,41.11315,-74.04375,us,ny
staten island,40.56233,-74.13986,us,ny
syosset,40.82621,-73.50207,us,ny
syracuse,43.04812,-76.14742,us,ny
tonawanda,43.02033,-78.88031,us,ny
troy,42.72841,-73.69179,us,ny
uniondale,40.70038,-73.59291,us,ny
utica,43.1009,-75.23266,us,ny
valley stream,40.66427,-73.70846,us,ny
wantagh,40.68371,-73.51013,us,ny
watertown,43.97478,-75.91076,us,ny
west albany,42.68313,-73.77845,us,ny
west babylon,40.71816,-73.35429,us,ny
west hempstead,40.70482,-73.65013,us,ny
west islip,40.70621,-73.30623,us,ny
west seneca,42.85006,-78.79975,us,ny
westbury,40.75566,-73.58763,us,ny
white plains,41.03399,-73.76291,us,ny
woodmere,40.63205,-73.71263,us,ny
yonkers,40.93121,-73.89875,us,ny
akron,41.08144,-81.51901,us,oh
alliance,40.91534,-81.10593,us,oh
ashland,40.86867,-82.31822,us,oh
ashtabula,41.86505,-80.78981,us,oh
aurora,41.31755,-81.34539,us,oh
austintown,41.10172,-80.76452,us,oh
avon,41.45171,-82.03542,us,oh
avon center,41.45976,-82.01959,us,oh
avon lake,41.50532,-82.0282,us,oh
barberton,41.01283,-81.60512,us,oh
bay village,41.48477,-81.92208,us,oh
berea,41.36616,-81.8543,us,oh
boardman,41.02423,-80.66285,us,oh
bowling green,41.37477,-83.65132,us,oh
broadview heights,41.31394,-81.68513,us,oh
brook park,41.39838,-81.80458,us,oh
brunswick,41.23811,-81.8418,us,oh
canton,40.79895,-81.37845,us,oh
cleveland,41.4995,-81.69541,us,oh
cuyahoga falls,41.13394,-81.48456,us,oh
defiance,41.28449,-84.35578,us,oh
delaware,40.29867,-83.06797,us,oh
dublin,40.09923,-83.11408,us,oh
east cleveland,41.53311,-81.57901,us,oh
eastlake,41.65394,-81.45039,us,oh
elyria,41.36838,-82.10765,us,oh
euclid,41.5931,-81.52679,us,oh
fairview park,41.44144,-81.8643,us,oh
findlay,41.04422,-83.64993,us,oh
fremont,41.35033,-83.12186,us,oh
gahanna,40.01923,-82.87934,us,oh
garfield heights,41.417,-81.60596,us,oh
green,40.94589,-81.48317,us,oh
hilliard,40.0334,-83.15825,us,oh
hudson,41.24006,-81.44067,us,oh
kent,41.15367,-81.35789,us,oh
lakewood,41.48199,-81.79819,us,oh
lima,40.74255,-84.10523,us,oh
lorain,41.45282,-82.18237,us,oh
mansfield,40.75839,-82.51545,us,oh
maple heights,41.41533,-81.56596,us,oh
marion,40.58867,-83.12852,us,oh
marysville,40.23645,-83.36714,us,oh
massillon,40.79672,-81.52151,us,oh
mayfield heights,41.51922,-81.4579,us,oh
medina,41.13839,-81.86375,us,oh
mentor,41.66616,-81.33955,us,oh
middleburg heights,41.36144,-81.81291,us,oh
mount vernon,40.3934,-82.48572,us,oh
new philadelphia,40.48979,-81.44567,us,oh
newark,40.05812,-82.40126,us,oh
niles,41.18284,-80.76536,us,oh
north canton,40.87589,-81.40234,us,oh
north olmsted,41.4156,-81.92347,us,oh
north ridgeville,41.38949,-82.01903,us,oh
north royalton,41.31366,-81.72457,us,oh
norwalk,41.24255,-82.61573,us,oh
oregon,41.64366,-83.48688,us,oh
painesville,41.72449,-81.24566,us,oh
parma,41.40477,-81.72291,us,oh
parma heights,41.39005,-81.75958,us,oh
perrysburg,41.557,-83.62716,us,oh
piqua,40.14477,-84.24244,us,oh
rocky river,41.4756,-81.8393,us,oh
sandusky,41.44894,-82.70796,us,oh
shaker heights,41.47394,-81.53707,us,oh
sidney,40.28422,-84.1555,us,oh
solon,41.38978,-81.44123,us,oh
south euclid,41.52311,-81.51846,us,oh
steubenville,40.36979,-80.63396,us,oh
stow,41.1595,-81.44039,us,oh
streetsboro,41.23922,-81.34594,us,oh
strongsville,41.3145,-81.83569,us,oh
sylvania,41.71894,-83.71299,us,oh
tallmadge,41.10145,-81.44178,us,oh
tiffin,41.1145,-83.17797,us,oh
toledo,41.66394,-83.55521,us,oh
troy,40.0395,-84.20328,us,oh
twinsburg,41.31256,-81.44011,us,oh
wadsworth,41.02561,-81.72985,us,oh
warren,41.23756,-80.81842,us,oh
westerville,40.12617,-82.92907,us,oh
westlake,41.45532,-81.91792,us,oh
willoughby,41.63977,-81.4065,us,oh
wooster,40.80517,-81.93646,us,oh
youngstown,41.09978,-80.64952,us,oh
allentown,40.60843,-75.49018,us,pa
allison park,40.55951,-79.95867,us,pa
altoona,40.51868,-78.39474,us,pa
back mountain,41.33591,-75.99631,us,pa
baldwin,40.33813,-79.97894,us,pa
bethel park,40.32757,-80.0395,us,pa
bethlehem,40.62593,-75.37046,us,pa
carlisle,40.20148,-77.18887,us,pa
easton,40.68843,-75.22073,us,pa
erie,42.12922,-80.08506,us,pa
harrisburg,40.2737,-76.88442,us,pa
hazleton,40.95842,-75.97465,us,pa
hermitage,41.23339,-80.44868,us,pa
johnstown,40.32674,-78.92197,us,pa
king of prussia,40.08927,-75.39602,us,pa
lancaster,40.03788,-76.30551,us,pa
lansdale,40.2415,-75.28379,us,pa
lebanon,40.34093,-76.41135,us,pa
levittown,40.15511,-74.82877,us,pa
limerick,40.23093,-75.52212,us,pa
mckeesport,40.34785,-79.86422,us,pa
monroeville,40.42118,-79.7881,us,pa
mount lebanon,40.35535,-80.0495,us,pa
murrysville,40.4284,-79.69755,us,pa
new castle,41.00367,-80.34701,us,pa
norristown,40.1215,-75.3399,us,pa
penn hills,40.50118,-79.83922,us,pa
phoenixville,40.13038,-75.51491,us,pa
pittsburgh,40.44062,-79.99589,us,pa
plum,40.50035,-79.74949,us,pa
pottstown,40.24537,-75.64963,us,pa
radnor,40.04622,-75.35991,us,pa
reading,40.33565,-75.92687,us,pa
scranton,41.40916,-75.6649,us,pa
state college,40.79339,-77.86,us,pa
upper saint clair,40.3359,-80.08339,us,pa
wayne,40.044,-75.38769,us,pa
west mifflin,40.3634,-79.86644,us,pa
whitehall township,40.66676,-75.49991,us,pa
wilkes-barre,41.24591,-75.88131,us,pa
wilkinsburg,40.44174,-79.88199,us,pa
williamsport,41.24119,-77.00108,us,pa
willow grove,40.144,-75.11573,us,pa
barrington,41.74066,-71.30866,us,ri
bristol,41.67705,-71.26616,us,ri
central falls,41.89066,-71.39228,us,ri
coventry,41.7001,-71.68284,us,ri
cranston,41.77982,-71.43728,us,ri
cumberland,41.96677,-71.43284,us,ri
east providence,41.81371,-71.37005,us,ri
middletown,41.54566,-71.29144,us,ri
newport,41.4901,-71.31283,us,ri
north kingstown,41.5501,-71.46617,us,ri
north providence,41.8501,-71.46617,us,ri
pawtucket,41.87871,-71.38256,us,ri
portsmouth,41.60232,-71.25033,us,ri
providence,41.82399,-71.41283,us,ri
smithfield,41.92204,-71.54951,us,ri
warwick,41.7001,-71.41617,us,ri
west warwick,41.69689,-71.52194,us,ri
westerly,41.3776,-71.82729,us,ri
woonsocket,42.00288,-71.51478,us,ri
aberdeen,45.4647,-98.48648,us,sd
brookings,44.31136,-96.79839,us,sd
mitchell,43.70943,-98.0298,us,sd
sioux falls,43.54997,-96.70033,us,sd
watertown,44.89941,-97.11507,us,sd
burlington,44.47588,-73.21207,us,vt
colchester,44.54394,-73.14791,us,vt
rutland,43.61062,-72.97261,us,vt
south burlington,44.46699,-73.17096,us,vt
appleton,44.26193,-88.41538,us,wi
ashwaubenon,44.48221,-88.0701,us,wi
beaver dam,43.45777,-88.83733,us,wi
beloit,42.50835,-89.03178,us,wi
brookfield,43.06057,-88.10648,us,wi
caledonia,42.8078,-87.92425,us,wi
cudahy,42.95974,-87.86147,us,wi
de pere,44.44888,-88.06038,us,wi
eau claire,44.81135,-91.49849,us,wi
fitchburg,42.96083,-89.46984,us,wi
fond du lac,43.775,-88.43883,us,wi
franklin,42.88863,-88.03842,us,wi
germantown,43.22862,-88.11037,us,wi
green bay,44.51916,-88.01983,us,wi
greenfield,42.9614,-88.01259,us,wi
howard,44.5436,-88.08816,us,wi
janesville,42.68279,-89.01872,us,wi
kaukauna,44.27804,-88.27205,us,wi
kenosha,42.58474,-87.82119,us,wi
la crosse,43.80136,-91.23958,us,wi
madison,43.07305,-89.40123,us,wi
manitowoc,44.08861,-87.65758,us,wi
marshfield,44.66885,-90.1718,us,wi
menasha,44.20221,-88.4465,us,wi
menomonee falls,43.1789,-88.11731,us,wi
menomonie,44.87552,-91.91934,us,wi
mequon,43.2364,-87.98453,us,wi
middleton,43.09722,-89.50429,us,wi
milwaukee,43.0389,-87.90647,us,wi
muskego,42.90585,-88.13898,us,wi
neenah,44.18582,-88.46261,us,wi
new berlin,42.9764,-88.10842,us,wi
north la crosse,43.84635,-91.24819,us,wi
oak creek,42.88585,-87.86314,us,wi
oconomowoc,43.11167,-88.49927,us,wi
onalaska,43.88441,-91.23514,us,wi
oshkosh,44.02471,-88.54261,us,wi
pleasant prairie,42.55308,-87.93341,us,wi
racine,42.72613,-87.78285,us,wi
sheboygan,43.75083,-87.71453,us,wi
south milwaukee,42.91057,-87.86064,us,wi
stevens point,44.52358,-89.57456,us,wi
sun prairie,43.1836,-89.21373,us,wi
superior,46.72077,-92.10408,us,wi
watertown,43.19472,-88.72899,us,wi
waukesha,43.01168,-88.23148,us,wi
wausau,44.95914,-89.63012,us,wi
wauwatosa,43.04946,-88.00759,us,wi
west allis,43.01668,-88.00703,us,wi
west bend,43.42528,-88.18343,us,wi
wisconsin rapids,44.38358,-89.81735,us,wi
weirton,40.41896,-80.58952,us,wv
weirton heights,40.4084,-80.53924,us,wv
wheeling,40.06396,-80.72091,us,wv
ansonia,41.34621,-73.079,us,ct
bridgeport,41.16704,-73.20483,us,ct
bristol,41.67176,-72.94927,us,ct
branford,41.27954,-72.8151,us,ct
cheshire,41.49899,-72.90066,us,ct
fillmore,34.39916,-118.91815,us,ca
buckeye,33.37032,-112.58378,us,az
bullhead city,35.14778,-114.5683,us,az
casa grande,32.8795,-111.75735,us,az
casas adobes,32.32341,-110.9951,us,az
catalina foothills,32.29785,-110.9187,us,az
chandler,33.30616,-111.84125,us,az
douglas,31.34455,-109.54534,us,az
drexel heights,32.14119,-111.02843,us,az
el mirage,33.61309,-112.3246,us,az
eloy,32.7559,-111.55484,us,az
flagstaff,35.19807,-111.65127,us,az
florence,33.03145,-111.38734,us,az
flowing wells,32.29396,-111.00982,us,az
fortuna foothills,32.65783,-114.41189,us,az
fountain hills,33.61171,-111.71736,us,az
gilbert,33.35283,-111.78903,us,az
glendale,33.53865,-112.18599,us,az
goodyear,33.43532,-112.35821,us,az
green valley,31.85425,-110.9937,us,az
kingman,35.18944,-114.05301,us,az
lake havasu city,34.4839,-114.32245,us,az
marana,32.43674,-111.22538,us,az
maricopa,33.05811,-112.04764,us,az
mesa,33.42227,-111.82264,us,az
nogales,31.34038,-110.93425,us,az
oro valley,32.39091,-110.96649,us,az
payson,34.23087,-111.32514,us,az
peoria,33.5806,-112.23738,us,az
phoenix,33.44838,-112.07404,us,az
prescott,34.54002,-112.4685,us,az
prescott valley,34.61002,-112.31572,us,az
queen creek,33.24866,-111.6343,us,az
rio rico,31.47148,-110.97648,us,az
sahuarita,31.95758,-110.95565,us,az
san luis,32.487,-114.78218,us,az
scottsdale,33.50921,-111.89903,us,az
sierra vista,31.55454,-110.30369,us,az
sun city,33.59754,-112.27182,us,az
sun city west,33.66198,-112.34127,us,az
surprise,33.63059,-112.33322,us,az
tanque verde,32.25174,-110.73731,us,az
tempe,33.41477,-111.90931,us,az
tempe junction,33.41421,-111.94348,us,az
tucson,32.22174,-110.92648,us,az
yuma,32.72532,-114.6244,us,az
adelanto,34.58277,-117.40922,us,ca
agoura,34.14306,-118.73787,us,ca
agoura hills,34.13639,-118.77453,us,ca
alameda,37.76521,-122.24164,us,ca
albany,37.88687,-122.29775,us,ca
alhambra,34.09529,-118.12701,us,ca
aliso viejo,33.56504,-117.72712,us,ca
altadena,34.18973,-118.13118,us,ca
alum rock,37.36605,-121.82718,us,ca
american canyon,38.17492,-122.2608,us,ca
anaheim,33.83529,-117.9145,us,ca
antelope,38.70824,-121.32995,us,ca
antioch,38.00492,-121.80579,us,ca
apple valley,34.50083,-117.18588,us,ca
arcadia,34.13973,-118.03534,us,ca
arroyo grande,35.11859,-120.59073,us,ca
artesia,33.86585,-118.08312,us,ca
arvin,35.20913,-118.82843,us,ca
ashland,37.69465,-122.11385,us,ca
atascadero,35.48942,-120.67073,us,ca
atwater,37.34772,-120.60908,us,ca
avenal,36.00412,-120.12903,us,ca
avocado heights,34.03612,-117.99118,us,ca
azusa,34.13362,-117.90756,us,ca
bakersfield,35.37329,-119.01871,us,ca
baldwin park,34.08529,-117.9609,us,ca
banning,33.92557,-116.87641,us,ca
barstow,34.89859,-117.02282,us,ca
barstow heights,34.86971,-117.05615,us,ca
bay point,38.02909,-121.96163,us,ca
beaumont,33.92946,-116.97725,us,ca
bell,33.97751,-118.18702,us,ca
bell gardens,33.96529,-118.15146,us,ca
bellflower,33.88168,-118.11701,us,ca
belmont,37.52021,-122.2758,us,ca
benicia,38.04937,-122.15858,us,ca
berkeley,37.87159,-122.27275,us,ca
beverly hills,34.07362,-118.40036,us,ca
bloomington,34.07029,-117.39588,us,ca
blythe,33.6103,-114.59635,us,ca
bostonia,32.80755,-116.93642,us,ca
boyle heights,34.0339,-118.20535,us,ca
brawley,32.97866,-115.53027,us,ca
brea,33.91668,-117.90006,us,ca
brentwood,37.93187,-121.69579,us,ca
buena park,33.86751,-117.99812,us,ca
burbank,34.18084,-118.30897,us,ca
burlingame,37.5841,-122.36608,us,ca
calabasas,34.15778,-118.63842,us,ca
calexico,32.67895,-115.49888,us,ca
camarillo,34.21639,-119.0376,us,ca
cameron park,38.66879,-120.98716,us,ca
campbell,37.28717,-121.94996,us,ca
canoga park,34.20112,-118.59814,us,ca
carlsbad,33.15809,-117.35059,us,ca
carmichael,38.61713,-121.32828,us,ca
carson,33.83141,-118.28202,us,ca
castaic,34.48888,-118.62287,us,ca
castro valley,37.6941,-122.08635,us,ca
cathedral city,33.77974,-116.46529,us,ca
ceres,37.59493,-120.95771,us,ca
cerritos,33.85835,-118.06479,us,ca
chatsworth,34.25723,-118.6012,us,ca
chico,39.72849,-121.83748,us,ca
chino,34.01223,-117.68894,us,ca
chino hills,33.9938,-117.75888,us,ca
chowchilla,37.123,-120.26018,us,ca
chula vista,32.64005,-117.0842,us,ca
citrus heights,38.70712,-121.28106,us,ca
claremont,34.09668,-117.71978,us,ca
clearlake,38.95823,-122.62637,us,ca
clovis,36.82523,-119.70292,us,ca
coachella,33.6803,-116.17389,us,ca
colton,34.0739,-117.31365,us,ca
compton,33.89585,-118.22007,us,ca
concord,37.97798,-122.03107,us,ca
corcoran,36.09801,-119.5604,us,ca
corona,33.87529,-117.56644,us,ca
coronado,32.68589,-117.18309,us,ca
costa mesa,33.64113,-117.91867,us,ca
covina,34.09001,-117.89034,us,ca
cudahy,33.96057,-118.18535,us,ca
culver city,34.02112,-118.39647,us,ca
cupertino,37.323,-122.03218,us,ca
cypress,33.81696,-118.03729,us,ca
daly city,37.70577,-122.46192,us,ca
dana point,33.46697,-117.69811,us,ca
danville,37.82159,-121.99996,us,ca
davis,38.54491,-121.74052,us,ca
delano,35.76884,-119.24705,us,ca
desert hot springs,33.96173,-116.50353,us,ca
diamond bar,34.02862,-117.81034,us,ca
dinuba,36.54328,-119.38707,us,ca
dixon,38.44546,-121.8233,us,ca
downey,33.94001,-118.13257,us,ca
duarte,34.13945,-117.97729,us,ca
dublin,37.70215,-121.93579,us,ca
east rancho dominguez,33.89807,-118.19535,us,ca
east hemet,33.74002,-116.93891,us,ca
east los angeles,34.0239,-118.17202,us,ca
east palo alto,37.46883,-122.14108,us,ca
el cajon,32.79477,-116.96253,us,ca
el centro,32.792,-115.56305,us,ca
el cerrito,37.91576,-122.31164,us,ca
el dorado hills,38.68574,-121.08217,us,ca
el monte,34.06862,-118.02757,us,ca
el segundo,33.91918,-118.41647,us,ca
elk grove,38.4088,-121.37162,us,ca
encinitas,33.03699,-117.29198,us,ca
escondido,33.11921,-117.08642,us,ca
fair oaks,38.64463,-121.27217,us,ca
fairfield,38.24936,-122.03997,us,ca
fallbrook,33.37642,-117.25115,us,ca
florin,38.49602,-121.40884,us,ca
folsom,38.67796,-121.17606,us,ca
fontana,34.09223,-117.43505,us,ca
foothill farms,38.67877,-121.35114,us,ca
foster city,37.55855,-122.27108,us,ca
fountain valley,33.70918,-117.95367,us,ca
fremont,37.54827,-121.98857,us,ca
fresno,36.74773,-119.77237,us,ca
fullerton,33.87029,-117.92534,us,ca
galt,38.25464,-121.29995,us,ca
garden grove,33.77391,-117.94145,us,ca
gardena,33.88835,-118.30896,us,ca
gilroy,37.00578,-121.56828,us,ca
glen avon,34.01168,-117.48477,us,ca
glendale,34.14251,-118.25508,us,ca
glendora,34.13612,-117.86534,us,ca
goleta,34.43583,-119.82764,us,ca
granite bay,38.76323,-121.16384,us,ca
greenfield,36.3208,-121.24381,us,ca
hacienda heights,33.99307,-117.96868,us,ca
hanford,36.32745,-119.64568,us,ca
hawthorne,33.9164,-118.35257,us,ca
hayward,37.66882,-122.0808,us,ca
hemet,33.74761,-116.97307,us,ca
hercules,38.01714,-122.28858,us,ca
hermosa beach,33.86224,-118.39952,us,ca
hesperia,34.42639,-117.30088,us,ca
highland,34.12834,-117.20865,us,ca
hollister,36.85245,-121.4016,us,ca
hollywood,34.09834,-118.32674,us,ca
huntington beach,33.6603,-117.99923,us,ca
huntington park,33.98168,-118.22507,us,ca
imperial beach,32.58394,-117.11308,us,ca
indio,33.7207,-116.21677,us,ca
inglewood,33.96168,-118.35313,us,ca
irvine,37.68187,-121.76801,us,ca
lodi,38.1302,-121.27245,us,ca
loma linda,34.04835,-117.26115,us,ca
lomita,33.79224,-118.31507,us,ca
lompoc,34.63915,-120.45794,us,ca
long beach,33.76696,-118.18923,us,ca
los altos,37.38522,-122.11413,us,ca
los angeles,34.05223,-118.24368,us,ca
los banos,37.05828,-120.84992,us,ca
los gatos,37.22661,-121.97468,us,ca
lynwood,33.93029,-118.21146,us,ca
madera,36.96134,-120.06072,us,ca
manhattan beach,33.88474,-118.41091,us,ca
manteca,37.79743,-121.21605,us,ca
marina,36.6844,-121.80217,us,ca
martinez,38.01937,-122.13413,us,ca
maywood,33.98668,-118.18535,us,ca
mead valley,33.83335,-117.29615,us,ca
menifee,33.72835,-117.14642,us,ca
menlo park,37.45383,-122.18219,us,ca
merced,37.30216,-120.48297,us,ca
millbrae,37.59855,-122.38719,us,ca
milpitas,37.42827,-121.90662,us,ca
mira loma,33.99251,-117.51644,us,ca
mission viejo,33.60002,-117.672,us,ca
modesto,37.6391,-120.99688,us,ca
monrovia,34.14806,-117.99895,us,ca
montclair,34.07751,-117.68978,us,ca
montebello,34.00946,-118.10535,us,ca
monterey,36.60024,-121.89468,us,ca
monterey park,34.06251,-118.12285,us,ca
moorpark,34.28556,-118.88204,us,ca
moraga,37.83493,-122.12969,us,ca
moreno valley,33.93752,-117.23059,us,ca
morgan hill,37.1305,-121.65439,us,ca
mountain view,37.38605,-122.08385,us,ca
murrieta,33.55391,-117.21392,us,ca
napa,38.29714,-122.28553,us,ca
national city,32.67811,-117.0992,us,ca
newark,37.52966,-122.04024,us,ca
newport beach,33.61891,-117.92895,us,ca
nipomo,35.04275,-120.476,us,ca
norco,33.93113,-117.54866,us,ca
north glendale,34.16056,-118.26452,us,ca
north highlands,38.68574,-121.37217,us,ca
north hollywood,34.17223,-118.37897,us,ca
northridge,34.22834,-118.53675,us,ca
norwalk,33.90224,-118.08173,us,ca
novato,38.10742,-122.5697,us,ca
oakdale,37.76659,-120.84715,us,ca
oakland,37.80437,-122.2708,us,ca
oakley,37.99742,-121.71245,us,ca
oceanside,33.19587,-117.37948,us,ca
oildale,35.41968,-119.01955,us,ca
ontario,34.06334,-117.65089,us,ca
orange,33.78779,-117.85311,us,ca
orangevale,38.67851,-121.22578,us,ca
orcutt,34.86526,-120.436,us,ca
orinda,37.87715,-122.17969,us,ca
oroville,39.51394,-121.55776,us,ca
oxnard,34.1975,-119.17705,us,ca
oxnard shores,34.19084,-119.2415,us,ca
pacifica,37.61383,-122.48692,us,ca
pacific grove,36.61774,-121.91662,us,ca
palm desert,33.72255,-116.37697,us,ca
palm springs,33.8303,-116.54529,us,ca
palmdale,34.57943,-118.11646,us,ca
palo alto,37.44188,-122.14302,us,ca
paradise,39.75961,-121.62192,us,ca
paramount,33.88946,-118.15979,us,ca
pasadena,34.14778,-118.14452,us,ca
paso robles,35.62664,-120.691,us,ca
patterson,37.4716,-121.12966,us,ca
perris,33.78252,-117.22865,us,ca
petaluma,38.23242,-122.63665,us,ca
pico rivera,33.98307,-118.09673,us,ca
pinole,38.00437,-122.29886,us,ca
pittsburg,38.02798,-121.88468,us,ca
placentia,33.87224,-117.87034,us,ca
pleasant hill,37.94798,-122.0608,us,ca
pleasanton,37.66243,-121.87468,us,ca
pomona,34.05529,-117.75228,us,ca
port hueneme,34.14778,-119.19511,us,ca
porterville,36.06523,-119.01677,us,ca
poway,32.96282,-117.03586,us,ca
prunedale,36.77579,-121.66967,us,ca
ramona,33.04171,-116.86808,us,ca
rancho cordova,38.58907,-121.30273,us,ca
rancho cucamonga,34.1064,-117.59311,us,ca
rancho mirage,33.73974,-116.41279,us,ca
rancho palos verdes,33.74446,-118.38702,us,ca
rancho san diego,32.74727,-116.9353,us,ca
rancho santa margarita,33.64086,-117.6031,us,ca
redlands,34.05557,-117.18254,us,ca
redondo beach,33.84918,-118.38841,us,ca
redwood city,37.48522,-122.23635,us,ca
reedley,36.59634,-119.4504,us,ca
rialto,34.1064,-117.37032,us,ca
richmond,37.93576,-122.34775,us,ca
ridgecrest,35.62246,-117.6709,us,ca
rio linda,38.69101,-121.44857,us,ca
riverbank,37.73604,-120.93549,us,ca
riverside,33.95335,-117.39616,us,ca
rocklin,38.79073,-121.23578,us,ca
rohnert park,38.33964,-122.7011,us,ca
rosamond,34.86414,-118.16341,us,ca
rosemead,34.08057,-118.07285,us,ca
rosemont,38.55185,-121.36467,us,ca
roseville,38.75212,-121.28801,us,ca
rowland heights,33.97612,-117.90534,us,ca
rubidoux,33.99613,-117.4056,us,ca
sacramento,38.58157,-121.4944,us,ca
salinas,36.67774,-121.6555,us,ca
san bernardino,34.10834,-117.28977,us,ca
san bruno,37.63049,-122.41108,us,ca
san carlos,37.50716,-122.26052,us,ca
san clemente,33.42697,-117.61199,us,ca
san diego,32.71533,-117.15726,us,ca
san dimas,34.10668,-117.80673,us,ca
san fernando,34.28195,-118.43897,us,ca
san francisco,37.77493,-122.41942,us,ca
san gabriel,34.09611,-118.10583,us,ca
san jacinto,33.78391,-116.95864,us,ca
san jose,37.33939,-121.89496,us,ca
san juan capistrano,33.50169,-117.66255,us,ca
san leandro,37.72493,-122.15608,us,ca
san lorenzo,37.68104,-122.12441,us,ca
san luis obispo,35.28275,-120.65962,us,ca
san marcos,33.14337,-117.16614,us,ca
san mateo,37.56299,-122.32553,us,ca
san pablo,37.96215,-122.34553,us,ca
san pedro,33.73585,-118.29229,us,ca
san rafael,37.97353,-122.53109,us,ca
san ramon,37.77993,-121.97802,us,ca
sanger,36.70801,-119.55597,us,ca
santa ana,33.74557,-117.86783,us,ca
santa barbara,34.42083,-119.69819,us,ca
santa clara,37.35411,-121.95524,us,ca
santa clarita,34.39166,-118.54259,us,ca
santa cruz,36.97412,-122.0308,us,ca
santa fe springs,33.94724,-118.08535,us,ca
santa maria,34.95303,-120.43572,us,ca
santa monica,34.01945,-118.49119,us,ca
santa paula,34.35417,-119.05927,us,ca
santa rosa,38.44047,-122.71443,us,ca
santee,32.83838,-116.97392,us,ca
saratoga,37.26383,-122.02301,us,ca
seal beach,33.74141,-118.10479,us,ca
seaside,36.61107,-121.85162,us,ca
selma,36.57078,-119.61208,us,ca
shafter,35.50051,-119.27178,us,ca
sherman oaks,34.15112,-118.44925,us,ca
simi valley,34.26945,-118.78148,us,ca
soledad,36.42469,-121.32632,us,ca
south el monte,34.05195,-118.04673,us,ca
south gate,33.95474,-118.21202,us,ca
south lake tahoe,38.93324,-119.98435,us,ca
south pasadena,34.11612,-118.15035,us,ca
south san francisco,37.65466,-122.40775,us,ca
south san jose hills,34.01279,-117.90478,us,ca
south whittier,33.95015,-118.03917,us,ca
south yuba city,39.11656,-121.63913,us,ca
spring valley,32.74477,-116.99892,us,ca
stanton,33.80252,-117.99312,us,ca
stockton,37.9577,-121.29078,us,ca
suisun,38.23825,-122.04024,us,ca
sun city,33.70919,-117.19726,us,ca
sunnyvale,37.36883,-122.03635,us,ca
temecula,33.49364,-117.14836,us,ca
temple city,34.10723,-118.05785,us,ca
thousand oaks,34.17056,-118.83759,us,ca
torrance,33.83585,-118.34063,us,ca
tracy,37.73987,-121.42618,us,ca
truckee,39.32796,-120.18325,us,ca
tulare,36.20773,-119.34734,us,ca
turlock,37.49466,-120.84659,us,ca
tustin,33.74585,-117.82617,us,ca
north tustin,33.76446,-117.79394,us,ca
twentynine palms,34.13556,-116.05417,us,ca
ukiah,39.15017,-123.20778,us,ca
union city,37.59577,-122.01913,us,ca
universal city,34.1389,-118.35341,us,ca
upland,37.90631,-122.06496,us,ca
walnut park,33.96807,-118.22507,us,ca
watsonville,36.91023,-121.75689,us,ca
west carson,33.82168,-118.29257,us,ca
west covina,34.06862,-117.93895,us,ca
west hollywood,34.09001,-118.36174,us,ca
west puente valley,34.05168,-117.9684,us,ca
west sacramento,38.58046,-121.53023,us,ca
westminster,33.75918,-118.00673,us,ca
westmont,33.9414,-118.3023,us,ca
whittier,33.97918,-118.03284,us,ca
wildomar,33.59891,-117.28004,us,ca
willowbrook,33.91696,-118.25507,us,ca
windsor,38.54713,-122.81638,us,ca
winter gardens,32.83116,-116.93336,us,ca
woodland,38.67852,-121.7733,us,ca
woodland hills,34.16834,-118.60592,us,ca
yorba linda,33.88863,-117.81311,us,ca
yuba city,39.14045,-121.61691,us,ca
yucaipa,34.03363,-117.04309,us,ca
yucca valley,34.11417,-116.43224,us,ca
arvada,39.80276,-105.08748,us,co
aurora,39.72943,-104.83192,us,co
brighton,39.98526,-104.82053,us,co
broomfield,39.92054,-105.08665,us,co
canon city,38.44098,-105.24245,us,co
castle rock,39.37221,-104.85609,us,co
castlewood,39.58471,-104.90109,us,co
centennial,39.57916,-104.87692,us,co
cimarron hills,38.85861,-104.69886,us,co
clifton,39.09193,-108.44898,us,co
colorado springs,38.83388,-104.82136,us,co
columbine,39.58777,-105.06943,us,co
commerce city,39.80832,-104.93387,us,co
denver,39.73915,-104.9847,us,co
durango,37.27528,-107.88007,us,co
englewood,39.64777,-104.98776,us,co
fountain,38.68222,-104.70081,us,co
golden,39.75554,-105.2211,us,co
grand junction,39.06387,-108.55065,us,co
highlands ranch,39.55388,-104.96943,us,co
ken caryl,39.57582,-105.11221,us,co
lafayette,39.9936,-105.08971,us,co
lakewood,39.70471,-105.08137,us,co
littleton,39.61332,-105.01665,us,co
louisville,39.97776,-105.13193,us,co
montrose,38.47832,-107.87617,us,co
northglenn,39.88554,-104.9872,us,co
parker,39.5186,-104.76136,us,co
pueblo,38.25445,-104.60914,us,co
pueblo west,38.35,-104.72275,us,co
sherrelwood,39.83776,-105.00137,us,co
southglenn,39.58721,-104.95276,us,co
thornton,39.86804,-104.97192,us,co
westminster,39.83665,-105.0372,us,co
wheat ridge,39.7661,-105.07721,us,co
dodge city,37.7528,-100.01708,us,ks
garden city,37.97169,-100.87266,us,ks
liberal,37.04308,-100.921,us,ks
alamogordo,32.89953,-105.96027,us,nm
albuquerque,35.08449,-106.65114,us,nm
carlsbad,32.42067,-104.22884,us,nm
clovis,34.4048,-103.20523,us,nm
farmington,36.72806,-108.21869,us,nm
gallup,35.52808,-108.74258,us,nm
hobbs,32.70261,-103.13604,us,nm
las cruces,32.31232,-106.77834,us,nm
rio rancho,35.23338,-106.66447,us,nm
roswell,33.39437,-104.52491,us,nm
santa fe,35.68698,-105.9378,us,nm
south valley,35.01005,-106.67808,us,nm
boulder city,35.97859,-114.83249,us,nv
carson city,39.1638,-119.7674,us,nv
enterprise,36.02525,-115.24194,us,nv
fernley,39.60797,-119.25183,us,nv
henderson,36.0397,-114.98194,us,nv
las vegas,36.17497,-115.13722,us,nv
mesquite,36.80553,-114.06719,us,nv
north las vegas,36.19886,-115.1175,us,nv
pahrump,36.20829,-115.98391,us,nv
paradise,36.09719,-115.14666,us,nv
reno,39.52963,-119.8138,us,nv
spanish springs,39.64908,-119.70741,us,nv
sparks,39.53491,-119.75269,us,nv
spring valley,36.10803,-115.245,us,nv
sun valley,39.5963,-119.77602,us,nv
sunrise manor,36.21108,-115.07306,us,nv
whitney,36.09831,-115.0363,us,nv
winchester,36.12997,-115.11889,us,nv
amarillo,35.222,-101.8313,us,tx
big spring,32.2504,-101.47874,us,tx
del rio,29.36273,-100.89676,us,tx
eagle pass,28.70914,-100.49952,us,tx
el paso,31.75872,-106.48693,us,tx
hereford,34.81521,-102.39932,us,tx
horizon city,31.69261,-106.20748,us,tx
lubbock,33.57786,-101.85517,us,tx
midland,31.99735,-102.07791,us,tx
odessa,31.84568,-102.36764,us,tx
pampa,35.53616,-100.95987,us,tx
plainview,34.18479,-101.70684,us,tx
san angelo,31.46377,-100.43704,us,tx
socorro,31.65456,-106.30331,us,tx
socorro mission number 1 colonia,31.63622,-106.29054,us,tx
west odessa,31.84235,-102.49876,us,tx
cedar city,37.67748,-113.06189,us,ut
saint george,37.10415,-113.58412,us,ut
washington,37.13054,-113.50829,us,ut
wasco,35.59412,-119.34095,us,ca
anthem,33.86726,-112.14682,us,az
apache junction,33.41505,-111.54958,us,az
avondale,33.4356,-112.3496,us,az
juneau,58.30194,-134.41972,us,ak
arcata,40.86652,-124.08284,us,ca
bayside,40.84235,-124.06367,us,ca
eureka,40.80207,-124.16367,us,ca
mckinleyville,40.94652,-124.10062,us,ca
redding,40.58654,-122.39168,us,ca
susanville,40.41628,-120.65301,us,ca
boulder,40.01499,-105.27055,us,co
erie,40.05026,-105.04998,us,co
evans,40.37637,-104.69219,us,co
fort collins,40.58526,-105.08442,us,co
greeley,40.42331,-104.70913,us,co
longmont,40.16721,-105.10193,us,co
loveland,40.39776,-105.07498,us,co
windsor,40.47748,-104.90136,us,co
boise,43.6135,-116.20345,us,id
caldwell,43.66294,-116.68736,us,id
coeur d'alene,47.67768,-116.78047,us,id
eagle,43.69544,-116.35401,us,id
idaho falls,43.46658,-112.03414,us,id
kuna,43.49183,-116.42012,us,id
lewiston,46.41655,-117.01766,us,id
lewiston orchards,46.38044,-116.97543,us,id
meridian,43.61211,-116.39151,us,id
moscow,46.73239,-117.00017,us,id
nampa,43.54072,-116.56346,us,id
pocatello,42.8713,-112.44553,us,id
post falls,47.71796,-116.95159,us,id
rexburg,43.82602,-111.78969,us,id
twin falls,42.56297,-114.46087,us,id
billings,45.78329,-108.50069,us,mt
bozeman,45.67965,-111.03856,us,mt
butte,46.00382,-112.53474,us,mt
great falls,47.50024,-111.30081,us,mt
helena,46.59271,-112.03611,us,mt
kalispell,48.19579,-114.31291,us,mt
missoula,46.87215,-113.994,us,mt
bismarck,46.80833,-100.78374,us,nd
dickinson,46.87918,-102.78962,us,nd
mandan,46.82666,-100.88958,us,nd
minot,48.23251,-101.29627,us,nd
north platte,41.12389,-100.76542,us,ne
scottsbluff,41.86663,-103.66717,us,ne
elko,40.83242,-115.76312,us,nv
albany,44.63651,-123.10593,us,or
aloha,45.49428,-122.86705,us,or
altamont,42.20681,-121.73722,us,or
ashland,42.19458,-122.70948,us,or
beaverton,45.48706,-122.80371,us,or
bend,44.05817,-121.31531,us,or
bethany,45.55789,-122.8676,us,or
canby,45.2629,-122.69259,us,or
central point,42.37596,-122.91643,us,or
coos bay,43.3665,-124.21789,us,or
corvallis,44.56457,-123.26204,us,or
eugene,44.05207,-123.08675,us,or
forest grove,45.51984,-123.11066,us,or
four corners,44.9279,-122.98371,us,or
grants pass,42.43933,-123.33067,us,or
gresham,45.49818,-122.43148,us,or
hayesville,44.98595,-122.98287,us,or
hermiston,45.84041,-119.28946,us,or
hillsboro,45.52289,-122.98983,us,or
keizer,44.99012,-123.02621,us,or
klamath falls,42.22487,-121.78167,us,or
lake oswego,45.42067,-122.67065,us,or
lebanon,44.53651,-122.90703,us,or
lents,45.47984,-122.56731,us,or
mcminnville,45.21012,-123.19872,us,or
medford,42.32652,-122.87559,us,or
milwaukie,45.44623,-122.63926,us,or
newberg,45.30012,-122.97316,us,or
oak grove,45.41679,-122.64009,us,or
oregon city,45.35734,-122.60676,us,or
pendleton,45.67207,-118.7886,us,or
portland,45.52345,-122.67621,us,or
redmond,44.27262,-121.17392,us,or
roseburg,43.2165,-123.34174,us,or
salem,44.9429,-123.0351,us,or
sherwood,45.35651,-122.8401,us,or
springfield,44.04624,-123.02203,us,or
tigard,45.43123,-122.77149,us,or
troutdale,45.53929,-122.38731,us,or
tualatin,45.38401,-122.76399,us,or
west linn,45.36568,-122.61231,us,or
wilsonville,45.29984,-122.77371,us,or
woodburn,45.14373,-122.85537,us,or
rapid city,44.08054,-103.23101,us,sd
bountiful,40.88939,-111.88077,us,ut
brigham city,41.51021,-112.0155,us,ut
centerville,40.918,-111.87216,us,ut
clearfield,41.11078,-112.02605,us,ut
clinton,41.13967,-112.0505,us,ut
cottonwood heights,40.61967,-111.81021,us,ut
draper,40.52467,-111.86382,us,ut
eagle mountain,40.31412,-112.00688,us,ut
east millcreek,40.69995,-111.81049,us,ut
farmington,40.9805,-111.88744,us,ut
herriman,40.51411,-112.03299,us,ut
highland,40.42548,-111.79447,us,ut
holladay,40.66884,-111.82466,us,ut
kaysville,41.03522,-111.93855,us,ut
kearns,40.65995,-111.99633,us,ut
layton,41.06022,-111.97105,us,ut
lehi,40.39162,-111.85077,us,ut
logan,41.73549,-111.83439,us,ut
magna,40.70911,-112.10161,us,ut
midvale,40.61106,-111.89994,us,ut
millcreek,40.68689,-111.87549,us,ut
murray,40.66689,-111.88799,us,ut
north ogden,41.30716,-111.96022,us,ut
north salt lake,40.84856,-111.90688,us,ut
ogden,41.223,-111.97383,us,ut
orem,40.2969,-111.69465,us,ut
payson,40.0444,-111.73215,us,ut
pleasant grove,40.36412,-111.73854,us,ut
provo,40.23384,-111.65853,us,ut
riverton,40.52189,-111.9391,us,ut
roy,41.16161,-112.02633,us,ut
salt lake city,40.76078,-111.89105,us,ut
sandy city,40.59161,-111.8841,us,ut
sandy hills,40.58106,-111.85077,us,ut
saratoga springs,40.34912,-111.90466,us,ut
south jordan heights,40.56384,-111.94938,us,ut
south jordan,40.56217,-111.92966,us,ut
south ogden,41.19189,-111.97133,us,ut
south salt lake,40.71884,-111.88827,us,ut
spanish fork,40.11496,-111.65492,us,ut
springville,40.16523,-111.61075,us,ut
syracuse,41.08939,-112.06467,us,ut
taylorsville,40.66772,-111.93883,us,ut
tooele,40.53078,-112.29828,us,ut
west jordan,40.60967,-111.9391,us,ut
west valley city,40.69161,-112.00105,us,ut
aberdeen,46.97537,-123.81572,us,wa
anacortes,48.5126,-122.61267,us,wa
arlington,48.19871,-122.12514,us,wa
auburn,47.30732,-122.22845,us,wa
battle ground,45.78095,-122.53343,us,wa
bellevue,47.61038,-122.20068,us,wa
bellingham,48.75955,-122.48822,us,wa
bonney lake,47.17705,-122.18651,us,wa
bothell,47.76232,-122.2054,us,wa
bremerton,47.56732,-122.63264,us,wa
burien,47.47038,-122.34679,us,wa
camas,45.58706,-122.39954,us,wa
centralia,46.71621,-122.9543,us,wa
cottage lake,47.74427,-122.07735,us,wa
covington,47.35818,-122.12216,us,wa
des moines,47.40177,-122.32429,us,wa
edmonds,47.81065,-122.37736,us,wa
ellensburg,46.99651,-120.54785,us,wa
everett,47.97898,-122.20208,us,wa
fairwood,47.44843,-122.15734,us,wa
federal way,47.32232,-122.31262,us,wa
five corners,45.68456,-122.5751,us,wa
frederickson,47.09621,-122.35873,us,wa
graham,47.05288,-122.29428,us,wa
hazel dell,45.67151,-122.66288,us,wa
issaquah,47.5301,-122.03262,us,wa
kenmore,47.75732,-122.24401,us,wa
kennewick,46.21125,-119.13723,us,wa
kent,47.38093,-122.23484,us,wa
kirkland,47.68149,-122.20874,us,wa
lacey,47.03426,-122.82319,us,wa
lake stevens,48.0151,-122.06374,us,wa
lakewood,47.17176,-122.51846,us,wa
longview,46.13817,-122.93817,us,wa
lynnwood,47.82093,-122.31513,us,wa
maple valley,47.39272,-122.04641,us,wa
martha lake,47.85093,-122.2393,us,wa
marysville,48.05176,-122.17708,us,wa
mercer island,47.57065,-122.22207,us,wa
mill creek,47.8601,-122.2043,us,wa
monroe,47.85538,-121.97096,us,wa
moses lake,47.13014,-119.27808,us,wa
mount vernon,48.42122,-122.33405,us,wa
mountlake terrace,47.78815,-122.30874,us,wa
mukilteo,47.94454,-122.30458,us,wa
north creek,47.81954,-122.17624,us,wa
oak harbor,48.29316,-122.64322,us,wa
olympia,47.03787,-122.9007,us,wa
opportunity,47.64995,-117.23991,us,wa
orchards,45.66651,-122.56093,us,wa
parkland,47.15538,-122.43401,us,wa
pasco,46.23958,-119.10057,us,wa
port angeles,48.11815,-123.43074,us,wa
pullman,46.73127,-117.17962,us,wa
puyallup,47.18538,-122.2929,us,wa
redmond,47.67399,-122.12151,us,wa
renton,47.48288,-122.21707,us,wa
richland,46.28569,-119.28446,us,wa
salmon creek,45.71067,-122.64899,us,wa
sammamish,47.64177,-122.0804,us,wa
seatac,47.44846,-122.29217,us,wa
seattle,47.60621,-122.33207,us,wa
shoreline,47.75565,-122.34152,us,wa
silverdale,47.64454,-122.69487,us,wa
south hill,47.14121,-122.27012,us,wa
spanaway,47.10399,-122.43457,us,wa
spokane,47.65966,-117.42908,us,wa
spokane valley,47.67323,-117.23937,us,wa
sunnyside,46.32374,-120.00865,us,wa
tacoma,47.25288,-122.44429,us,wa
tukwila,47.47399,-122.26096,us,wa
tumwater,47.00732,-122.90931,us,wa
university place,47.23565,-122.5504,us,wa
vancouver,45.63873,-122.66149,us,wa
walla walla,46.06458,-118.34302,us,wa
wenatchee,47.42346,-120.31035,us,wa
west lake sammamish,47.5776,-122.10123,us,wa
west lake stevens,47.99343,-122.1018,us,wa
bainbridge island,47.62621,-122.52124,us,wa
yakima,46.60207,-120.5059,us,wa
casper,42.86663,-106.31308,us,wy
cheyenne,41.13998,-104.82025,us,wy
gillette,44.29109,-105.50222,us,wy
laramie,41.31137,-105.5911,us,wy
rock springs,41.58746,-109.2029,us,wy
sheridan,44.79719,-106.95618,us,wy
american fork,40.3769,-111.79576,us,ut
kahului,20.88953,-156.47432,us,hi
kailua,21.40241,-157.74054,us,hi
kaneohe,21.39994,-157.79895,us,hi
kihei,20.76462,-156.44578,us,hi
makakilo city,21.34694,-158.08583,us,hi
mililani town,21.45,-158.00111,us,hi
pearl city,21.39734,-157.97516,us,hi
wahiawa,21.50279,-158.02464,us,hi
wailuku,20.89133,-156.50604,us,hi
waipahu,21.38667,-158.00917,us,hi
'ewa gentry,21.33999,-158.03039,us,hi
hilo,19.72991,-155.09073,us,hi
honolulu,21.30694,-157.85833,us,hi
eagle river,61.32139,-149.56778,us,ak
fairbanks,64.83778,-147.71639,us,ak
anchorage,61.21806,-149.90028,us,ak
badger,64.8,-147.53333,us,ak
milton,34.13216,-84.30067,us,ga
johns creek,34.02893,-84.19858,us,ga
cutler bay,25.5783,-80.3377,us,fl
alafaya,28.5641,-81.2114,us,fl
fort bragg,35.139,-79.00603,us,nc
city of milford (balance),41.22374,-73.06164,us,ct
butte-silver bow (balance),45.90194,-112.65708,us,mt
city of sammamish,47.60444,-122.03768,us,wa
silver firs,47.86602,-122.1551,us,wa
vineyard,38.46449,-121.34692,us,ca
wallingford center,41.44987,-72.81892,us,ct
bel air north,39.55429,-76.37309,us,md
bel air south,39.50506,-76.31977,us,md
setauket-east setauket,40.93064,-73.10179,us,ny
fort leonard wood,37.70573,-92.15717,us,mo
west bloomfield township,42.56891,-83.38356,us,mi
east lake-orient park,27.98269,-82.37878,us,fl
four corners,28.33287,-81.64738,us,fl
greater northdale,28.10545,-82.52594,us,fl
candler-mcafee,33.72672,-84.27246,us,ga
university,28.07389,-82.43902,us,fl
vero beach south,27.61638,-80.41308,us,fl
kendall west,25.7065,-80.4388,us,fl
palm river-clair mel,27.92386,-82.37939,us,fl
arden-arcade,38.6025,-121.37854,us,ca
bryn mawr-skyway,47.4943,-122.24092,us,wa
casa de oro-mount helix,32.76397,-116.96877,us,ca
florence-graham,33.96772,-118.24438,us,ca
fort hood,31.13489,-97.77561,us,tx
inglewood-finn hill,47.72049,-122.23167,us,wa
la crescenta-montrose,34.23216,-118.23529,us,ca
east hill-meridian,47.41052,-122.17369,us,wa
security-widefield,38.74728,-104.71439,us,co
union hill-novelty hill,47.67887,-122.02833,us,wa
west whittier-los nietos,33.976,-118.06909,us,ca
summerlin south,36.11708,-115.33001,us,nv
makakilo,21.35237,-158.08655,us,hi
schofield barracks,21.49837,-158.06515,us,hi
san tan valley,33.1911,-111.528,us,az
enchanted hills,35.33676,-106.59296,us,nm
west hills,34.19731,-118.64398,us,ca
oak hill,38.9258,-77.40156,us,va
bridgewater,40.60079,-74.64815,us,nj
warren township,40.60822,-74.51803,us,nj
fairfield heights,39.82861,-86.38224,us,in
randolph,40.84829,-74.58148,us,nj
hot springs national park,34.5317,-93.06377,us,ar
dixiana,33.74021,-86.64938,us,al
cranberry township,40.68496,-80.10714,us,pa
silver lake,34.08668,-118.27023,us,ca
echo park,34.07808,-118.26066,us,ca
bay minette,30.88296,-87.77305,us,al
edna,28.97859,-96.64609,us,tx
henderson,32.15322,-94.79938,us,tx
trinity,28.18085,-82.68177,us,fl
villas,26.55035,-81.8687,us,fl
red chute,32.55598,-93.61323,us,la
jessup,39.14927,-76.77525,us,md
delhi hills,39.09284,-84.61272,us,oh
turpin hills,39.11006,-84.37994,us,oh
lugoff,34.22737,-80.68925,us,sc
buda,30.08521,-97.84028,us,tx
boaz,34.20065,-86.16637,us,al
brewton,31.10518,-87.07219,us,al
brook highland,33.43566,-86.67388,us,al
cahaba heights,33.464,-86.73193,us,al
calera,33.1029,-86.7536,us,al
chelsea,33.34011,-86.63026,us,al
chickasaw,30.7638,-88.07472,us,al
childersburg,33.27817,-86.35498,us,al
clanton,32.83874,-86.62943,us,al
clay,33.7026,-86.59971,us,al
cullman,34.17482,-86.84361,us,al
daleville,31.31017,-85.71299,us,al
danville,34.41454,-87.08751,us,al
demopolis,32.51764,-87.8364,us,al
eufaula,31.89127,-85.14549,us,al
fairfield,33.48594,-86.91194,us,al
foley,30.40659,-87.6836,us,al
forestdale,33.57011,-86.89638,us,al
fort payne,34.44425,-85.71969,us,al
fultondale,33.60483,-86.79388,us,al
gardendale,33.6601,-86.81277,us,al
glencoe,33.95704,-85.93247,us,al
grayson valley,33.64816,-86.63943,us,al
greenville,31.8296,-86.61775,us,al
gulf shores,30.24604,-87.70082,us,al
guntersville,34.35815,-86.2947,us,al
hamilton,34.14232,-87.98864,us,al
hartselle,34.44343,-86.93528,us,al
harvest,34.85564,-86.75083,us,al
irondale,33.53816,-86.70721,us,al
jackson,31.50905,-87.89444,us,al
jacksonville,33.81371,-85.76135,us,al
jasper,33.83122,-87.27751,us,al
lake purdy,33.43011,-86.68054,us,al
lanett,32.86874,-85.1905,us,al
leeds,33.54816,-86.54443,us,al
lincoln,33.61316,-86.11831,us,al
meadowbrook,33.40205,-86.69665,us,al
meridianville,34.85148,-86.57222,us,al
midfield,33.4615,-86.90888,us,al
millbrook,32.47986,-86.36192,us,al
monroeville,31.52794,-87.32471,us,al
montevallo,33.10067,-86.86416,us,al
moody,33.59094,-86.49082,us,al
moores mill,34.84398,-86.51832,us,al
muscle shoals,34.74481,-87.66753,us,al
oneonta,33.94815,-86.47276,us,al
opp,31.28267,-86.25551,us,al
orange beach,30.29437,-87.57359,us,al
ozark,31.45906,-85.64049,us,al
pell city,33.58621,-86.28609,us,al
pike road,32.28431,-86.10302,us,al
pinson,33.68899,-86.68332,us,al
pleasant grove,33.49094,-86.97027,us,al
rainbow city,33.95482,-86.04192,us,al
roanoke,33.15123,-85.37217,us,al
robertsdale,30.5538,-87.71193,us,al
russellville,34.50787,-87.72864,us,al
saks,33.69871,-85.83969,us,al
saraland,30.82074,-88.07056,us,al
satsuma,30.85324,-88.05611,us,al
scottsboro,34.67231,-86.03415,us,al
sheffield,34.76509,-87.69864,us,al
southside,33.92454,-86.02247,us,al
spanish fort,30.67491,-87.91527,us,al
sylacauga,33.17317,-86.25164,us,al
tarrant,33.58344,-86.77277,us,al
theodore,30.54769,-88.17528,us,al
tuscumbia,34.7312,-87.70253,us,al
tuskegee,32.42403,-85.69162,us,al
valley,32.81874,-85.17939,us,al
wetumpka,32.54374,-86.21191,us,al
alma,35.47787,-94.22188,us,ar
arkadelphia,34.12093,-93.05378,us,ar
batesville,35.7698,-91.64097,us,ar
beebe,35.07064,-91.87959,us,ar
berryville,36.36479,-93.56797,us,ar
camden,33.58456,-92.83433,us,ar
centerton,36.3598,-94.28521,us,ar
clarksville,35.47147,-93.46657,us,ar
crossett,33.12818,-91.96124,us,ar
de queen,34.03789,-94.34132,us,ar
east end,34.55065,-92.34099,us,ar
farmington,36.04202,-94.24715,us,ar
greenwood,35.21565,-94.25577,us,ar
harrison,36.22979,-93.10768,us,ar
heber springs,35.49147,-92.03126,us,ar
helena,34.52955,-90.59177,us,ar
hope,33.66706,-93.59157,us,ar
hot springs village,34.67204,-92.99879,us,ar
lowell,36.25535,-94.13076,us,ar
magnolia,33.26707,-93.23933,us,ar
malvern,34.36231,-92.81295,us,ar
marion,35.21453,-90.19648,us,ar
mena,34.58622,-94.23966,us,ar
monticello,33.629,-91.79096,us,ar
morrilton,35.15092,-92.74405,us,ar
mountain home,36.33534,-92.38516,us,ar
newport,35.6048,-91.2818,us,ar
osceola,35.70508,-89.96953,us,ar
pocahontas,36.26146,-90.97123,us,ar
stuttgart,34.50037,-91.55263,us,ar
trumann,35.67369,-90.50733,us,ar
warren,33.61261,-92.06458,us,ar
west helena,34.55066,-90.64177,us,ar
white hall,34.27399,-92.09098,us,ar
wynne,35.22453,-90.78678,us,ar
brookside,39.66706,-75.72688,us,de
claymont,39.80067,-75.45964,us,de
edgemoor,39.75011,-75.49964,us,de
elsmere,39.73928,-75.59798,us,de
georgetown,38.69011,-75.38547,us,de
glasgow,39.60483,-75.74521,us,de
hockessin,39.78761,-75.6966,us,de
milford,38.91261,-75.42797,us,de
new castle,39.66206,-75.56631,us,de
north star,39.76122,-75.7191,us,de
pike creek,39.73095,-75.7041,us,de
pike creek valley,39.73622,-75.69827,us,de
seaford,38.64123,-75.61104,us,de
smyrna,39.29983,-75.60465,us,de
wilmington manor,39.68678,-75.58437,us,de
alachua,29.75163,-82.42483,us,fl
andover,25.96843,-80.21283,us,fl
apollo beach,27.77308,-82.40759,us,fl
arcadia,27.21588,-81.85842,us,fl
asbury lake,30.04913,-81.82149,us,fl
atlantic beach,30.33441,-81.3987,us,fl
auburndale,28.0653,-81.78869,us,fl
avon park,27.59587,-81.50619,us,fl
azalea park,28.54111,-81.30062,us,fl
bay harbor islands,25.88759,-80.13116,us,fl
beacon square,28.20862,-82.75538,us,fl
bee ridge,27.28394,-82.48065,us,fl
belle isle,28.45834,-81.35924,us,fl
beverly hills,28.91692,-82.45815,us,fl
bithlo,28.55472,-81.10645,us,fl
boyette,27.81753,-82.22259,us,fl
broadview park,26.09953,-80.20866,us,fl
brooksville,28.55554,-82.38991,us,fl
callaway,30.15298,-85.56993,us,fl
cape canaveral,28.40584,-80.60477,us,fl
celebration,28.32529,-81.53313,us,fl
cheval,28.14862,-82.51454,us,fl
citra,29.41192,-82.10982,us,fl
citrus hills,28.88831,-82.4326,us,fl
citrus ridge,28.33385,-81.64232,us,fl
citrus springs,28.99748,-82.47065,us,fl
clewiston,26.75423,-80.93368,us,fl
cocoa beach,28.32055,-80.60922,us,fl
combee settlement,28.05835,-81.90536,us,fl
conway,28.50278,-81.33062,us,fl
crystal lake,28.03558,-81.90841,us,fl
cypress gardens,27.99391,-81.69008,us,fl
cypress lake,26.53813,-81.89925,us,fl
dade city,28.36472,-82.19592,us,fl
defuniak springs,30.72102,-86.11522,us,fl
destin,30.39353,-86.49578,us,fl
doctor phillips,28.44945,-81.49229,us,fl
east milton,30.61519,-87.02163,us,fl
east perrine,25.60872,-80.33894,us,fl
eglin village,30.46298,-86.5394,us,fl
elfers,28.21668,-82.72232,us,fl
englewood,26.96201,-82.3526,us,fl
fairview shores,28.59111,-81.39424,us,fl
fellsmere,27.76781,-80.60144,us,fl
fern park,28.64916,-81.35118,us,fl
fernandina beach,30.66968,-81.46259,us,fl
fish hawk,27.85058,-82.21092,us,fl
floral city,28.74999,-82.29676,us,fl
florida city,25.44789,-80.47922,us,fl
forest city,28.66678,-81.44334,us,fl
fort meade,27.75225,-81.80175,us,fl
fort myers beach,26.45271,-81.95011,us,fl
fort myers shores,26.70924,-81.74592,us,fl
fruitville,27.32977,-82.4576,us,fl
fuller heights,27.90919,-81.99814,us,fl
fussels corner,28.05419,-81.86064,us,fl
gateway,26.57757,-81.75036,us,fl
gibsonton,27.85364,-82.38259,us,fl
gifford,27.67531,-80.40922,us,fl
gladeview,25.83926,-80.2356,us,fl
goldenrod,28.61028,-81.28868,us,fl
gonzalez,30.58158,-87.29136,us,fl
goulds,25.56261,-80.38228,us,fl
green cove springs,29.99191,-81.67815,us,fl
groveland,28.55805,-81.85119,us,fl
gulf breeze,30.35714,-87.16386,us,fl
gulf gate estates,27.25173,-82.51471,us,fl
gulfport,27.74836,-82.70343,us,fl
heathrow,28.76333,-81.37225,us,fl
hernando,28.89998,-82.37454,us,fl
high springs,29.82691,-82.59678,us,fl
highland city,27.9653,-81.87786,us,fl
hobe sound,27.0595,-80.13643,us,fl
holly hill,29.24359,-81.03756,us,fl
homosassa springs,28.80359,-82.57593,us,fl
hudson,28.36445,-82.69343,us,fl
hunters creek,28.36056,-81.42229,us,fl
indian harbour beach,28.1489,-80.58839,us,fl
indian river estates,27.36449,-80.30977,us,fl
indiantown,27.02728,-80.48561,us,fl
inverness,28.83582,-82.33037,us,fl
inwood,28.03697,-81.76508,us,fl
islamorada,24.9243,-80.62784,us,fl
jan-phyl village,28.01474,-81.77175,us,fl
jensen beach,27.25449,-80.22977,us,fl
kathleen,28.12085,-82.02314,us,fl
key biscayne,25.69371,-80.16282,us,fl
key largo,25.08652,-80.44728,us,fl
kings point,26.44535,-80.13977,us,fl
lady lake,28.91749,-81.92286,us,fl
lake alfred,28.09196,-81.72341,us,fl
lake city,30.18968,-82.63929,us,fl
lake forest,25.97759,-80.1831,us,fl
lake lorraine,30.44159,-86.56523,us,fl
lake lucerne,25.96509,-80.24144,us,fl
lake park,26.80034,-80.06643,us,fl
lake mary,28.75888,-81.31784,us,fl
lake wales,27.90141,-81.58591,us,fl
lakeland highlands,27.95975,-81.95008,us,fl
lakes by the bay,25.57233,-80.32533,us,fl
lakewood park,27.54309,-80.40227,us,fl
lantana,26.58674,-80.05199,us,fl
lauderdale-by-the-sea,26.19203,-80.09643,us,fl
laurel,27.14378,-82.46158,us,fl
lecanto,28.85165,-82.4876,us,fl
lighthouse point,26.27564,-80.08727,us,fl
live oak,30.29495,-82.98402,us,fl
lockhart,28.61944,-81.44257,us,fl
longboat key,27.41254,-82.65899,us,fl
longwood,28.70305,-81.3384,us,fl
macclenny,30.28218,-82.12206,us,fl
mango,27.97974,-82.30648,us,fl
marathon,24.71375,-81.09035,us,fl
marco,25.9726,-81.72898,us,fl
marianna,30.77436,-85.22687,us,fl
mascotte,28.57833,-81.88675,us,fl
mcgregor,26.56091,-81.91453,us,fl
medulla,27.9678,-81.97342,us,fl
melrose park,26.11342,-80.19338,us,fl
memphis,27.53587,-82.56121,us,fl
miami shores,25.86315,-80.19283,us,fl
miami springs,25.82232,-80.2895,us,fl
micco,27.88058,-80.50033,us,fl
middleburg,30.06885,-81.86038,us,fl
milton,30.63241,-87.03969,us,fl
mims,28.66527,-80.84478,us,fl
minneola,28.57444,-81.74619,us,fl
miramar beach,30.37437,-86.35856,us,fl
mount dora,28.80249,-81.64452,us,fl
naples manor,26.0887,-81.7262,us,fl
naples park,26.26175,-81.80925,us,fl
naranja,25.51816,-80.42283,us,fl
neptune beach,30.31191,-81.39647,us,fl
new port richey,28.24418,-82.71927,us,fl
niceville,30.51686,-86.48217,us,fl
north andrews gardens,26.19147,-80.14421,us,fl
north bay village,25.84621,-80.15394,us,fl
north palm beach,26.81756,-80.08199,us,fl
north sarasota,27.37393,-82.51843,us,fl
ocean city,30.44103,-86.61356,us,fl
odessa,28.1939,-82.59176,us,fl
okeechobee,27.24393,-80.82978,us,fl
oldsmar,28.03418,-82.6651,us,fl
olympia heights,25.72677,-80.35533,us,fl
orange city,28.94888,-81.29867,us,fl
orange park,30.16607,-81.70648,us,fl
orlovista,28.53834,-81.46035,us,fl
ormond-by-the-sea,29.34914,-81.06645,us,fl
osprey,27.19616,-82.49037,us,fl
pahokee,26.82006,-80.66534,us,fl
palatka,29.64858,-81.63758,us,fl
palm beach,26.70562,-80.03643,us,fl
palm springs north,25.9351,-80.33383,us,fl
palmetto,27.52143,-82.57232,us,fl
palmetto estates,25.62149,-80.362,us,fl
panama city beach,30.17659,-85.80549,us,fl
pebble creek,28.14835,-82.34565,us,fl
pelican bay,26.2312,-81.80564,us,fl
pembroke park,25.98787,-80.17477,us,fl
perry,30.11766,-83.58274,us,fl
pine castle,28.47195,-81.36785,us,fl
pine island ridge,26.09481,-80.27394,us,fl
pine ridge,28.93831,-82.47343,us,fl
pompano beach highlands,26.28286,-80.10699,us,fl
port saint john,28.47695,-80.78867,us,fl
port salerno,27.14422,-80.2006,us,fl
progress village,27.9003,-82.36454,us,fl
quincy,30.58714,-84.58325,us,fl
richmond heights,25.63149,-80.36894,us,fl
river park,27.31421,-80.34727,us,fl
rotonda,26.88368,-82.29009,us,fl
saint augustine,29.89469,-81.31452,us,fl
saint augustine beach,29.85053,-81.26535,us,fl
saint augustine shores,29.8108,-81.31035,us,fl
saint pete beach,27.72531,-82.74121,us,fl
sanibel,26.44897,-82.02231,us,fl
sarasota springs,27.30894,-82.47954,us,fl
satellite beach,28.17612,-80.59005,us,fl
scott lake,25.94148,-80.23199,us,fl
sebring,27.49559,-81.44091,us,fl
seffner,27.98363,-82.27565,us,fl
shady hills,28.41,-82.54288,us,fl
siesta key,27.26785,-82.54526,us,fl
silver springs shores,29.10442,-82.02064,us,fl
sky lake,28.45723,-81.39146,us,fl
south apopka,28.66194,-81.50952,us,fl
south daytona,29.16582,-81.0045,us,fl
south gate ridge,27.28644,-82.49676,us,fl
south highpoint,27.91697,-82.71288,us,fl
south miami,25.7076,-80.29338,us,fl
south patrick shores,28.20223,-80.6095,us,fl
south venice,27.05311,-82.42426,us,fl
southgate,27.3081,-82.50982,us,fl
southwest ranches,26.0587,-80.33727,us,fl
springfield,30.15326,-85.61132,us,fl
starke,29.94413,-82.10983,us,fl
sugarmill woods,28.73221,-82.50621,us,fl
surfside,25.87843,-80.1256,us,fl
sweetwater,25.76343,-80.37311,us,fl
tavares,28.80416,-81.72563,us,fl
tequesta,26.96811,-80.12865,us,fl
thonotosassa,28.06141,-82.30231,us,fl
timber pines,28.47028,-82.60316,us,fl
treasure island,27.76919,-82.76899,us,fl
union park,28.56806,-81.28618,us,fl
upper grand lagoon,30.16326,-85.74076,us,fl
valparaiso,30.50853,-86.50273,us,fl
venice gardens,27.07311,-82.4076,us,fl
wahneta,27.9528,-81.72702,us,fl
warm mineral springs,27.05978,-82.26009,us,fl
warrington,30.38409,-87.27497,us,fl
wauchula,27.54726,-81.81147,us,fl
wedgefield,28.48778,-81.07729,us,fl
west miami,25.76343,-80.29616,us,fl
west park,25.98454,-80.19894,us,fl
west perrine,25.60594,-80.36283,us,fl
west samoset,27.46948,-82.55676,us,fl
west vero corridor,27.63775,-80.48576,us,fl
westview,25.88204,-80.24199,us,fl
westwood lake,25.72927,-80.37283,us,fl
wildwood,28.86542,-82.04058,us,fl
williamsburg,28.41445,-81.44285,us,fl
willow oak,27.91614,-82.01786,us,fl
wilton manors,26.16036,-80.13893,us,fl
wimauma,27.71253,-82.29898,us,fl
winston,28.03169,-82.01481,us,fl
yulee,30.6319,-81.60649,us,fl
zephyrhills,28.23362,-82.18119,us,fl
adel,31.13727,-83.42408,us,ga
auburn,34.01372,-83.82768,us,ga
austell,33.81261,-84.63438,us,ga
bainbridge,30.9038,-84.57547,us,ga
barnesville,33.05457,-84.15575,us,ga
blakely,31.37768,-84.93409,us,ga
braselton,34.10927,-83.76267,us,ga
bremen,33.72122,-85.1455,us,ga
buford,34.12066,-84.00435,us,ga
cairo,30.87751,-84.20214,us,ga
camilla,31.23129,-84.21046,us,ga
cedartown,34.05371,-85.25495,us,ga
centerville,32.63014,-83.68963,us,ga
chamblee,33.89205,-84.29881,us,ga
clarkston,33.80955,-84.23964,us,ga
cochran,32.38683,-83.35461,us,ga
college park,33.65344,-84.44937,us,ga
commerce,34.204,-83.45711,us,ga
conley,33.64483,-84.32576,us,ga
cordele,31.96351,-83.78239,us,ga
country club estates,33.98928,-83.4096,us,ga
covington,33.59678,-83.86018,us,ga
cumming,34.20732,-84.14019,us,ga
cusseta,32.30543,-84.7727,us,ga
dahlonega,34.53259,-83.98491,us,ga
dallas,33.92371,-84.84077,us,ga
dock junction,31.20245,-81.51677,us,ga
doraville,33.89816,-84.28326,us,ga
douglas,31.50881,-82.84987,us,ga
druid hills,33.78038,-84.33604,us,ga
eatonton,33.3268,-83.3885,us,ga
fair oaks,33.91649,-84.54465,us,ga
fairburn,33.56706,-84.58104,us,ga
fairview,34.94563,-85.2844,us,ga
fitzgerald,31.71491,-83.25265,us,ga
flowery branch,34.1851,-83.92518,us,ga
fort oglethorpe,34.94896,-85.2569,us,ga
fort valley,32.55376,-83.88741,us,ga
garden city,32.11437,-81.154,us,ga
georgetown,31.98326,-81.22733,us,ga
gresham park,33.70344,-84.31437,us,ga
grovetown,33.45042,-82.19818,us,ga
hampton,33.38706,-84.28298,us,ga
hapeville,33.66011,-84.4102,us,ga
holly springs,34.17399,-84.50132,us,ga
irondale,33.48067,-84.35881,us,ga
jackson,33.29457,-83.96602,us,ga
jefferson,34.11705,-83.57239,us,ga
jesup,31.60785,-81.88634,us,ga
lafayette,34.7048,-85.2819,us,ga
lilburn,33.8901,-84.14297,us,ga
locust grove,33.34595,-84.10908,us,ga
loganville,33.839,-83.90074,us,ga
lovejoy,33.43622,-84.31437,us,ga
mcrae,32.06795,-82.9007,us,ga
monroe,33.79484,-83.71323,us,ga
morrow,33.58317,-84.33937,us,ga
moultrie,31.17991,-83.78906,us,ga
mountain park,33.84427,-84.12936,us,ga
norcross,33.94121,-84.21353,us,ga
panthersville,33.70733,-84.27187,us,ga
perry,32.45821,-83.73157,us,ga
port wentworth,32.14909,-81.16317,us,ga
powder springs,33.85955,-84.68382,us,ga
richmond hill,31.93827,-81.30344,us,ga
rincon,32.29603,-81.23539,us,ga
saint simon mills,31.17079,-81.40732,us,ga
saint simons island,31.15051,-81.36954,us,ga
sandersville,32.98154,-82.81014,us,ga
scottdale,33.78983,-84.26409,us,ga
skidaway island,31.93494,-81.04705,us,ga
stone mountain,33.80816,-84.1702,us,ga
swainsboro,32.59739,-82.33374,us,ga
sylvester,31.53092,-83.83693,us,ga
thomaston,32.88819,-84.32659,us,ga
thomson,33.47069,-82.50457,us,ga
toccoa,34.57732,-83.33239,us,ga
tyrone,33.47123,-84.59715,us,ga
vidalia,32.21769,-82.41346,us,ga
villa rica,33.73205,-84.91911,us,ga
vinings,33.86483,-84.46437,us,ga
waycross,31.21368,-82.3557,us,ga
waynesboro,33.08987,-82.01567,us,ga
whitemarsh island,32.02882,-81.01678,us,ga
winder,33.99261,-83.72017,us,ga
benton,37.99672,-88.92007,us,il
bethalto,38.90921,-90.04066,us,il
carlinville,39.27977,-89.88177,us,il
carmi,38.09088,-88.15865,us,il
carterville,37.76005,-89.0773,us,il
centralia,38.52505,-89.1334,us,il
centreville,38.58338,-90.12511,us,il
chatham,39.67616,-89.70454,us,il
chester,37.91366,-89.82205,us,il
columbia,38.44366,-90.20122,us,il
du quoin,38.01144,-89.23619,us,il
east alton,38.88033,-90.11122,us,il
effingham,39.12004,-88.54338,us,il
fairfield,38.37894,-88.35977,us,il
flora,38.66894,-88.4856,us,il
glen carbon,38.74838,-89.98316,us,il
greenville,38.89227,-89.41314,us,il
harrisburg,37.73838,-88.54061,us,il
herrin,37.80311,-89.02757,us,il
highland,38.73949,-89.6712,us,il
hillsboro,39.16128,-89.4954,us,il
jerseyville,39.12005,-90.32845,us,il
litchfield,39.17533,-89.65426,us,il
maryville,38.72366,-89.95593,us,il
mascoutah,38.49033,-89.79315,us,il
metropolis,37.15117,-88.732,us,il
mount carmel,38.41088,-87.76142,us,il
mount zion,39.77143,-88.87424,us,il
murphysboro,37.7645,-89.33509,us,il
olney,38.73088,-88.08532,us,il
pana,39.38893,-89.08008,us,il
paris,39.61115,-87.69614,us,il
pinckneyville,38.08033,-89.38203,us,il
pontoon beach,38.73172,-90.08038,us,il
robinson,39.00532,-87.73919,us,il
salem,38.62699,-88.94562,us,il
shiloh,38.56144,-89.89732,us,il
staunton,39.01227,-89.79121,us,il
swansea,38.53394,-89.98899,us,il
taylorville,39.54894,-89.29453,us,il
troy,38.72921,-89.88315,us,il
vandalia,38.9606,-89.09368,us,il
waterloo,38.33589,-90.14983,us,il
west frankfort,37.89783,-88.93146,us,il
wood river,38.86116,-90.09761,us,il
avon,39.76282,-86.39972,us,in
batesville,39.30005,-85.22218,us,in
bedford,38.86116,-86.48721,us,in
beech grove,39.72199,-86.08998,us,in
boonville,38.04921,-87.27417,us,in
brazil,39.52365,-87.12502,us,in
bright,39.21839,-84.85606,us,in
charlestown,38.45312,-85.67024,us,in
connersville,39.64116,-85.14107,us,in
cumberland,39.77615,-85.9572,us,in
danville,39.7606,-86.52639,us,in
ellettsville,39.23393,-86.625,us,in
greencastle,39.64449,-86.86473,us,in
greensburg,39.33727,-85.48358,us,in
hidden valley,39.16228,-84.84301,us,in
huntingburg,38.29894,-86.955,us,in
lawrenceburg,39.09089,-84.84995,us,in
linton,39.03477,-87.16585,us,in
lowell,39.25311,-85.94638,us,in
madison,38.73589,-85.37996,us,in
martinsville,39.42783,-86.42833,us,in
mooresville,39.61282,-86.37416,us,in
mount vernon,37.93227,-87.89503,us,in
new whiteland,39.5581,-86.09526,us,in
north madison,38.76784,-85.39663,us,in
north vernon,39.00617,-85.62358,us,in
oak park,38.30562,-85.69635,us,in
princeton,38.35532,-87.56752,us,in
rushville,39.60921,-85.44636,us,in
salem,38.60561,-86.10109,us,in
scottsburg,38.68561,-85.77025,us,in
sellersburg,38.39812,-85.75496,us,in
speedway,39.80227,-86.26721,us,in
tell city,37.95144,-86.76777,us,in
washington,38.65922,-87.17279,us,in
zionsville,39.95087,-86.26194,us,in
abilene,38.91722,-97.21391,us,ks
andover,37.7139,-97.13643,us,ks
arkansas city,37.06197,-97.03837,us,ks
atchison,39.56305,-95.12164,us,ks
augusta,37.68668,-96.9767,us,ks
bonner springs,39.05973,-94.88358,us,ks
chanute,37.67921,-95.4572,us,ks
coffeyville,37.0373,-95.61637,us,ks
concordia,39.57084,-97.66254,us,ks
de soto,38.97917,-94.96858,us,ks
el dorado,37.81724,-96.86225,us,ks
eudora,38.94334,-95.09858,us,ks
fort scott,37.83976,-94.7083,us,ks
haysville,37.56446,-97.35227,us,ks
independence,37.22424,-95.70831,us,ks
iola,37.92448,-95.39998,us,ks
lansing,39.24861,-94.90024,us,ks
mcpherson,38.37084,-97.66421,us,ks
merriam,39.02362,-94.69357,us,ks
mission,39.02778,-94.65579,us,ks
mulvane,37.47446,-97.24393,us,ks
ottawa,38.61557,-95.26775,us,ks
paola,38.57224,-94.87913,us,ks
park city,37.80001,-97.31838,us,ks
parsons,37.34034,-95.26108,us,ks
pratt,37.64391,-98.73759,us,ks
roeland park,39.03751,-94.63218,us,ks
spring hill,38.74306,-94.82552,us,ks
valley center,37.83473,-97.37338,us,ks
wellington,37.2653,-97.37171,us,ks
winfield,37.23975,-96.99559,us,ks
alexandria,38.95951,-84.38799,us,ky
bardstown,37.80923,-85.4669,us,ky
bellevue,39.10645,-84.47883,us,ky
berea,37.56869,-84.29632,us,ky
buckner,38.38368,-85.43996,us,ky
buechel,38.19507,-85.6519,us,ky
campbellsville,37.3434,-85.34191,us,ky
central city,37.29393,-87.12333,us,ky
cold spring,39.02173,-84.43994,us,ky
corbin,36.9487,-84.09688,us,ky
cynthiana,38.39035,-84.2941,us,ky
dayton,39.11284,-84.47272,us,ky
douglass hills,38.23785,-85.55274,us,ky
edgewood,39.01867,-84.58189,us,ky
elsmere,39.01256,-84.60467,us,ky
fairdale,38.10507,-85.75885,us,ky
flatwoods,38.52258,-82.71711,us,ky
fort mitchell,39.0595,-84.54744,us,ky
fort wright,39.05173,-84.53411,us,ky
francisville,39.10506,-84.72439,us,ky
franklin,36.72226,-86.57722,us,ky
glasgow,36.99588,-85.91192,us,ky
harrodsburg,37.7623,-84.84329,us,ky
hebron,39.06589,-84.70106,us,ky
highland heights,39.03312,-84.45189,us,ky
hillview,38.06979,-85.68551,us,ky
knottsville,37.77172,-86.90416,us,ky
la grange,38.40757,-85.37885,us,ky
lawrenceburg,38.0373,-84.89662,us,ky
lebanon,37.56979,-85.25274,us,ky
leitchfield,37.48005,-86.29386,us,ky
london,37.12898,-84.08326,us,ky
lyndon,38.25674,-85.60163,us,ky
mayfield,36.74172,-88.63672,us,ky
maysville,38.64119,-83.74437,us,ky
middlesboro,36.60842,-83.71658,us,ky
middletown,38.24535,-85.53885,us,ky
monticello,36.82979,-84.84911,us,ky
morehead,38.18397,-83.43268,us,ky
mount sterling,38.05647,-83.94326,us,ky
mount washington,38.05006,-85.54579,us,ky
oak grove,36.66505,-87.44279,us,ky
oakbrook,38.99978,-84.68522,us,ky
paris,38.2098,-84.25299,us,ky
pikeville,37.47927,-82.51876,us,ky
princeton,37.10922,-87.88196,us,ky
russellville,36.84532,-86.88722,us,ky
shelbyville,38.21201,-85.22357,us,ky
shepherdsville,37.9884,-85.71579,us,ky
somerset,37.09202,-84.60411,us,ky
saint dennis,38.1884,-85.8458,us,ky
taylor mill,38.99756,-84.49633,us,ky
union,38.9459,-84.6805,us,ky
versailles,38.05258,-84.72995,us,ky
villa hills,39.06339,-84.593,us,ky
williamsburg,36.74342,-84.15966,us,ky
abbeville,29.97465,-92.13429,us,la
baker,30.58824,-91.16816,us,la
bastrop,32.75625,-91.87235,us,la
belle chasse,29.85493,-89.99063,us,la
bogalusa,30.79102,-89.84869,us,la
breaux bridge,30.27353,-91.89928,us,la
bridge city,29.93326,-90.17007,us,la
broussard,30.14715,-91.96123,us,la
brownsfield,30.54658,-91.12066,us,la
carencro,30.31714,-92.04901,us,la
chackbay,29.88354,-90.79732,us,la
claiborne,32.51598,-92.1918,us,la
covington,30.47549,-90.10042,us,la
crowley,30.21409,-92.37458,us,la
cut off,29.54272,-90.33814,us,la
deridder,30.84631,-93.28905,us,la
denham springs,30.4874,-90.95753,us,la
destrehan,29.94322,-90.35345,us,la
donaldsonville,30.10103,-90.99288,us,la
eden isle,30.22853,-89.79867,us,la
eunice,30.49437,-92.41763,us,la
franklin,29.79604,-91.5015,us,la
galliano,29.44216,-90.29925,us,la
gardere,30.34575,-91.14011,us,la
gonzales,30.23853,-90.9201,us,la
gray,29.69771,-90.78648,us,la
harahan,29.94048,-90.20313,us,la
inniswold,30.40491,-91.08344,us,la
jeanerette,29.91104,-91.66345,us,la
jefferson,29.96604,-90.15313,us,la
jennings,30.22243,-92.65708,us,la
lacombe,30.31353,-89.94313,us,la
larose,29.57244,-90.38175,us,la
leesville,31.14352,-93.261,us,la
luling,29.93215,-90.36647,us,la
mandeville,30.35825,-90.06563,us,la
mansfield,32.03766,-93.70018,us,la
marksville,31.12797,-92.06624,us,la
meraux,29.93017,-89.91623,us,la
merrydale,30.5013,-91.10844,us,la
minden,32.61543,-93.28684,us,la
monticello,30.48908,-91.04872,us,la
morgan city,29.69937,-91.20677,us,la
moss bluff,30.3027,-93.19071,us,la
oak hills place,30.35992,-91.0876,us,la
oakdale,30.81603,-92.66042,us,la
old jefferson,30.38269,-91.01705,us,la
patterson,29.69326,-91.30205,us,la
pineville,31.3224,-92.4343,us,la
plaquemine,30.28908,-91.23427,us,la
ponchatoula,30.4388,-90.44148,us,la
port allen,30.45214,-91.21011,us,la
prien,30.18187,-93.27377,us,la
raceland,29.72743,-90.59898,us,la
rayne,30.23493,-92.26846,us,la
reserve,30.05381,-90.55175,us,la
river ridge,29.9602,-90.21563,us,la
saint gabriel,30.2577,-91.09927,us,la
saint martinville,30.1252,-91.83345,us,la
saint rose,29.94687,-90.32313,us,la
schriever,29.74215,-90.81037,us,la
scott,30.23576,-92.09457,us,la
springhill,33.00597,-93.46684,us,la
tallulah,32.40848,-91.18678,us,la
thibodaux,29.79576,-90.82287,us,la
timberlane,29.87743,-90.03202,us,la
village saint george,30.36214,-91.06733,us,la
ville platte,30.68797,-92.27152,us,la
waggaman,29.91854,-90.21091,us,la
walker,30.48797,-90.86149,us,la
west monroe,32.51848,-92.14764,us,la
westwego,29.90604,-90.1423,us,la
woodmere,29.85798,-90.08035,us,la
zachary,30.64852,-91.1565,us,la
youngsville,30.09965,-91.99012,us,la
aberdeen,39.50956,-76.16412,us,md
accokeek,38.66762,-77.02831,us,md
baltimore highlands,39.23316,-76.63663,us,md
bel air,39.53594,-76.34829,us,md
bennsville,38.60929,-77.0122,us,md
bladensburg,38.93928,-76.93386,us,md
bowleys quarters,39.33539,-76.39024,us,md
brandywine,38.69678,-76.84775,us,md
brock hall,38.85011,-76.76108,us,md
brooklyn park,39.22844,-76.61636,us,md
brunswick,39.31427,-77.62777,us,md
bryans road,38.62706,-77.07303,us,md
burtonsville,39.11122,-76.93248,us,md
california,38.3004,-76.50745,us,md
cambridge,38.56317,-76.07883,us,md
cape saint claire,39.04317,-76.44496,us,md
chesapeake beach,38.68623,-76.53468,us,md
chesapeake ranch estates,38.34624,-76.41773,us,md
chestertown,39.209,-76.06661,us,md
cheverly,38.92817,-76.91581,us,md
chevy chase,39.00287,-77.07115,us,md
clarksburg,39.23872,-77.27943,us,md
colesville,39.07566,-77.00192,us,md
coral hills,38.87039,-76.92108,us,md
darnestown,39.10344,-77.29082,us,md
davidsonville,38.92289,-76.6283,us,md
district heights,38.85761,-76.88942,us,md
edgemere,39.24205,-76.44802,us,md
edgewater,38.95706,-76.54996,us,md
fallston,39.51455,-76.41107,us,md
forest glen,39.01455,-77.0547,us,md
forestville,38.84511,-76.87497,us,md
fort george g mead junction,39.12594,-76.78914,us,md
four corners,39.02039,-77.01275,us,md
friendly,38.75178,-76.97859,us,md
frostburg,39.65814,-78.92836,us,md
garrison,39.40594,-76.76053,us,md
glenarden,38.92928,-76.86164,us,md
glenmont,39.05789,-77.0497,us,md
glenn dale,38.98761,-76.82053,us,md
goddard,38.98955,-76.85331,us,md
green valley,39.30927,-77.29721,us,md
halfway,39.62065,-77.75888,us,md
hampstead,39.60483,-76.84998,us,md
hampton,39.42288,-76.58469,us,md
havre de grace,39.54928,-76.09162,us,md
hillandale,39.0265,-76.97414,us,md
joppatowne,39.45789,-76.35524,us,md
kemp mill,39.039,-77.01914,us,md
kettering,38.88456,-76.81469,us,md
la plata,38.52929,-76.97525,us,md
lake arbor,38.90789,-76.82969,us,md
lanham,38.96875,-76.8634,us,md
lansdowne,39.24511,-76.66052,us,md
largo,38.89761,-76.83025,us,md
layhill,39.09233,-77.04442,us,md
lexington park,38.26679,-76.45384,us,md
linganore,39.44038,-77.20804,us,md
linthicum,39.20511,-76.65275,us,md
londontowne,38.93345,-76.54941,us,md
lutherville,39.42122,-76.62608,us,md
marlow heights,38.83345,-76.95164,us,md
marlton,38.77373,-76.78997,us,md
mayo,38.88761,-76.5119,us,md
mays chapel,39.43316,-76.64941,us,md
mitchellville,38.92511,-76.74275,us,md
mount airy,39.37621,-77.1547,us,md
mount rainier,38.9415,-76.96498,us,md
new carrollton,38.96983,-76.87997,us,md
north kensington,39.03039,-77.07248,us,md
ocean city,38.3365,-75.08491,us,md
ocean pines,38.39539,-75.15574,us,md
overlea,39.36344,-76.52052,us,md
pumphrey,39.21733,-76.63719,us,md
riverdale park,38.96344,-76.93164,us,md
riverside,39.47372,-76.24134,us,md
riviera beach,39.16678,-76.50802,us,md
robinwood,38.95428,-76.51468,us,md
rosaryville,38.75678,-76.80969,us,md
rossmoor,39.10372,-77.07109,us,md
savage,39.13789,-76.82386,us,md
shady side,38.84178,-76.51218,us,md
silver hill,38.84178,-76.94581,us,md
south kensington,39.019,-77.07998,us,md
spring ridge,39.40149,-77.35248,us,md
stevensville,38.98067,-76.3144,us,md
taneytown,39.65788,-77.17443,us,md
temple hills,38.814,-76.94553,us,md
thurmont,39.62371,-77.41082,us,md
timonium,39.43705,-76.61969,us,md
travilah,39.069,-77.26304,us,md
urbana,39.32594,-77.35137,us,md
walker mill,38.87539,-76.88831,us,md
walkersville,39.48621,-77.35193,us,md
westphalia,38.84539,-76.81108,us,md
white marsh,39.38372,-76.43218,us,md
aurora,36.97089,-93.71798,us,mo
barnhart,38.34422,-90.39345,us,mo
battlefield,37.11561,-93.37019,us,mo
bellefontaine neighbors,38.74033,-90.2265,us,mo
berkeley,38.7545,-90.33123,us,mo
black jack,38.79338,-90.26733,us,mo
bolivar,37.61448,-93.41047,us,mo
bonne terre,37.92311,-90.5554,us,mo
boonville,38.97364,-92.74324,us,mo
bowling green,39.34199,-91.19514,us,mo
branson,36.64367,-93.21851,us,mo
brentwood,38.61755,-90.34928,us,mo
bridgeton,38.767,-90.41151,us,mo
cameron,39.74028,-94.24106,us,mo
carl junction,37.17672,-94.56551,us,mo
carthage,37.17645,-94.31022,us,mo
caruthersville,36.19312,-89.65564,us,mo
charleston,36.92089,-89.35063,us,mo
chillicothe,39.79529,-93.55244,us,mo
clinton,38.36863,-93.77827,us,mo
crestwood,38.557,-90.38178,us,mo
dardenne prairie,38.7695,-90.72902,us,mo
de soto,38.1395,-90.55513,us,mo
dellwood,38.7495,-90.28567,us,mo
des peres,38.60089,-90.4329,us,mo
desloge,37.87088,-90.52735,us,mo
dexter,36.79589,-89.95787,us,mo
ellisville,38.59255,-90.58707,us,mo
eureka,38.50255,-90.6279,us,mo
excelsior springs,39.33917,-94.22606,us,mo
festus,38.22061,-90.39595,us,mo
flat river,37.85005,-90.51679,us,mo
fulton,38.84671,-91.94796,us,mo
glasgow village,38.75366,-90.19844,us,mo
glendale,38.59589,-90.37706,us,mo
grain valley,39.01501,-94.19856,us,mo
greenwood,38.85168,-94.34384,us,mo
harrisonville,38.65334,-94.34884,us,mo
jackson,37.38227,-89.66621,us,mo
jennings,38.71922,-90.26039,us,mo
kearney,39.36778,-94.36217,us,mo
kennett,36.23618,-90.05565,us,mo
ladue,38.64977,-90.38067,us,mo
lake saint louis,38.79755,-90.78568,us,mo
lebanon,37.6806,-92.66379,us,mo
macon,39.74226,-92.47269,us,mo
maplewood,38.61255,-90.32456,us,mo
marshall,39.12308,-93.19687,us,mo
marshfield,37.33866,-92.90712,us,mo
mexico,39.16976,-91.88295,us,mo
moberly,39.41837,-92.43824,us,mo
monett,36.92895,-93.92771,us,mo
murphy,38.49033,-90.48707,us,mo
neosho,36.86896,-94.368,us,mo
nevada,37.83921,-94.35467,us,mo
normandy,38.72088,-90.29734,us,mo
oak grove,39.00501,-94.12939,us,mo
odessa,38.99917,-93.95356,us,mo
olivette,38.66533,-90.37595,us,mo
pacific,38.482,-90.74152,us,mo
park hills,37.85422,-90.51818,us,mo
parkville,39.195,-94.68218,us,mo
perryville,37.72422,-89.86122,us,mo
pevely,38.28339,-90.39512,us,mo
pleasant hill,38.78751,-94.26939,us,mo
republic,37.12005,-93.48019,us,mo
richmond,39.27862,-93.97689,us,mo
richmond heights,38.62866,-90.31956,us,mo
saint ann,38.72727,-90.38317,us,mo
saint john,38.71484,-90.34627,us,mo
saint johns,38.71338,-90.34317,us,mo
sappington,38.537,-90.37984,us,mo
savannah,39.94166,-94.83025,us,mo
shrewsbury,38.59033,-90.33678,us,mo
smithville,39.38694,-94.58107,us,mo
sullivan,38.2081,-91.16042,us,mo
sunset hills,38.53894,-90.40734,us,mo
town and country,38.61228,-90.46345,us,mo
troy,38.97949,-90.9807,us,mo
union,38.45005,-91.00848,us,mo
valley park,38.54922,-90.49262,us,mo
warrenton,38.81144,-91.14154,us,mo
washington,38.55811,-91.01209,us,mo
webb city,37.14645,-94.463,us,mo
weldon spring,38.71339,-90.68929,us,mo
west plains,36.72812,-91.85237,us,mo
willard,37.30505,-93.42853,us,mo
aberdeen,33.82511,-88.54366,us,ms
amory,33.98428,-88.4881,us,ms
batesville,34.3115,-89.94426,us,ms
bay saint louis,30.30881,-89.33005,us,ms
booneville,34.65815,-88.56672,us,ms
brookhaven,31.57906,-90.44065,us,ms
byram,32.17932,-90.24537,us,ms
canton,32.61264,-90.03675,us,ms
carriere,30.61686,-89.65256,us,ms
carthage,32.73264,-89.53618,us,ms
cleveland,33.744,-90.72482,us,ms
columbia,31.25184,-89.83758,us,ms
corinth,34.93425,-88.52227,us,ms
crystal springs,31.98738,-90.35704,us,ms
d'iberville,30.42631,-88.89086,us,ms
diamondhead,30.39464,-89.36394,us,ms
flowood,32.30959,-90.13898,us,ms
forest,32.36459,-89.47423,us,ms
grenada,33.769,-89.80842,us,ms
gulf hills,30.43048,-88.84225,us,ms
gulf park estates,30.39187,-88.76114,us,ms
hernando,34.82399,-89.9937,us,ms
holly springs,31.31573,-89.97786,us,ms
indianola,33.45095,-90.65509,us,ms
kosciusko,33.058,-89.58956,us,ms
latimer,30.53464,-88.8667,us,ms
long beach,30.35048,-89.15282,us,ms
louisville,33.12374,-89.05506,us,ms
mccomb,31.24379,-90.45315,us,ms
moss point,30.41159,-88.53446,us,ms
new albany,34.49427,-89.00784,us,ms
petal,31.34656,-89.26006,us,ms
philadelphia,32.77152,-89.11673,us,ms
picayune,30.52556,-89.67788,us,ms
pontotoc,34.24788,-88.99867,us,ms
richland,32.23904,-90.15842,us,ms
ripley,34.72982,-88.95062,us,ms
senatobia,34.6176,-89.9687,us,ms
saint martin,30.43798,-88.86809,us,ms
vancleave,30.54047,-88.68752,us,ms
waveland,30.28686,-89.37616,us,ms
waynesboro,31.67488,-88.64615,us,ms
west hattiesburg,31.31906,-89.37506,us,ms
west point,33.60762,-88.65033,us,ms
winona,33.48207,-89.72814,us,ms
yazoo city,32.85513,-90.40565,us,ms
aberdeen,35.13155,-79.42948,us,nc
ahoskie,36.28682,-76.98468,us,nc
archdale,35.91458,-79.97198,us,nc
belmont,35.24292,-81.0373,us,nc
bessemer city,35.28486,-81.28397,us,nc
black mountain,35.6179,-82.32123,us,nc
boiling spring lakes,34.03045,-78.06721,us,nc
brevard,35.23345,-82.73429,us,nc
butner,36.13209,-78.75667,us,nc
carolina beach,34.03517,-77.8936,us,nc
cherryville,35.37874,-81.37897,us,nc
clinton,34.99795,-78.32333,us,nc
conover,35.70652,-81.21869,us,nc
cullowhee,35.31371,-83.17653,us,nc
davidson,35.50233,-80.83912,us,nc
dunn,35.30627,-78.6089,us,nc
edenton,36.05794,-76.60772,us,nc
elon,36.10291,-79.50669,us,nc
etowah,35.31762,-82.59429,us,nc
fletcher,35.43067,-82.50123,us,nc
forest city,35.33401,-81.8651,us,nc
gibsonville,36.10569,-79.54225,us,nc
graham,36.06903,-79.40058,us,nc
half moon,34.826,-77.45941,us,nc
hamlet,34.88488,-79.69422,us,nc
harrisburg,35.32395,-80.65784,us,nc
hendersonville,35.31873,-82.46095,us,nc
hillsborough,36.07542,-79.09973,us,nc
james city,35.08877,-77.03495,us,nc
kill devil hills,36.03072,-75.67601,us,nc
king,36.28069,-80.35922,us,nc
kings grant,34.26295,-77.8636,us,nc
kings mountain,35.24513,-81.34119,us,nc
knightdale,35.78765,-78.48056,us,nc
lake norman of catawba,35.5868,-80.95952,us,nc
leland,34.25628,-78.04471,us,nc
lewisville,36.09708,-80.41922,us,nc
lincolnton,35.47375,-81.25453,us,nc
long beach,33.91045,-78.11777,us,nc
marion,35.68401,-82.00927,us,nc
marvin,34.99182,-80.81479,us,nc
masonboro,34.17934,-77.84748,us,nc
mebane,36.09597,-79.26696,us,nc
mills river,35.38845,-82.56679,us,nc
mocksville,35.89403,-80.56145,us,nc
morehead city,34.72294,-76.72604,us,nc
mount airy,36.4993,-80.60729,us,nc
mount holly,35.29819,-81.01591,us,nc
murraysville,34.29572,-77.84748,us,nc
myrtle grove,34.13462,-77.88165,us,nc
nashville,35.9746,-77.96554,us,nc
newton,35.66986,-81.22147,us,nc
oak island,33.91656,-78.16111,us,nc
oak ridge,36.17347,-79.98893,us,nc
ogden,34.27239,-77.81859,us,nc
oxford,36.3107,-78.59083,us,nc
pinehurst,35.19543,-79.46948,us,nc
pineville,35.0832,-80.8923,us,nc
piney green,34.716,-77.32024,us,nc
reidsville,36.35486,-79.66447,us,nc
rockingham,34.93932,-79.77395,us,nc
roxboro,36.39375,-78.98279,us,nc
sawmills,35.82485,-81.47454,us,nc
selma,35.53655,-78.28444,us,nc
siler city,35.72347,-79.46224,us,nc
silver lake,34.14878,-77.9136,us,nc
smithfield,35.50849,-78.33945,us,nc
south gastonia,35.2193,-81.20563,us,nc
southern pines,35.17405,-79.39225,us,nc
spring lake,35.16794,-78.97281,us,nc
saint stephens,35.76458,-81.27314,us,nc
stallings,35.0907,-80.68618,us,nc
stokesdale,36.23708,-79.97948,us,nc
summerfield,36.20875,-79.90476,us,nc
tarboro,35.89682,-77.5358,us,nc
trinity,35.89458,-79.99087,us,nc
unionville,35.08737,-80.50896,us,nc
wadesboro,34.96821,-80.07673,us,nc
washington,35.54655,-77.05217,us,nc
waxhaw,34.92459,-80.7434,us,nc
waynesville,35.48871,-82.98875,us,nc
weddington,35.02237,-80.7609,us,nc
wesley chapel,35.00709,-80.67451,us,nc
wendell,35.78099,-78.36972,us,nc
whiteville,34.33878,-78.70307,us,nc
williamston,35.8546,-77.05551,us,nc
winterville,35.52905,-77.40108,us,nc
woodfin,35.63344,-82.58207,us,nc
absecon,39.42845,-74.49571,us,nj
ashland,39.86317,-75.006,us,nj
audubon,39.89095,-75.07295,us,nj
barrington,39.86484,-75.05517,us,nj
beachwood,39.93901,-74.19292,us,nj
bellmawr,39.86761,-75.09462,us,nj
berlin,39.79123,-74.92905,us,nj
brigantine,39.41012,-74.36459,us,nj
browns mills,39.97261,-74.58293,us,nj
cape may court house,39.08261,-74.82378,us,nj
carneys point,39.71122,-75.4702,us,nj
cherry hill mall,39.93595,-75.00906,us,nj
cinnaminson,39.99678,-74.99267,us,nj
clayton,39.66011,-75.09212,us,nj
collingswood,39.91817,-75.07128,us,nj
crestwood village,39.94817,-74.3607,us,nj
echelon,39.84845,-74.99572,us,nj
forked river,39.83984,-74.19014,us,nj
gloucester city,39.89178,-75.11629,us,nj
greentree,39.89706,-74.95572,us,nj
haddon heights,39.87734,-75.06462,us,nj
haddonfield,39.8915,-75.03767,us,nj
hammonton,39.63651,-74.80239,us,nj
kingston estates,39.92372,-74.98795,us,nj
linwood,39.33984,-74.57516,us,nj
margate city,39.32789,-74.50349,us,nj
marlton,39.89122,-74.92183,us,nj
mount holly,39.99289,-74.78766,us,nj
mystic island,39.54428,-74.38237,us,nj
northfield,39.37039,-74.55015,us,nj
ocean city,39.27762,-74.5746,us,nj
paulsboro,39.83039,-75.24046,us,nj
penns grove,39.72956,-75.46797,us,nj
pennsville,39.65345,-75.51659,us,nj
pine hill,39.78428,-74.99211,us,nj
pitman,39.73289,-75.13157,us,nj
pomona,39.47845,-74.57516,us,nj
ramblewood,39.92872,-74.94378,us,nj
salem,39.57178,-75.46714,us,nj
runnemede,39.85234,-75.06795,us,nj
smithville,39.49401,-74.45709,us,nj
somerdale,39.844,-75.02267,us,nj
somers point,39.31762,-74.5946,us,nj
springdale,39.90261,-74.96628,us,nj
stratford,39.82678,-75.01545,us,nj
ventnor city,39.34039,-74.47737,us,nj
villas,39.02872,-74.93851,us,nj
wildwood,38.99178,-74.81489,us,nj
woodbury,39.83817,-75.15268,us,nj
beckett ridge,39.347,-84.43522,us,oh
bellbrook,39.63562,-84.07077,us,oh
belpre,39.27396,-81.5729,us,oh
bexley,39.96895,-82.93768,us,oh
blacklick estates,39.90506,-82.86434,us,oh
blue ash,39.232,-84.37827,us,oh
bridgetown,39.15311,-84.63717,us,oh
brookville,39.83672,-84.41134,us,oh
canal winchester,39.84284,-82.80462,us,oh
cheviot,39.157,-84.61328,us,oh
circleville,39.60062,-82.94601,us,oh
clayton,39.86311,-84.3605,us,oh
covedale,39.12117,-84.60633,us,oh
deer park,39.20534,-84.39466,us,oh
dent,39.18589,-84.65134,us,oh
dry run,39.10423,-84.33049,us,oh
eaton,39.74394,-84.63662,us,oh
englewood,39.87756,-84.30217,us,oh
finneytown,39.20034,-84.5205,us,oh
forestville,39.07506,-84.34494,us,oh
franklin,39.55895,-84.30411,us,oh
geneva,39.66201,-82.43349,us,oh
germantown,39.62617,-84.36939,us,oh
goshen,39.23339,-84.16132,us,oh
grandview heights,39.97979,-83.04074,us,oh
groesbeck,39.22311,-84.58689,us,oh
groveport,39.8784,-82.88379,us,oh
harrison,39.262,-84.81995,us,oh
hillsboro,39.20229,-83.61159,us,oh
ironton,38.53675,-82.68294,us,oh
jackson,39.05202,-82.63655,us,oh
kenwood,39.21061,-84.36716,us,oh
landen,39.312,-84.28299,us,oh
lincoln village,39.95479,-83.13074,us,oh
logan,39.54007,-82.4071,us,oh
london,39.88645,-83.44825,us,oh
loveland,39.26895,-84.26383,us,oh
mack,39.15811,-84.64967,us,oh
madeira,39.19089,-84.36355,us,oh
marietta,39.41535,-81.45484,us,oh
milford,39.17534,-84.29438,us,oh
monroe,39.44034,-84.36216,us,oh
monfort heights,39.18839,-84.59522,us,oh
montgomery,39.22811,-84.35411,us,oh
moraine,39.70617,-84.21938,us,oh
mount healthy,39.23367,-84.54578,us,oh
nelsonville,39.45868,-82.23182,us,oh
new burlington,39.2595,-84.55717,us,oh
new carlisle,39.93617,-84.02549,us,oh
north college hill,39.21839,-84.55078,us,oh
northbrook,39.24645,-84.58356,us,oh
northgate,39.25283,-84.59245,us,oh
northridge,39.99173,-83.77854,us,oh
oakwood,39.72534,-84.17411,us,oh
pataskala,39.99562,-82.67433,us,oh
reading,39.22367,-84.44216,us,oh
sharonville,39.26811,-84.41327,us,oh
shiloh,39.81867,-84.22855,us,oh
springdale,39.287,-84.48522,us,oh
summerside,39.10478,-84.28827,us,oh
the village of indian hill,39.17949,-84.33517,us,oh
tipp city,39.95839,-84.17216,us,oh
trenton,39.48089,-84.45772,us,oh
union,39.89783,-84.30633,us,oh
washington court house,39.53645,-83.43908,us,oh
wellston,39.12341,-82.53294,us,oh
west carrollton city,39.67228,-84.25216,us,oh
wheelersburg,38.73035,-82.85545,us,oh
wilmington,39.44534,-83.82854,us,oh
withamsville,39.06228,-84.28827,us,oh
wyoming,39.23117,-84.46578,us,oh
anadarko,35.07256,-98.24366,us,ok
blackwell,36.80448,-97.28282,us,ok
blanchard,35.13784,-97.65809,us,ok
catoosa,36.18899,-95.74582,us,ok
choctaw,35.49756,-97.26892,us,ok
clinton,35.51561,-98.96731,us,ok
collinsville,36.36454,-95.83888,us,ok
coweta,35.95177,-95.65081,us,ok
cushing,35.98506,-96.76697,us,ok
elk city,35.41199,-99.40426,us,ok
glenpool,35.95537,-96.00888,us,ok
grove,36.59369,-94.76912,us,ok
guthrie,35.87894,-97.42532,us,ok
harrah,35.48951,-97.16364,us,ok
henryetta,35.43983,-95.98194,us,ok
holdenville,35.08036,-96.39918,us,ok
hugo,34.01066,-95.50968,us,ok
idabel,33.89566,-94.82633,us,ok
lone grove,34.17537,-97.26279,us,ok
miami,36.87451,-94.87746,us,ok
newcastle,35.24729,-97.59976,us,ok
noble,35.13924,-97.39475,us,ok
okmulgee,35.62344,-95.96055,us,ok
pauls valley,34.74008,-97.22225,us,ok
perry,36.28949,-97.2881,us,ok
piedmont,35.642,-97.74643,us,ok
poteau,35.05371,-94.62356,us,ok
pryor,36.30843,-95.31691,us,ok
purcell,35.01368,-97.36114,us,ok
sallisaw,35.46037,-94.78745,us,ok
seminole,35.22452,-96.67057,us,ok
skiatook,36.36842,-96.00138,us,ok
tecumseh,35.25785,-96.93669,us,ok
the village,35.56089,-97.55143,us,ok
tuttle,35.29089,-97.81227,us,ok
vinita,36.63869,-95.15413,us,ok
wagoner,35.95954,-95.36941,us,ok
warr acres,35.52256,-97.61893,us,ok
watonga,35.84477,-98.41313,us,ok
weatherford,35.52616,-98.70757,us,ok
woodward,36.43365,-99.39039,us,ok
brookhaven,39.86928,-75.38241,us,pa
broomall,39.9815,-75.35658,us,pa
clifton heights,39.92928,-75.2963,us,pa
coatesville,39.98316,-75.82384,us,pa
collingdale,39.91178,-75.27713,us,pa
darby,39.91845,-75.25907,us,pa
east york,39.97371,-76.68636,us,pa
folsom,39.88983,-75.32519,us,pa
folcroft,39.89095,-75.2838,us,pa
gettysburg,39.83093,-77.2311,us,pa
glenolden,39.90011,-75.28907,us,pa
kennett square,39.84678,-75.7116,us,pa
lansdowne,39.93817,-75.27185,us,pa
media,39.91678,-75.38769,us,pa
millersville,39.99788,-76.35413,us,pa
norwood,39.89178,-75.29963,us,pa
oxford,39.78539,-75.97883,us,pa
parkville,39.78121,-76.96331,us,pa
penn wynne,39.98622,-75.27546,us,pa
prospect park,39.88789,-75.30824,us,pa
red lion,39.90093,-76.6058,us,pa
ridley park,39.88122,-75.3238,us,pa
sharon hill,39.9065,-75.27157,us,pa
shiloh,39.97815,-76.79719,us,pa
swarthmore,39.90206,-75.34991,us,pa
uniontown,39.90008,-79.71643,us,pa
waynesboro,39.75593,-77.57777,us,pa
weigelstown,39.98371,-76.82247,us,pa
willow street,39.97927,-76.27635,us,pa
woodlyn,39.87233,-75.33713,us,pa
yeadon,39.939,-75.25546,us,pa
abbeville,34.17817,-82.37901,us,sc
batesburg-leesville,33.91014,-81.53733,us,sc
beaufort,32.43158,-80.66983,us,sc
belvedere,33.53097,-81.94484,us,sc
bennettsville,34.61738,-79.68478,us,sc
berea,34.8854,-82.45596,us,sc
bluffton,32.23715,-80.86039,us,sc
boiling springs,33.13515,-81.43122,us,sc
burton,32.43575,-80.724,us,sc
camden,34.24654,-80.60702,us,sc
cayce,33.96571,-81.07398,us,sc
centerville,34.53205,-82.70402,us,sc
central,34.72427,-82.78125,us,sc
cheraw,34.69766,-79.8834,us,sc
chester,34.70486,-81.21426,us,sc
clemson,34.68344,-82.83737,us,sc
clinton,34.47263,-81.88066,us,sc
clover,35.11125,-81.22646,us,sc
darlington,34.29988,-79.87617,us,sc
dentsville,34.06404,-80.95815,us,sc
dillon,34.41655,-79.37116,us,sc
five forks,34.80484,-82.22956,us,sc
forest acres,34.01932,-80.98981,us,sc
fort mill,35.00737,-80.94508,us,sc
fountain inn,34.68901,-82.19567,us,sc
gaffney,35.07179,-81.64982,us,sc
gantt,34.80012,-82.42429,us,sc
garden city,33.59295,-79.00865,us,sc
georgetown,33.37683,-79.2945,us,sc
hartsville,34.37404,-80.0734,us,sc
homeland park,34.47066,-82.67069,us,sc
irmo,34.08598,-81.18315,us,sc
ladson,32.98573,-80.10981,us,sc
lake city,33.871,-79.75535,us,sc
lake wylie,35.10848,-81.04285,us,sc
lancaster,34.72043,-80.7709,us,sc
laurel bay,32.45019,-80.78483,us,sc
laurens,34.49901,-82.01426,us,sc
little river,33.87323,-78.61418,us,sc
marion,34.17822,-79.40061,us,sc
moncks corner,33.19632,-80.01429,us,sc
murrells inlet,33.551,-79.04143,us,sc
newberry,34.27458,-81.61872,us,sc
north myrtle beach,33.81601,-78.68002,us,sc
oak grove,33.77821,-80.96676,us,sc
orangeburg,33.49182,-80.85565,us,sc
parker,34.85067,-82.45346,us,sc
piedmont,34.70234,-82.46457,us,sc
port royal,32.37908,-80.69261,us,sc
powdersville,34.79178,-82.49291,us,sc
red bank,33.93209,-81.23843,us,sc
red hill,33.99961,-79.2581,us,sc
sangaree,33.03545,-80.12787,us,sc
sans souci,34.8779,-82.42401,us,sc
seneca,34.68566,-82.9532,us,sc
tega cay,35.02431,-81.02785,us,sc
union,34.71541,-81.62371,us,sc
valley falls,35.01595,-81.97483,us,sc
walterboro,32.90517,-80.66677,us,sc
welcome,34.82651,-82.43901,us,sc
west columbia,33.99349,-81.07398,us,sc
woodfield,34.05932,-80.93092,us,sc
york,34.9943,-81.24202,us,sc
alcoa,35.78953,-83.97379,us,tn
arlington,35.2962,-89.66147,us,tn
athens,35.44285,-84.59299,us,tn
atoka,35.44119,-89.77814,us,tn
bloomingdale,36.58455,-82.48932,us,tn
bolivar,35.25619,-88.98784,us,tn
brownsville,35.59397,-89.26229,us,tn
church hill,36.52232,-82.71349,us,tn
clinton,36.10341,-84.13186,us,tn
collegedale,35.05313,-85.05023,us,tn
colonial heights,36.4851,-82.5032,us,tn
covington,35.56425,-89.64647,us,tn
crossville,35.94896,-85.0269,us,tn
dayton,35.49396,-85.01245,us,tn
dickson,36.077,-87.38779,us,tn
eagleton village,35.79508,-83.93185,us,tn
elizabethton,36.34872,-82.21069,us,tn
erwin,36.14511,-82.41681,us,tn
fairfield glade,36.00035,-84.88634,us,tn
fairview,35.98201,-87.1214,us,tn
fayetteville,35.15203,-86.57055,us,tn
green hill,36.22283,-86.54944,us,tn
greenbrier,36.42755,-86.80472,us,tn
harriman,35.93396,-84.55244,us,tn
harrison,35.11368,-85.13801,us,tn
henderson,35.43924,-88.64144,us,tn
humboldt,35.81979,-88.9159,us,tn
jefferson city,36.12231,-83.4924,us,tn
jonesborough,36.29427,-82.47348,us,tn
kingston,35.88091,-84.50854,us,tn
lafollette,36.38286,-84.11993,us,tn
lakeland,35.23064,-89.74036,us,tn
lawrenceburg,35.2423,-87.33474,us,tn
lenoir city,35.7973,-84.25603,us,tn
lewisburg,35.44924,-86.78889,us,tn
lexington,35.6509,-88.39338,us,tn
loudon,35.73285,-84.33381,us,tn
lynchburg,35.28314,-86.37416,us,tn
manchester,35.48174,-86.0886,us,tn
martin,36.3434,-88.85034,us,tn
mckenzie,36.13256,-88.51866,us,tn
mcminnville,35.6834,-85.76998,us,tn
middle valley,35.1959,-85.18468,us,tn
milan,35.91979,-88.75895,us,tn
millersville,36.37116,-86.71,us,tn
millington,35.34147,-89.89731,us,tn
mount carmel,35.49785,-88.00781,us,tn
munford,35.44925,-89.81508,us,tn
newport,35.96704,-83.18766,us,tn
nolensville,35.95229,-86.66944,us,tn
oakland,35.22898,-89.51508,us,tn
paris,36.302,-88.32671,us,tn
pigeon forge,35.78842,-83.55433,us,tn
portland,36.58171,-86.51638,us,tn
pulaski,35.1998,-87.03084,us,tn
red bank,35.11229,-85.29413,us,tn
ripley,35.74536,-89.5298,us,tn
rockwood,35.86563,-84.68494,us,tn
savannah,35.2248,-88.2492,us,tn
sevierville,35.86815,-83.56184,us,tn
seymour,35.89064,-83.72462,us,tn
signal mountain,35.12257,-85.34385,us,tn
soddy-daisy,35.2359,-85.19079,us,tn
south cleveland,35.14119,-84.87217,us,tn
sweetwater,35.60146,-84.46104,us,tn
union city,36.42423,-89.05701,us,tn
white house,36.47032,-86.65138,us,tn
winchester,35.18592,-86.11221,us,tn
addison,32.96179,-96.82917,us,tx
alamo heights,29.48495,-98.46585,us,tx
alton,26.28729,-98.31335,us,tx
alton north (historical),26.29535,-98.30446,us,tx
anderson mill,30.45492,-97.80584,us,tx
anna,33.349,-96.5486,us,tx
aransas pass,27.90947,-97.14999,us,tx
athens,32.20487,-95.85552,us,tx
atlanta,33.11374,-94.16435,us,tx
azle,32.89513,-97.54586,us,tx
bacliff,29.5069,-94.99243,us,tx
bastrop,30.11049,-97.31527,us,tx
beeville,28.40095,-97.74974,us,tx
bellmead,31.59405,-97.10889,us,tx
boerne,29.79466,-98.73197,us,tx
bonham,33.57733,-96.17831,us,tx
bowie,33.559,-97.84865,us,tx
brady,31.13517,-99.33506,us,tx
breckenridge,32.75568,-98.90229,us,tx
briar,32.99512,-97.5428,us,tx
bridge city,30.02077,-93.84573,us,tx
bridgeport,33.21012,-97.75476,us,tx
burkburnett,34.09787,-98.57061,us,tx
burnet,30.75824,-98.22836,us,tx
cameron,30.85325,-96.97693,us,tx
cameron park,25.96452,-97.47665,us,tx
cameron park colonia,25.97147,-97.47832,us,tx
camp swift,30.19077,-97.29221,us,tx
carrizo springs,28.52193,-99.86061,us,tx
carthage,32.15738,-94.33742,us,tx
celina,33.32456,-96.78444,us,tx
center,31.51073,-96.4247,us,tx
cleveland,31.67682,-99.25367,us,tx
clute,29.02469,-95.39883,us,tx
commerce,33.24706,-95.89997,us,tx
crockett,31.31824,-95.45661,us,tx
crowley,32.57903,-97.36252,us,tx
crystal city,28.67748,-99.82811,us,tx
cuero,29.09387,-97.28916,us,tx
dayton,30.04661,-94.8852,us,tx
decatur,33.23428,-97.58614,us,tx
doffing,26.27452,-98.38585,us,tx
eagle mountain,32.89346,-97.44446,us,tx
el campo,29.19664,-96.26969,us,tx
elgin,30.34965,-97.37027,us,tx
elsa,26.2934,-97.99306,us,tx
everman,32.63097,-97.28918,us,tx
fair oaks ranch,29.74578,-98.64336,us,tx
fairview,33.1579,-96.63166,us,tx
fate,32.94151,-96.38137,us,tx
floresville,29.13358,-98.15612,us,tx
forest hill,32.67208,-97.26918,us,tx
forney,32.74818,-96.47193,us,tx
four corners,29.66857,-95.65772,us,tx
fredericksburg,30.2752,-98.87198,us,tx
freeport,28.95414,-95.35966,us,tx
galena park,29.73356,-95.23021,us,tx
gladewater,32.53653,-94.94272,us,tx
glenn heights,32.54875,-96.85667,us,tx
gonzales,29.50163,-97.45249,us,tx
graham,33.10706,-98.5895,us,tx
granbury,32.44208,-97.7942,us,tx
greatwood,29.55413,-95.67578,us,tx
gun barrel city,32.33459,-96.15136,us,tx
heath,32.83651,-96.47499,us,tx
helotes,29.57801,-98.68975,us,tx
hempstead,30.09744,-96.07829,us,tx
hewitt,31.46239,-97.19584,us,tx
hidalgo,26.10035,-98.26307,us,tx
highland park,32.83346,-96.79195,us,tx
highlands,29.81884,-95.05604,us,tx
hillsboro,32.01099,-97.13001,us,tx
hitchcock,29.34829,-95.01604,us,tx
hondo,29.34746,-99.14142,us,tx
hornsby bend,30.24743,-97.58333,us,tx
hutchins,32.6493,-96.71305,us,tx
hutto,30.5427,-97.54667,us,tx
ingleside,27.8778,-97.21166,us,tx
iowa park,33.95148,-98.66867,us,tx
winchester center,41.9001,-73.13483,us,ct
windsor locks,41.92926,-72.62731,us,ct
winsted,41.92121,-73.06011,us,ct
woodbridge,41.3526,-73.00844,us,ct
woodbury,41.54454,-73.209,us,ct
algona,43.06997,-94.23302,us,ia
altoona,41.64416,-93.46466,us,ia
anamosa,42.10834,-91.28516,us,ia
atlantic,41.4036,-95.01388,us,ia
boone,42.0597,-93.88023,us,ia
carroll,42.06582,-94.86693,us,ia
centerville,40.73418,-92.87409,us,ia
charles city,43.06636,-92.67241,us,ia
cherokee,42.74943,-95.55167,us,ia
clarinda,40.73981,-95.038,us,ia
clear lake,43.13802,-93.37937,us,ia
creston,41.0586,-94.36135,us,ia
de witt,41.82336,-90.53819,us,ia
decorah,43.30331,-91.78571,us,ia
denison,42.01777,-95.35528,us,ia
eldridge,41.65809,-90.58458,us,ia
estherville,43.40163,-94.83276,us,ia
fairfield,41.00863,-91.96267,us,ia
fort madison,40.62976,-91.31515,us,ia
glenwood,41.04694,-95.74251,us,ia
grimes,41.68832,-93.79106,us,ia
grinnell,41.74305,-92.72241,us,ia
harlan,41.65304,-95.32555,us,ia
hiawatha,42.03583,-91.68212,us,ia
independence,42.4686,-91.88934,us,ia
indianola,41.35805,-93.55744,us,ia
iowa falls,42.52248,-93.25131,us,ia
keokuk,40.39727,-91.38487,us,ia
knoxville,41.32083,-93.10937,us,ia
le mars,42.79416,-96.16558,us,ia
manchester,42.48415,-91.45543,us,ia
maquoketa,42.06891,-90.66569,us,ia
mount pleasant,40.96364,-91.55794,us,ia
nevada,42.02277,-93.45243,us,ia
north liberty,41.74918,-91.59795,us,ia
norwalk,41.47555,-93.67883,us,ia
oelwein,42.67332,-91.9135,us,ia
orange city,43.00721,-96.05835,us,ia
oskaloosa,41.29639,-92.64436,us,ia
pella,41.40805,-92.91631,us,ia
perry,41.8386,-94.10718,us,ia
pleasant hill,41.58388,-93.51994,us,ia
red oak,41.00972,-95.22555,us,ia
sheldon,43.18109,-95.85613,us,ia
shenandoah,40.76555,-95.37221,us,ia
sioux center,43.07971,-96.17558,us,ia
spencer,43.14136,-95.14444,us,ia
storm lake,42.64109,-95.20972,us,ia
vinton,42.16861,-92.02351,us,ia
washington,41.29918,-91.69294,us,ia
waukee,41.61166,-93.88523,us,ia
waverly,42.72581,-92.47546,us,ia
webster city,42.46942,-93.81605,us,ia
winterset,41.33082,-94.01384,us,ia
antioch,42.47724,-88.09564,us,il
barrington,42.15391,-88.13619,us,il
bartonville,40.65032,-89.65205,us,il
beach park,42.42224,-87.8573,us,il
beardstown,40.01755,-90.42429,us,il
berkeley,41.88892,-87.9034,us,il
boulder hill,41.71253,-88.33618,us,il
braidwood,41.26503,-88.21228,us,il
broadview,41.86392,-87.85339,us,il
burr ridge,41.74892,-87.91839,us,il
calumet park,41.66281,-87.6606,us,il
channahon,41.42948,-88.22867,us,il
chicago ridge,41.70142,-87.77922,us,il
chillicothe,40.92226,-89.4862,us,il
clarendon hills,41.79753,-87.95478,us,il
clinton,40.15365,-88.96453,us,il
coal city,41.28781,-88.28562,us,il
colona,41.48392,-90.35318,us,il
countryside,41.78281,-87.87811,us,il
crestwood,41.66114,-87.75255,us,il
crete,41.44448,-87.63143,us,il
creve coeur,40.64726,-89.59121,us,il
elburn,41.89225,-88.4723,us,il
eureka,40.72143,-89.27286,us,il
flossmoor,41.54281,-87.68477,us,il
forest park,41.87948,-87.81367,us,il
fox lake,42.39669,-88.1837,us,il
frankfort square,41.51892,-87.8031,us,il
gages lake,42.35169,-87.98258,us,il
geneseo,41.44809,-90.15428,us,il
genoa,42.09725,-88.69287,us,il
gilberts,42.10336,-88.37286,us,il
glenwood,41.54253,-87.60227,us,il
glencoe,42.13503,-87.75812,us,il
grandwood park,42.39308,-87.98674,us,il
hampshire,42.0978,-88.53036,us,il
harvard,42.42224,-88.61371,us,il
harwood heights,41.96725,-87.80756,us,il
hawthorn woods,42.21697,-88.04952,us,il
hazel crest,41.5717,-87.69449,us,il
hickory hills,41.72559,-87.82506,us,il
highwood,42.19975,-87.80923,us,il
hillside,41.87781,-87.90284,us,il
hoopeston,40.46726,-87.66836,us,il
inverness,42.11808,-88.09619,us,il
island lake,42.27613,-88.19203,us,il
itasca,41.97503,-88.00729,us,il
johnsburg,42.38002,-88.24203,us,il
justice,41.74448,-87.83783,us,il
kewanee,41.24559,-89.92483,us,il
la grange park,41.83475,-87.86173,us,il
la salle,41.33337,-89.09175,us,il
lake bluff,42.27891,-87.83424,us,il
lake villa,42.41697,-88.07397,us,il
lakemoor,42.32863,-88.19897,us,il
lincoln,40.14838,-89.36482,us,il
lincolnshire,42.19002,-87.9084,us,il
lincolnwood,42.00448,-87.73006,us,il
lindenhurst,42.41058,-88.02619,us,il
long grove,42.17836,-87.99785,us,il
lynwood,41.52642,-87.53865,us,il
lyons,41.81337,-87.81811,us,il
mahomet,40.19531,-88.40422,us,il
manhattan,41.42253,-87.98589,us,il
manteno,41.25059,-87.83143,us,il
marengo,42.24863,-88.60843,us,il
markham,41.59365,-87.69477,us,il
marseilles,41.33087,-88.70813,us,il
mendota,41.54725,-89.11759,us,il
midlothian,41.62531,-87.71755,us,il
milan,41.45309,-90.57208,us,il
minooka,41.45531,-88.26173,us,il
monee,41.42003,-87.74171,us,il
monmouth,40.91143,-90.64736,us,il
monticello,40.02781,-88.5734,us,il
morris,41.35725,-88.42118,us,il
norridge,41.96336,-87.82728,us,il
north riverside,41.84281,-87.82311,us,il
northfield,42.09975,-87.7809,us,il
northlake,41.91725,-87.89562,us,il
oak brook,41.83281,-87.92895,us,il
orland hills,41.58531,-87.84311,us,il
palos heights,41.66809,-87.79644,us,il
park city,42.34836,-87.88424,us,il
peoria heights,40.74726,-89.57398,us,il
peru,41.32753,-89.12897,us,il
plano,41.66281,-88.53702,us,il
pontiac,40.88087,-88.62978,us,il
poplar grove,42.36835,-88.82205,us,il
posen,41.6317,-87.68144,us,il
princeton,41.36809,-89.46481,us,il
rantoul,40.30837,-88.15588,us,il
richton park,41.48448,-87.70338,us,il
river forest,41.89781,-87.81395,us,il
river grove,41.92586,-87.83589,us,il
riverdale,41.63337,-87.6331,us,il
riverside,41.83503,-87.82284,us,il
robbins,41.64392,-87.70366,us,il
rochelle,41.92392,-89.06871,us,il
rock falls,41.77975,-89.689,us,il
rockton,42.45252,-89.07233,us,il
roscoe,42.41335,-89.00927,us,il
round lake park,42.35697,-88.07675,us,il
sandwich,41.64586,-88.62174,us,il
sauk village,41.48837,-87.56754,us,il
savoy,40.05475,-88.25172,us,il
schiller park,41.95586,-87.8709,us,il
silvis,41.51226,-90.41513,us,il
south beloit,42.49307,-89.03678,us,il
spring grove,42.44363,-88.23648,us,il
spring valley,41.32754,-89.19981,us,il
steger,41.47003,-87.63643,us,il
stickney,41.82142,-87.78283,us,il
streator,41.12087,-88.83535,us,il
sugar grove,41.76142,-88.44369,us,il
summit,41.78809,-87.81033,us,il
university park,41.59226,-87.68533,us,il
warrenville,41.81781,-88.1734,us,il
watseka,40.77615,-87.73642,us,il
wauconda,42.25891,-88.13925,us,il
west dundee,42.09808,-88.28286,us,il
western springs,41.80975,-87.90062,us,il
willow springs,41.74087,-87.86033,us,il
willowbrook,41.76975,-87.93589,us,il
wilmington,41.30781,-88.14672,us,il
winfield,41.8617,-88.1609,us,il
winnetka,42.10808,-87.7359,us,il
winthrop harbor,42.47891,-87.82368,us,il
wood dale,41.96336,-87.97896,us,il
worth,41.68975,-87.79728,us,il
alexandria,40.26282,-85.67581,us,in
angola,41.63477,-84.99941,us,in
auburn,41.36699,-85.05886,us,in
bluffton,40.73866,-85.17164,us,in
cedar lake,41.36476,-87.44115,us,in
chesterton,41.61059,-87.0642,us,in
columbia city,41.15727,-85.48831,us,in
decatur,40.8306,-84.92913,us,in
dunlap,41.63783,-85.92166,us,in
elwood,40.27698,-85.84192,us,in
garrett,41.34949,-85.13553,us,in
gas city,40.48726,-85.61303,us,in
hartford city,40.45115,-85.36997,us,in
kendallville,41.44144,-85.26498,us,in
lake station,41.57504,-87.23892,us,in
lakes of the four seasons,41.41032,-87.21309,us,in
monticello,40.74532,-86.76473,us,in
nappanee,41.44283,-86.00139,us,in
new haven,41.0706,-85.01441,us,in
north manchester,41.0006,-85.7686,us,in
peru,40.75365,-86.06888,us,in
plymouth,41.34366,-86.30973,us,in
portland,40.43449,-84.97775,us,in
rensselaer,40.9367,-87.15086,us,in
rochester,41.06476,-86.21583,us,in
saint john,41.45004,-87.47004,us,in
south haven,41.54198,-87.13726,us,in
tipton,40.28226,-86.0411,us,in
wabash,40.79782,-85.82054,us,in
warsaw,41.2381,-85.85305,us,in
westville,41.54143,-86.90058,us,in
yorktown,40.17365,-85.49414,us,in
acushnet,41.68066,-70.90782,us,ma
adams,42.62425,-73.1176,us,ma
andover,42.65843,-71.137,us,ma
ashburnham,42.6362,-71.90785,us,ma
athol,42.59592,-72.22675,us,ma
bedford,42.49065,-71.27617,us,ma
berkley,41.84593,-71.08282,us,ma
blackstone,42.01788,-71.54117,us,ma
bliss corner,41.61177,-70.93837,us,ma
bridgewater,41.99038,-70.97504,us,ma
carver,41.88344,-70.76254,us,ma
centerville,41.64872,-70.34808,us,ma
charlton,42.13565,-71.97007,us,ma
clinton,42.41676,-71.68285,us,ma
cochituate,42.32093,-71.36423,us,ma
cohasset,42.24177,-70.80365,us,ma
dalton,42.4737,-73.16621,us,ma
dighton,41.81399,-71.12032,us,ma
douglas,42.05426,-71.73951,us,ma
dudley,42.0451,-71.93007,us,ma
east bridgewater,42.03343,-70.95921,us,ma
eastham,41.83011,-69.97391,us,ma
foxborough,42.06538,-71.24783,us,ma
freetown,41.76677,-71.03282,us,ma
groveland,42.76037,-71.03145,us,ma
halifax,41.99121,-70.86199,us,ma
hamilton,42.2562,-71.76757,us,ma
hampden,42.06398,-72.41342,us,ma
harvard,42.50009,-71.58284,us,ma
harwich,41.68622,-70.07585,us,ma
head of westport,41.62094,-71.06199,us,ma
hingham,42.24177,-70.88977,us,ma
holbrook,42.1551,-71.00866,us,ma
holliston,42.2001,-71.4245,us,ma
hudson,42.39176,-71.56618,us,ma
hull,42.30204,-70.90782,us,ma
hyannis,41.65289,-70.2828,us,ma
kingston,41.99455,-70.72448,us,ma
lancaster,42.45565,-71.67312,us,ma
leicester,42.24593,-71.90868,us,ma
lincoln,42.42593,-71.30395,us,ma
lynnfield,42.53898,-71.04811,us,ma
marion,41.7001,-70.76281,us,ma
marstons mills,41.65622,-70.41614,us,ma
mashpee,41.64844,-70.48114,us,ma
mattapoisett,41.65844,-70.81615,us,ma
maynard,42.43343,-71.44951,us,ma
medfield,42.1876,-71.30645,us,ma
medway,42.14176,-71.39673,us,ma
mendon,42.10565,-71.55229,us,ma
merrimac,42.83065,-71.00228,us,ma
middleton,42.59509,-71.01616,us,ma
millbury,42.19398,-71.76007,us,ma
millis,42.1676,-71.35784,us,ma
monson,42.10426,-72.31897,us,ma
montague,42.53564,-72.53509,us,ma
nantucket,41.28346,-70.09946,us,ma
norfolk,42.11954,-71.32506,us,ma
north adams,42.70092,-73.10871,us,ma
north amherst,42.41037,-72.53092,us,ma
north reading,42.57509,-71.07867,us,ma
north scituate,42.21899,-70.7856,us,ma
northborough,42.31954,-71.64118,us,ma
northbridge,42.15148,-71.64951,us,ma
norwell,42.16177,-70.79393,us,ma
oxford,42.11676,-71.86479,us,ma
pinehurst,42.52926,-71.22811,us,ma
plainville,42.00427,-71.33283,us,ma
plymouth,41.95844,-70.66726,us,ma
raynham,41.94871,-71.0731,us,ma
rehoboth,41.84038,-71.24949,us,ma
scituate,42.19593,-70.72587,us,ma
seekonk,41.80843,-71.337,us,ma
sharon,42.12371,-71.17866,us,ma
south yarmouth,41.66678,-70.18474,us,ma
southampton,42.22926,-72.73009,us,ma
southborough,42.30565,-71.52451,us,ma
southwick,42.05482,-72.77037,us,ma
spencer,42.24398,-71.9923,us,ma
sterling,42.43759,-71.76063,us,ma
stow,42.43704,-71.50562,us,ma
sutton,42.1501,-71.76285,us,ma
swampscott,42.47093,-70.91755,us,ma
templeton,42.55564,-72.06758,us,ma
tyngsboro,42.67676,-71.42451,us,ma
uxbridge,40.03788,-76.30551,us,pa
latrobe,40.32118,-79.37948,us,pa
lehighton,40.8337,-75.7138,us,pa
lewisburg,40.96453,-76.88441,us,pa
lewistown,40.59924,-77.57138,us,pa
linglestown,40.33398,-76.78914,us,pa
lititz,40.15732,-76.3069,us,pa
lock haven,41.13701,-77.44693,us,pa
lower allen,40.22648,-76.90053,us,pa
lower burrell,40.55312,-79.75727,us,pa
maple glen,40.01563,-79.97672,us,pa
mckees rocks,40.46562,-80.06561,us,pa
meadville,41.64144,-80.15145,us,pa
mechanicsburg,40.21426,-77.00859,us,pa
middletown,40.19981,-76.73108,us,pa
milton,41.01203,-76.84774,us,pa
monaca,40.68729,-80.27145,us,pa
monessen,40.14841,-79.88783,us,pa
montgomeryville,40.24733,-75.24379,us,pa
moosic,41.35341,-75.73825,us,pa
morrisville,40.2115,-74.78794,us,pa
mount carmel,40.79703,-76.4119,us,pa
mount joy,40.10982,-76.5033,us,pa
mountain top,41.16953,-75.87742,us,pa
munhall,40.39229,-79.90005,us,pa
nanticoke,41.20536,-76.00492,us,pa
nazareth,40.74038,-75.30962,us,pa
new brighton,40.73034,-80.31006,us,pa
new cumberland,40.23231,-76.8847,us,pa
new kensington,40.56979,-79.76477,us,pa
new holland,40.10176,-76.08523,us,pa
north versailles,40.37979,-79.80949,us,pa
northampton,40.68621,-75.49685,us,pa
oakmont,40.52173,-79.84227,us,pa
oil city,41.43395,-79.70644,us,pa
old forge,41.37119,-75.73491,us,pa
olyphant,41.46841,-75.60297,us,pa
oreland,40.11844,-75.17768,us,pa
palmerton,40.8014,-75.6119,us,pa
palmyra,40.30898,-76.5933,us,pa
paoli,40.04205,-75.47631,us,pa
park forest village,40.80673,-77.91695,us,pa
paxtonia,40.31731,-76.79442,us,pa
perkasie,40.37205,-75.29268,us,pa
pittston,41.32591,-75.78936,us,pa
pleasant hills,40.33563,-79.96061,us,pa
plymouth,41.24036,-75.94464,us,pa
plymouth meeting,40.10233,-75.27435,us,pa
pottsville,40.68565,-76.1955,us,pa
progress,40.28509,-76.83136,us,pa
punxsutawney,40.94368,-78.97087,us,pa
quakertown,40.44177,-75.34157,us,pa
richboro,40.21511,-75.01072,us,pa
saint marys,41.42784,-78.56086,us,pa
sanatoga,40.2451,-75.59518,us,pa
sayre,41.97896,-76.5155,us,pa
schlusser,40.24175,-77.17693,us,pa
schuylkill haven,40.63065,-76.17105,us,pa
selinsgrove,40.79897,-76.86219,us,pa
shamokin,40.78897,-76.55885,us,pa
sharon,41.23311,-80.4934,us,pa
shenandoah,40.82037,-76.20077,us,pa
shillington,40.30787,-75.96549,us,pa
shippensburg,40.05065,-77.52026,us,pa
somerset,40.00841,-79.07808,us,pa
souderton,40.31177,-75.32518,us,pa
south williamsport,41.23202,-76.99913,us,pa
steelton,40.23537,-76.84136,us,pa
stroudsburg,40.98676,-75.19462,us,pa
sugarcreek,41.42145,-79.88117,us,pa
sunbury,40.86259,-76.79441,us,pa
swissvale,40.42368,-79.88283,us,pa
swoyersville,41.29175,-75.87464,us,pa
tamaqua,40.79731,-75.96937,us,pa
taylor,41.3948,-75.70658,us,pa
titusville,41.627,-79.67366,us,pa
trooper,40.14983,-75.40185,us,pa
turtle creek,40.4059,-79.82505,us,pa
tyrone,40.67062,-78.23862,us,pa
vandergrift,40.60284,-79.56477,us,pa
warren,41.84395,-79.14504,us,pa
washington,40.17396,-80.24617,us,pa
wescosville,40.56676,-75.55296,us,pa
west norriton,40.12955,-75.37852,us,pa
west view,40.52229,-80.03422,us,pa
westmont,40.31563,-78.95169,us,pa
white oak,40.33757,-79.80921,us,pa
whitehall,40.36118,-79.99089,us,pa
wilson,40.31007,-79.89144,us,pa
wyndmoor,40.08122,-75.18934,us,pa
wyomissing,40.32954,-75.96521,us,pa
charlestown,41.38316,-71.64173,us,ri
cumberland hill,41.97454,-71.467,us,ri
east greenwich,41.66038,-71.45589,us,ri
exeter,41.5776,-71.53756,us,ri
greenville,41.87121,-71.55201,us,ri
hopkinton,41.46121,-71.77757,us,ri
jamestown,41.49705,-71.36728,us,ri
kingston,41.48038,-71.52256,us,ri
north scituate,41.83177,-71.58729,us,ri
north smithfield,41.96677,-71.54951,us,ri
tiverton,41.62594,-71.21338,us,ri
valley falls,41.90677,-71.39061,us,ri
warren,41.73038,-71.28255,us,ri
brandon,43.5947,-96.57199,us,sd
huron,44.36332,-98.21426,us,sd
madison,44.00608,-97.11395,us,sd
vermillion,42.77944,-96.92921,us,sd
yankton,42.87111,-97.39728,us,sd
barre,44.19701,-72.50205,us,vt
bennington,42.87813,-73.19677,us,vt
brattleboro,42.85092,-72.55787,us,vt
essex junction,44.49061,-73.11096,us,vt
lyndon,44.51422,-72.01093,us,vt
middlebury (village),44.01553,-73.16937,us,vt
montpelier,44.26006,-72.57539,us,vt
morristown,44.55727,-72.62373,us,vt
rockingham,43.18758,-72.48898,us,vt
saint albans,44.81088,-73.08319,us,vt
saint johnsbury,44.41922,-72.01509,us,vt
williston,44.43755,-73.06818,us,vt
winooski,44.49144,-73.18568,us,vt
allouez,44.47749,-88.01621,us,wi
altoona,44.80468,-91.44321,us,wi
antigo,45.14025,-89.15234,us,wi
ashland,46.59244,-90.8838,us,wi
baraboo,43.47109,-89.74429,us,wi
bellevue,44.44416,-87.9201,us,wi
berlin,43.96804,-88.94345,us,wi
brown deer,43.16334,-87.96453,us,wi
burlington,42.67807,-88.2762,us,wi
cedarburg,43.29667,-87.98759,us,wi
chippewa falls,44.93691,-91.39293,us,wi
cottage grove,43.07611,-89.19956,us,wi
de forest,43.24777,-89.34373,us,wi
delafield,43.06084,-88.40371,us,wi
delavan,42.63307,-88.64371,us,wi
edgerton,42.83528,-89.06761,us,wi
elkhorn,42.67279,-88.54454,us,wi
elm grove,43.04307,-88.07898,us,wi
evansville,42.78028,-89.29928,us,wi
fort atkinson,42.92889,-88.83705,us,wi
fox point,43.15751,-87.90175,us,wi
glendale,43.13529,-87.93564,us,wi
grafton,43.31973,-87.95342,us,wi
greendale,42.94057,-87.99592,us,wi
hales corners,42.93751,-88.0487,us,wi
hartford,43.31778,-88.37899,us,wi
hartland,43.10501,-88.34204,us,wi
holmen,43.9633,-91.25625,us,wi
hudson,44.97469,-92.75687,us,wi
jackson,43.32389,-88.16676,us,wi
jefferson,43.00556,-88.80733,us,wi
kimberly,44.27221,-88.339,us,wi
kronenwetter,44.82219,-89.5904,us,wi
lake geneva,42.59168,-88.43343,us,wi
lake hallie,44.87579,-91.44071,us,wi
lake mills,43.08139,-88.91177,us,wi
little chute,44.27999,-88.31844,us,wi
marinette,45.09998,-87.63066,us,wi
mayville,43.49416,-88.54482,us,wi
mcfarland,43.0125,-89.28984,us,wi
merrill,45.18052,-89.68346,us,wi
milton,42.77556,-88.944,us,wi
monona,43.06222,-89.33401,us,wi
monroe,42.60112,-89.63845,us,wi
mount horeb,43.00861,-89.73846,us,wi
mukwonago,42.86668,-88.33343,us,wi
new london,44.39276,-88.73983,us,wi
new richmond,45.12302,-92.53659,us,wi
north fond du lac,43.81138,-88.48344,us,wi
oregon,42.92611,-89.38456,us,wi
pewaukee,43.08057,-88.2612,us,wi
platteville,42.73416,-90.47846,us,wi
plover,44.45636,-89.54401,us,wi
plymouth,43.74861,-87.97704,us,wi
port washington,43.38722,-87.87564,us,wi
portage,43.53915,-89.46262,us,wi
prairie du chien,43.05165,-91.14124,us,wi
reedsburg,43.53248,-90.00263,us,wi
rhinelander,45.63662,-89.41208,us,wi
rib mountain,44.91275,-89.6754,us,wi
rice lake,45.50607,-91.73823,us,wi
richfield,43.25612,-88.19398,us,wi
richland center,43.33471,-90.38679,us,wi
ripon,43.8422,-88.83594,us,wi
river falls,44.86136,-92.62381,us,wi
rothschild,44.88719,-89.62012,us,wi
saint francis,42.96752,-87.87758,us,wi
salem,42.55474,-88.11092,us,wi
shawano,44.78221,-88.60899,us,wi
sheboygan falls,43.73197,-87.82213,us,wi
shorewood,43.08918,-87.88758,us,wi
slinger,43.33361,-88.28621,us,wi
somers,42.6403,-87.91036,us,wi
sparta,43.94413,-90.81291,us,wi
stoughton,42.91695,-89.21789,us,wi
sturgeon bay,44.83416,-87.37704,us,wi
sturtevant,42.69807,-87.89452,us,wi
suamico,44.63194,-88.03927,us,wi
sussex,43.1339,-88.22204,us,wi
tichigan,42.8289,-88.19759,us,wi
tomah,43.97858,-90.50402,us,wi
twin lakes,42.53113,-88.24815,us,wi
two rivers,44.15388,-87.56925,us,wi
verona,42.99083,-89.53318,us,wi
waterford,42.76307,-88.21426,us,wi
waunakee,43.19194,-89.45567,us,wi
waupaca,44.35803,-89.08595,us,wi
waupun,43.63332,-88.72955,us,wi
weston,44.8908,-89.54762,us,wi
whitefish bay,43.11334,-87.90009,us,wi
whitewater,42.83362,-88.73233,us,wi
wind lake,42.82946,-88.1587,us,wi
bethel,41.37121,-73.41401,us,ct
holbrook,34.90225,-110.15818,us,az
bisbee,31.44815,-109.92841,us,az
camp verde,34.56364,-111.85432,us,az
catalina,32.50556,-110.92111,us,az
cave creek,33.83333,-111.95083,us,az
chino valley,34.75752,-112.45378,us,az
coolidge,32.97784,-111.51762,us,az
corona de tucson,31.96536,-110.77564,us,az
cottonwood,34.73919,-112.00988,us,az
globe,33.39422,-110.7865,us,az
gold camp,33.29367,-111.30429,us,az
golden valley,35.22333,-114.22301,us,az
guadalupe,33.37088,-111.96292,us,az
kayenta,36.72778,-110.25458,us,az
laveen,33.36282,-112.16932,us,az
litchfield park,33.49337,-112.35794,us,az
new river,33.91587,-112.13599,us,az
page,36.91472,-111.45583,us,az
paradise valley,33.53115,-111.94265,us,az
paulden,34.88558,-112.46823,us,az
picture rocks,32.34591,-111.24621,us,az
safford,32.83395,-109.70758,us,az
sedona,34.86974,-111.76099,us,az
show low,34.25421,-110.02983,us,az
snowflake,34.51337,-110.07845,us,az
somerton,32.59644,-114.70968,us,az
south tucson,32.19952,-110.96842,us,az
summit,32.06702,-110.95148,us,az
sun lakes,33.21116,-111.87542,us,az
three points,32.07675,-111.31371,us,az
tolleson,33.45004,-112.25932,us,az
tuba city,36.13499,-111.23986,us,az
tucson estates,32.18758,-111.09093,us,az
vail,32.04786,-110.71203,us,az
wickenburg,33.96864,-112.72962,us,az
williamson,34.69002,-112.54101,us,az
winslow,35.02419,-110.69736,us,az
youngtown,33.59393,-112.30294,us,az
acton,34.46999,-118.19674,us,ca
alamo,37.8502,-122.03218,us,ca
alondra park,33.88946,-118.33091,us,ca
alpine,32.83505,-116.76641,us,ca
alta sierra,35.73126,-118.5539,us,ca
aptos,36.97717,-121.8994,us,ca
atherton,37.46133,-122.19774,us,ca
auburn,38.89657,-121.07689,us,ca
august,37.97881,-121.26217,us,ca
bear valley springs,35.15913,-118.62842,us,ca
ben lomond,37.08911,-122.08635,us,ca
bermuda dunes,33.7428,-116.28918,us,ca
big bear city,34.26112,-116.84503,us,ca
big bear lake,34.2439,-116.91142,us,ca
blackhawk,37.82076,-121.90774,us,ca
bonita,32.65783,-117.03003,us,ca
boyes hot springs,38.3138,-122.48193,us,ca
california city,35.1258,-117.9859,us,ca
calipatria,33.1256,-115.51415,us,ca
calistoga,38.5788,-122.57971,us,ca
calimesa,34.0039,-117.06198,us,ca
cambria,35.56414,-121.08075,us,ca
canyon lake,33.68502,-117.27309,us,ca
capitola,36.97523,-121.95329,us,ca
carpinteria,34.39888,-119.51846,us,ca
castroville,36.76579,-121.758,us,ca
century city,34.05557,-118.41786,us,ca
charter oak,34.10306,-117.84589,us,ca
cherry valley,33.97252,-116.97725,us,ca
cherryland,37.67938,-122.1033,us,ca
citrus,34.11501,-117.89173,us,ca
clayton,37.94103,-121.93579,us,ca
cloverdale,38.80546,-123.01722,us,ca
coalinga,36.13968,-120.36015,us,ca
colusa,39.21433,-122.00942,us,ca
commerce,34.00057,-118.15979,us,ca
corning,39.92766,-122.17916,us,ca
corte madera,37.92548,-122.52748,us,ca
cotati,38.32686,-122.70721,us,ca
coto de caza,33.60419,-117.58699,us,ca
country club,37.96881,-121.34078,us,ca
crestline,34.24195,-117.2856,us,ca
del aire,33.91613,-118.36952,us,ca
delhi,37.43216,-120.77854,us,ca
diamond springs,38.69463,-120.81494,us,ca
discovery bay,37.90854,-121.60023,us,ca
durham,39.64627,-121.79998,us,ca
earlimart,35.88412,-119.27233,us,ca
east foothills,37.38105,-121.81745,us,ca
east la mirada,33.92446,-117.98895,us,ca
east pasadena,34.13814,-118.07384,us,ca
east porterville,36.05745,-118.97566,us,ca
east san gabriel,34.09168,-118.09118,us,ca
el granada,37.50272,-122.46942,us,ca
el rio,34.23578,-119.16383,us,ca
el sobrante,37.97715,-122.29525,us,ca
elverta,38.71379,-121.46273,us,ca
emeryville,37.83132,-122.28525,us,ca
escalon,37.79781,-120.99792,us,ca
eucalyptus hills,32.87977,-116.94669,us,ca
exeter,36.29606,-119.14205,us,ca
fairfax,37.98715,-122.58887,us,ca
fairview,37.67854,-122.0458,us,ca
farmersville,36.29773,-119.20678,us,ca
firebaugh,36.85884,-120.45601,us,ca
foothill ranch,33.68641,-117.66088,us,ca
fort bragg,39.44572,-123.80529,us,ca
fort irwin,35.26275,-116.68475,us,ca
fowler,36.63051,-119.67847,us,ca
garden acres,37.96381,-121.22939,us,ca
garnet,33.90196,-116.54557,us,ca
gold river,38.62629,-121.24662,us,ca
golden hills,35.14247,-118.49036,us,ca
gonzales,36.50663,-121.44438,us,ca
good hope,33.76474,-117.26698,us,ca
grand terrace,34.0339,-117.31365,us,ca
grass valley,39.21906,-121.06106,us,ca
greenacres,35.38329,-119.10983,us,ca
gridley,39.36378,-121.69358,us,ca
grover beach,35.12164,-120.62128,us,ca
guadalupe,34.97164,-120.57184,us,ca
gustine,37.25772,-120.99882,us,ca
half moon bay,37.46355,-122.42859,us,ca
hawaiian gardens,33.8314,-118.07284,us,ca
healdsburg,38.61047,-122.86916,us,ca
hidden valley lake,38.80796,-122.55832,us,ca
hillsborough,37.5741,-122.37942,us,ca
holtville,32.81116,-115.38026,us,ca
home gardens,33.87807,-117.52088,us,ca
homeland,33.74308,-117.1092,us,ca
hughson,37.59688,-120.86604,us,ca
huron,36.20273,-120.10292,us,ca
imperial,32.84755,-115.56944,us,ca
interlaken,36.95134,-121.73384,us,ca
ione,38.35269,-120.93272,us,ca
loomis,38.82129,-121.193,us,ca
los alamitos,33.80307,-118.07256,us,ca
los altos hills,37.37966,-122.13746,us,ca
los osos,35.31109,-120.8324,us,ca
los serranos,33.97279,-117.70811,us,ca
lucerne valley,34.44389,-116.96781,us,ca
madera acres,37.01911,-120.06683,us,ca
magalia,39.81211,-121.57831,us,ca
malibu,34.02577,-118.7804,us,ca
malibu beach,34.03279,-118.68842,us,ca
mammoth lakes,37.64855,-118.97208,us,ca
marina del rey,33.98029,-118.45174,us,ca
marysville,39.14573,-121.59135,us,ca
mayflower village,34.11501,-118.00979,us,ca
mcfarland,35.67801,-119.22927,us,ca
mecca,33.57219,-116.0782,us,ca
mendota,36.75356,-120.38156,us,ca
mentone,34.07001,-117.13448,us,ca
midway city,33.74474,-117.98923,us,ca
mill valley,37.90604,-122.54498,us,ca
mira monte,34.43361,-119.28511,us,ca
montecito,34.43666,-119.63208,us,ca
morro bay,35.36581,-120.8499,us,ca
mountain house,37.78326,-121.54273,us,ca
muscoy,34.15418,-117.34421,us,ca
newman,37.31383,-121.02076,us,ca
north auburn,38.93129,-121.08189,us,ca
north fair oaks,37.47438,-122.19663,us,ca
nuevo,33.80141,-117.14587,us,ca
oak hills,34.38313,-117.38135,us,ca
oak park,34.17917,-118.76287,us,ca
oasis,33.46586,-116.09889,us,ca
oceano,35.09886,-120.61239,us,ca
ojai,34.44805,-119.24289,us,ca
olivehurst,39.09545,-121.55219,us,ca
opal cliffs,36.96078,-121.96413,us,ca
orange cove,36.62439,-119.31373,us,ca
orland,39.74738,-122.19637,us,ca
orosi,36.54495,-119.28734,us,ca
palermo,39.43544,-121.53802,us,ca
palos verdes estates,33.80105,-118.39245,us,ca
parkway,38.49602,-121.45884,us,ca
parlier,36.61162,-119.52707,us,ca
pedley,33.97529,-117.47588,us,ca
phelan,34.42611,-117.57228,us,ca
piedmont,37.82437,-122.23163,us,ca
pismo beach,35.14275,-120.64128,us,ca
pinon hills,34.43333,-117.64672,us,ca
placerville,38.72963,-120.79855,us,ca
plumas lake,39.02073,-121.55802,us,ca
pollock pines,38.76138,-120.58911,us,ca
portola hills,33.67919,-117.63116,us,ca
quartz hill,34.64526,-118.21813,us,ca
rancho calaveras,38.1275,-120.85833,us,ca
rancho murieta,38.50185,-121.09467,us,ca
redwood shores,37.53188,-122.24802,us,ca
rio del mar,36.96828,-121.90023,us,ca
rio vista,38.15575,-121.69134,us,ca
ripon,37.74159,-121.12438,us,ca
rodeo,38.03298,-122.26691,us,ca
rolling hills estates,33.78779,-118.35813,us,ca
rosedale,35.38357,-119.14538,us,ca
roseland,38.42213,-122.72804,us,ca
rossmoor,33.78557,-118.08506,us,ca
saint helena,38.50519,-122.47026,us,ca
salida,37.70576,-121.08494,us,ca
san anselmo,37.97465,-122.56164,us,ca
san diego country estates,33.00671,-116.78364,us,ca
san marino,34.1214,-118.10646,us,ca
san martin,37.08495,-121.61022,us,ca
saranap,37.88492,-122.07607,us,ca
sausalito,37.85909,-122.48525,us,ca
scotts valley,37.05106,-122.01468,us,ca
sebastopol,38.40214,-122.82388,us,ca
sierra madre,34.16167,-118.05285,us,ca
signal hill,33.80446,-118.16785,us,ca
solana beach,32.99115,-117.27115,us,ca
solvang,34.59582,-120.13765,us,ca
sonoma,38.29186,-122.45804,us,ca
soquel,36.98801,-121.95663,us,ca
south oroville,39.49655,-121.55219,us,ca
south san gabriel,34.04915,-118.09462,us,ca
stanford,37.42411,-122.16608,us,ca
strawberry,37.89687,-122.50886,us,ca
sunnyslope,34.01196,-117.43338,us,ca
taft,35.14247,-119.45651,us,ca
tamalpais valley,37.87965,-122.54581,us,ca
tara hills,37.99353,-122.31636,us,ca
tehachapi,35.13219,-118.44897,us,ca
templeton,35.54969,-120.706,us,ca
thermalito,39.51128,-121.58692,us,ca
thousand palms,33.82002,-116.39029,us,ca
tiburon,37.87354,-122.45664,us,ca
tierra buena,39.14878,-121.66691,us,ca
topanga,34.09362,-118.60147,us,ca
waterford,37.64132,-120.76048,us,ca
west athens,33.92335,-118.30341,us,ca
west rancho dominguez,33.8939,-118.27063,us,ca
westlake village,34.14584,-118.80565,us,ca
williams,39.15461,-122.14942,us,ca
willows,39.52433,-122.19359,us,ca
wilton,38.41186,-121.27217,us,ca
winters,38.52491,-121.9708,us,ca
winton,37.38938,-120.61325,us,ca
woodcrest,33.88224,-117.35727,us,ca
woodlake,36.41356,-119.09872,us,ca
woodside,37.42994,-122.25386,us,ca
alamosa,37.46945,-105.87002,us,co
applewood,39.75778,-105.1625,us,co
aspen,39.1911,-106.81754,us,co
avon,39.63137,-106.52225,us,co
berkley,39.80443,-105.02609,us,co
black forest,39.01305,-104.70081,us,co
carbondale,39.40221,-107.21116,us,co
cherry hills village,39.64165,-104.95943,us,co
cortez,37.34888,-108.58593,us,co
delta,38.74221,-108.06896,us,co
derby,39.83943,-104.91859,us,co
eagle,39.65526,-106.82865,us,co
edgewater,39.75304,-105.06415,us,co
edwards,39.64499,-106.5942,us,co
evergreen,39.63332,-105.31721,us,co
federal heights,39.85137,-104.99859,us,co
fort carson,38.73749,-104.78886,us,co
fruita,39.15887,-108.72899,us,co
fruitvale,39.08165,-108.49676,us,co
gleneagle,39.04527,-104.82442,us,co
glenwood springs,39.55054,-107.32478,us,co
greenwood village,39.61721,-104.95081,us,co
gunnison,38.54582,-106.92532,us,co
gypsum,39.64693,-106.95171,us,co
la junta,37.98501,-103.54383,us,co
lamar,38.08723,-102.62075,us,co
lone tree,39.55171,-104.8863,us,co
monument,39.09166,-104.87276,us,co
orchard mesa,39.04304,-108.55232,us,co
redlands,39.07887,-108.63565,us,co
rifle,39.5347,-107.78312,us,co
roxborough park,39.47388,-105.08526,us,co
salida,38.53472,-105.9989,us,co
sheridan,39.64693,-105.02526,us,co
stonegate,39.53082,-104.80386,us,co
stratmoor,38.77388,-104.7797,us,co
superior,39.95276,-105.1686,us,co
the pinery,39.45527,-104.73442,us,co
trinidad,37.16946,-104.50054,us,co
twin lakes,39.82499,-105.0047,us,co
vail,39.64026,-106.3742,us,co
welby,39.83665,-104.95915,us,co
woodland park,38.99388,-105.05693,us,co
woodmoor,39.10138,-104.84748,us,co
colby,39.39584,-101.05238,us,ks
ulysses,37.58141,-101.35517,us,ks
anthony,32.00399,-106.60583,us,nm
artesia,32.84233,-104.4033,us,nm
aztec,36.82223,-107.99285,us,nm
belen,34.66284,-106.77642,us,nm
bernalillo,35.30004,-106.55114,us,nm
bloomfield,36.71112,-107.98451,us,nm
chaparral,32.02376,-106.38566,us,nm
corrales,35.23782,-106.60669,us,nm
deming,32.2687,-107.75864,us,nm
eldorado at santa fe,35.52642,-105.93474,us,nm
espanola,35.99113,-106.08058,us,nm
grants,35.1476,-107.85261,us,nm
kirtland,36.73417,-108.3598,us,nm
las vegas,35.59393,-105.2239,us,nm
lee acres,35.14866,-106.64697,us,nm
los alamos,35.88808,-106.30697,us,nm
los chavez,34.72571,-106.75726,us,nm
los lunas,34.80617,-106.73336,us,nm
los ranchos de albuquerque,35.16199,-106.6428,us,nm
lovington,32.94401,-103.34855,us,nm
north valley,35.17338,-106.62336,us,nm
portales,34.18619,-103.3344,us,nm
raton,36.90336,-104.43915,us,nm
ruidoso,33.33175,-105.67304,us,nm
shiprock,36.78555,-108.68703,us,nm
silver city,32.77007,-108.28033,us,nm
socorro,34.0584,-106.89142,us,nm
sunland park,31.7965,-106.57999,us,nm
taos,36.40725,-105.57307,us,nm
truth or consequences,33.1284,-107.25281,us,nm
tucumcari,35.17191,-103.72686,us,nm
white rock,35.82753,-106.20391,us,nm
zuni pueblo,35.07253,-108.85064,us,nm
cold springs,39.68019,-119.97659,us,nv
dayton,39.23714,-119.59295,us,nv
fallon,39.47353,-118.77737,us,nv
gardnerville,38.9413,-119.74962,us,nv
gardnerville ranchos,38.88824,-119.74129,us,nv
incline village,39.2513,-119.97297,us,nv
johnson lane,39.04796,-119.72212,us,nv
laughlin,35.16778,-114.57302,us,nv
lemmon valley,39.63602,-119.84325,us,nv
moapa valley,36.58053,-114.47026,us,nv
silver springs,39.41547,-119.22461,us,nv
guymon,36.6828,-101.48155,us,ok
alpine,30.35862,-103.66206,us,tx
andrews,32.31872,-102.54572,us,tx
anthony,31.99927,-106.60555,us,tx
borger,35.66782,-101.39739,us,tx
brownfield,33.1812,-102.27435,us,tx
canutillo,31.91149,-106.60027,us,tx
canyon,34.98033,-101.9188,us,tx
childress,34.42645,-100.204,us,tx
dalhart,36.05948,-102.51325,us,tx
dumas,35.86559,-101.97324,us,tx
eidson road,28.6772,-100.48702,us,tx
fabens,31.50234,-106.15859,us,tx
fort stockton,30.89404,-102.87932,us,tx
homestead meadows north,31.84963,-106.17285,us,tx
homestead meadows south,31.81097,-106.16427,us,tx
kermit,31.85763,-103.09267,us,tx
lamesa,32.7376,-101.95099,us,tx
levelland,33.58732,-102.37796,us,tx
littlefield,33.91731,-102.3249,us,tx
monahans,31.5943,-102.89265,us,tx
muleshoe,34.22647,-102.72383,us,tx
pecos,31.42291,-103.49323,us,tx
perryton,36.40003,-100.80265,us,tx
post,33.19122,-101.379,us,tx
san elizario,31.58511,-106.27276,us,tx
seminole,32.71899,-102.64491,us,tx
slaton,33.43731,-101.64349,us,tx
snyder,32.71789,-100.91762,us,tx
sweetwater,32.47095,-100.40594,us,tx
enoch,37.77331,-113.02439,us,ut
ephraim,39.35968,-111.58631,us,ut
hurricane,37.17526,-113.28995,us,ut
ivins,37.16859,-113.67941,us,ut
moab,38.57332,-109.54984,us,ut
nephi,39.71023,-111.83632,us,ut
price,39.59941,-110.81071,us,ut
richfield,38.77247,-112.08409,us,ut
santa clara,37.13304,-113.65413,us,ut
santaquin,39.97551,-111.78521,us,ut
west sedona,34.86724,-111.80543,us,az
indian hills,39.08602,-119.78407,us,nv
arizona city,32.75589,-111.67096,us,az
avra valley,32.43785,-111.31539,us,az
benson,31.96786,-110.29452,us,az
big park,34.7803,-111.76265,us,az
rathdrum,47.8124,-116.89659,us,id
ketchikan,55.34225,-131.64784,us,ak
little cottonwood creek valley,40.60439,-111.82938,us,ut
salem,40.05301,-111.67354,us,ut
lea hill,47.32621,-122.18151,us,wa
sitka,57.05315,-135.33088,us,ak
anderson,40.44821,-122.29778,us,ca
crescent city,41.75595,-124.20175,us,ca
fortuna,40.59819,-124.15728,us,ca
red bluff,40.17849,-122.23583,us,ca
shasta lake,40.68043,-122.37084,us,ca
yreka,41.73542,-122.63447,us,ca
berthoud,40.30832,-105.08109,us,co
brush,40.25887,-103.62384,us,co
craig,40.51525,-107.54645,us,co
estes park,40.37721,-105.52167,us,co
firestone,40.11248,-104.93664,us,co
fort lupton,40.08471,-104.81303,us,co
fort morgan,40.25026,-103.79995,us,co
frederick,40.09915,-104.9372,us,co
johnstown,40.33693,-104.9122,us,co
milliken,40.32943,-104.85525,us,co
steamboat springs,40.48498,-106.83172,us,co
sterling,40.62554,-103.20771,us,co
wellington,40.70387,-105.00859,us,co
ammon,43.46964,-111.96664,us,id
blackfoot,43.19047,-112.34498,us,id
burley,42.53574,-113.79279,us,id
chubbuck,42.92075,-112.46609,us,id
emmett,43.8735,-116.4993,us,id
garden city,43.62211,-116.23817,us,id
hailey,43.51963,-114.31532,us,id
hayden,47.76602,-116.78658,us,id
jerome,42.72407,-114.51865,us,id
middleton,43.70683,-116.62014,us,id
mountain home,43.13295,-115.6912,us,id
payette,44.07822,-116.93377,us,id
preston,42.09631,-111.87662,us,id
rupert,42.61908,-113.67723,us,id
sandpoint,48.27659,-116.55325,us,id
star,43.69211,-116.49346,us,id
weiser,44.251,-116.96933,us,id
anaconda,46.12854,-112.94226,us,mt
belgrade,45.77604,-111.1769,us,mt
evergreen,48.22579,-114.27624,us,mt
havre,48.55,-109.68409,us,mt
laurel,45.66912,-108.77153,us,mt
lewistown,47.06247,-109.42824,us,mt
livingston,45.66244,-110.56104,us,mt
lockwood,45.81912,-108.41486,us,mt
miles city,46.40834,-105.84056,us,mt
orchard homes,46.86326,-114.04844,us,mt
sidney,47.71668,-104.15633,us,mt
whitefish,48.41108,-114.33763,us,mt
williston,48.14697,-103.61797,us,nd
alliance,42.10163,-102.87215,us,ne
chadron,42.82942,-102.99991,us,ne
gering,41.8258,-103.6605,us,ne
mccook,40.20195,-100.62571,us,ne
sidney,41.14276,-102.97798,us,ne
spring creek,40.72659,-115.5859,us,nv
winnemucca,40.97296,-117.73568,us,nv
astoria,46.18788,-123.83125,us,or
baker city,44.77487,-117.83438,us,or
brookings,42.05261,-124.28398,us,or
cedar hills,45.50484,-122.79843,us,or
cedar mill,45.52484,-122.81093,us,or
clackamas,45.40762,-122.57037,us,or
cornelius,45.51984,-123.05983,us,or
cottage grove,43.79762,-123.05952,us,or
creswell,43.9179,-123.02453,us,or
dallas,44.91928,-123.31705,us,or
damascus,45.41762,-122.45898,us,or
deschutes river woods,43.99151,-121.35836,us,or
eagle point,42.47263,-122.80282,us,or
fairview,45.53845,-122.43398,us,or
florence,43.98262,-124.09984,us,or
gladstone,45.38068,-122.59481,us,or
green,43.16039,-123.36785,us,or
happy valley,45.44679,-122.53037,us,or
hood river,45.7054,-121.52146,us,or
independence,44.85123,-123.18677,us,or
jennings lodge,45.39123,-122.61259,us,or
junction city,44.21929,-123.20565,us,or
la grande,45.32458,-118.08772,us,or
lincoln city,44.95816,-124.01789,us,or
madras,44.63345,-121.12949,us,or
milton-freewater,45.93263,-118.38774,us,or
molalla,45.14734,-122.57703,us,or
monmouth,44.84845,-123.23399,us,or
newport,44.63678,-124.05345,us,or
north bend,43.4065,-124.22428,us,or
oak hills,45.54123,-122.84121,us,or
ontario,44.02655,-116.96294,us,or
prineville,44.29985,-120.83447,us,or
raleigh hills,45.48067,-122.76204,us,or
rockcreek,45.55012,-122.87705,us,or
saint helens,45.864,-122.80649,us,or
sandy,45.39734,-122.26148,us,or
scappoose,45.75428,-122.8776,us,or
seaside,45.99316,-123.92264,us,or
sheridan,45.09928,-123.39483,us,or
silverton,45.00512,-122.78315,us,or
stayton,44.80068,-122.79453,us,or
sutherlin,43.39012,-123.31258,us,or
sweet home,44.39762,-122.7362,us,or
talent,42.24568,-122.78865,us,or
the dalles,45.59456,-121.17868,us,or
umatilla,45.91735,-119.34252,us,or
west haven,45.51762,-122.76954,us,or
west slope,45.49873,-122.76454,us,or
white city,42.43735,-122.85893,us,or
winston,43.12234,-123.41257,us,or
belle fourche,44.67137,-103.85215,us,sd
box elder,44.11249,-103.06823,us,sd
pierre,44.36832,-100.35097,us,sd
rapid valley,44.06249,-103.14629,us,sd
spearfish,44.49082,-103.85937,us,sd
sturgis,44.40971,-103.50908,us,sd
alpine,40.45328,-111.77799,us,ut
bluffdale,40.48967,-111.93882,us,ut
canyon rim,40.70661,-111.82188,us,ut
cedar hills,40.41412,-111.75854,us,ut
farr west,41.29717,-112.02772,us,ut
grantsville,40.59994,-112.4644,us,ut
harrisville,41.28133,-111.98828,us,ut
heber city,40.5069,-111.41324,us,ut
hooper,41.16383,-112.12244,us,ut
hyrum,41.6341,-111.85217,us,ut
lindon,40.34329,-111.72076,us,ut
mapleton,40.13023,-111.57853,us,ut
mount olympus,40.6855,-111.78854,us,ut
nibley,41.67438,-111.833,us,ut
north logan,41.76937,-111.80467,us,ut
oquirrh,40.6305,-112.03383,us,ut
park city,40.64606,-111.49797,us,ut
plain city,41.298,-112.08605,us,ut
pleasant view,41.31828,-111.99216,us,ut
providence,41.70632,-111.81717,us,ut
riverdale,41.17689,-112.00383,us,ut
roosevelt,40.2994,-109.98876,us,ut
smithfield,41.83826,-111.83272,us,ut
snyderville,40.69439,-111.54381,us,ut
south weber,41.13244,-111.93022,us,ut
stansbury park,40.63772,-112.29606,us,ut
summit park,40.74578,-111.61159,us,ut
sunset,41.13633,-112.03105,us,ut
tremonton,41.71187,-112.16551,us,ut
vernal,40.45552,-109.52875,us,ut
washington terrace,41.17272,-111.97661,us,ut
west bountiful,40.89383,-111.90188,us,ut
west haven,41.203,-112.05105,us,ut
west point,41.11828,-112.08411,us,ut
white city,40.56578,-111.86438,us,ut
woods cross,40.87161,-111.89216,us,ut
airway heights,47.64461,-117.59327,us,wa
alderwood manor,47.82204,-122.28207,us,wa
artondale,47.29954,-122.62069,us,wa
barberton,45.69317,-122.59899,us,wa
birch bay,48.91789,-122.74462,us,wa
boulevard park,47.48927,-122.31512,us,wa
brier,47.78454,-122.27429,us,wa
burlington,48.47566,-122.32544,us,wa
camano,48.17399,-122.52821,us,wa
chehalis,46.66205,-122.96402,us,wa
cheney,47.48739,-117.57576,us,wa
clarkston,46.41627,-117.04516,us,wa
college place,46.0493,-118.3883,us,wa
country homes,47.7485,-117.40439,us,wa
dishman,47.66007,-117.27596,us,wa
dupont,47.09676,-122.63124,us,wa
duvall,47.74232,-121.98568,us,wa
east port orchard,47.52343,-122.6243,us,wa
east renton highlands,47.48482,-122.11234,us,wa
east wenatchee,47.41568,-120.29313,us,wa
east wenatchee bench,47.42568,-120.28118,us,wa
edgewood,47.2501,-122.29373,us,wa
elk plain,47.05316,-122.39762,us,wa
enumclaw,47.20427,-121.9915,us,wa
ephrata,47.31764,-119.55365,us,wa
felida,45.70956,-122.70732,us,wa
ferndale,48.8465,-122.59101,us,wa
fife,47.23927,-122.35707,us,wa
finley,46.15402,-119.0339,us,wa
fircrest,47.23954,-122.51596,us,wa
gig harbor,47.32926,-122.58013,us,wa
grandview,46.25097,-119.9017,us,wa
hobart,47.42177,-121.97289,us,wa
hoquiam,46.98092,-123.88933,us,wa
kelso,46.14678,-122.90844,us,wa
kingsgate,47.72704,-122.17957,us,wa
klahanie,47.43121,-122.43652,us,wa
lake forest park,47.75676,-122.28096,us,wa
lake shore,45.69067,-122.69093,us,wa
liberty lake,47.67591,-117.11821,us,wa
lynden,48.9465,-122.45211,us,wa
maltby,47.8051,-122.11318,us,wa
manchester,47.55593,-122.54486,us,wa
maplewood,47.40176,-122.55707,us,wa
mead,47.76739,-117.35494,us,wa
medical lake,47.57294,-117.68216,us,wa
midland,47.16704,-122.40484,us,wa
mill plain,45.6429,-122.49398,us,wa
milton,47.24816,-122.3129,us,wa
minnehaha,45.65901,-122.64871,us,wa
mount vista,45.73428,-122.63288,us,wa
newcastle,47.53899,-122.15568,us,wa
normandy park,47.43621,-122.34068,us,wa
north bend,47.49566,-121.78678,us,wa
ocean shores,46.9737,-124.15629,us,wa
orting,47.09788,-122.20428,us,wa
othello,46.82597,-119.17529,us,wa
pacific,47.26455,-122.25012,us,wa
parkwood,47.53315,-122.61014,us,wa
port orchard,47.54037,-122.63625,us,wa
port townsend,48.11704,-122.76045,us,wa
poulsbo,47.73593,-122.64654,us,wa
prairie ridge,47.1376,-122.14873,us,wa
prosser,46.2068,-119.76892,us,wa
quincy,47.2343,-119.85255,us,wa
riverton,47.48427,-122.29457,us,wa
sedro-woolley,48.50389,-122.23611,us,wa
selah,46.65402,-120.53007,us,wa
sequim,48.07954,-123.10184,us,wa
shelton,47.21509,-123.10071,us,wa
snohomish,47.91288,-122.09818,us,wa
snoqualmie,47.52871,-121.82539,us,wa
stanwood,48.24121,-122.37071,us,wa
steilacoom,47.16982,-122.60263,us,wa
sudden valley,48.72289,-122.34655,us,wa
summit,47.16177,-122.35707,us,wa
sumner,47.20316,-122.2404,us,wa
terrace heights,46.60624,-120.43979,us,wa
toppenish,46.37735,-120.30867,us,wa
tracyton,47.60898,-122.65514,us,wa
tulalip,48.06843,-122.29181,us,wa
union gap,46.55735,-120.47506,us,wa
vashon,47.44732,-122.45985,us,wa
veradale,47.64995,-117.20738,us,wa
waller,47.20066,-122.36929,us,wa
walnut grove,45.66789,-122.59899,us,wa
washougal,45.58262,-122.35342,us,wa
west richland,46.3043,-119.36141,us,wa
west valley,46.59207,-120.60507,us,wa
white center,47.51732,-122.35485,us,wa
wollochet,47.26871,-122.58402,us,wa
woodinville,47.75427,-122.16346,us,wa
woodland,45.90456,-122.74399,us,wa
woods creek,47.87871,-121.89846,us,wa
yelm,46.94204,-122.60596,us,wa
cody,44.52634,-109.05653,us,wy
douglas,42.75969,-105.38221,us,wy
evanston,41.26828,-110.96324,us,wy
green river,41.52858,-109.46625,us,wy
jackson,43.47993,-110.76243,us,wy
lander,42.83301,-108.73067,us,wy
powell,44.75384,-108.75735,us,wy
ranchettes,41.21859,-104.79025,us,wy
rawlins,41.79107,-107.23866,us,wy
riverton,43.02496,-108.3801,us,wy
torrington,42.06246,-104.18439,us,wy
worland,44.0169,-107.95537,us,wy
kailua-kona,19.64016,-155.99912,us,hi
kalaoa,19.72861,-155.98167,us,hi
kapa'a,22.07521,-159.31895,us,hi
lahaina,20.87429,-156.67663,us,hi
la'ie,21.64547,-157.9225,us,hi
lihue,21.98121,-159.3721,us,hi
ma'ili,21.41629,-158.17531,us,hi
makaha,21.46627,-158.21037,us,hi
makawao,20.85694,-156.31306,us,hi
nanakuli,21.39362,-158.15429,us,hi
pukalani,20.83667,-156.33667,us,hi
village park,21.39806,-158.03028,us,hi
waianae,21.43621,-158.1863,us,hi
waikoloa village,19.9325,-155.82778,us,hi
waimalu,21.40472,-157.94333,us,hi
waimanalo,21.34614,-157.7238,us,hi
waimea,20.02323,-155.67288,us,hi
waipio,21.41823,-157.99906,us,hi
waipi'o acres,21.46485,-158.01331,us,hi
'ewa beach,21.31556,-158.00722,us,hi
'ewa villages,21.34127,-158.0397,us,hi
halawa,21.37944,-157.92167,us,hi
halawa heights,21.37848,-157.91388,us,hi
hawaiian paradise park,19.59333,-154.97306,us,hi
holualoa,19.61979,-155.94831,us,hi
'aiea,21.38222,-157.93361,us,hi
'ahuimanu,21.44472,-157.83778,us,hi
college,64.85694,-147.80278,us,ak
gateway,61.57278,-149.24083,us,ak
homer,59.6425,-151.5494,us,ak
kalifornsky,60.41833,-151.29,us,ak
kenai,60.55444,-151.25833,us,ak
kodiak,57.79,-152.40722,us,ak
meadow lakes,61.62472,-149.60111,us,ak
palmer,61.59972,-149.11278,us,ak
sterling,60.53722,-150.76472,us,ak
tanaina,61.62694,-149.42806,us,ak
wasilla,61.58139,-149.43944,us,ak
bethel,60.79222,-161.75583,us,ak
helena-west helena,34.5291,-90.59,us,ar
st johnsbury,44.42526,-72.01512,us,vt
village of campton hills,41.9366,-88.3975,us,il
verde village,34.7105,-112.01152,us,az
conning towers-nautilus park,41.38548,-72.06877,us,ct
simsbury center,41.88088,-72.81116,us,ct
newport east,41.51579,-71.28752,us,ri
wakefield-peacedale,41.44606,-71.5004,us,ri
mansfield center,42.02262,-71.21808,us,ma
middleborough center,41.8946,-70.92618,us,ma
branford center,41.27738,-72.81511,us,ct
cheshire village,41.5026,-72.89952,us,ct
fort belvoir,38.7119,-77.14589,us,va
fort drum,44.05843,-75.76189,us,ny
fort meade,39.10815,-76.74323,us,md
ashton-sandy spring,39.14976,-77.00504,us,md
carmel hamlet,41.41485,-73.68524,us,ny
carnot-moon,40.51856,-80.21736,us,pa
moorestown-lenola,39.96591,-74.96441,us,nj
mount vernon,38.71919,-77.10726,us,va
northwest harborcreek,42.14944,-79.99463,us,pa
leisure world,39.1023,-77.06898,us,md
fountainhead-orchard hills,39.68636,-77.71901,us,md
glens falls north,43.33506,-73.68251,us,ny
holiday city-berkeley,39.9638,-74.27803,us,nj
homeacre-lyndora,40.87206,-79.9206,us,pa
jefferson valley-yorktown,41.31797,-73.80066,us,ny
shanor-northvue,40.91045,-79.91562,us,pa
south park township,40.29864,-79.99405,us,pa
village green-green ridge,39.86363,-75.42548,us,pa
fort riley north,39.11081,-96.81392,us,ks
grissom air force base,40.65753,-86.14755,us,in
minot air force base,48.42087,-101.33914,us,nd
montrose-ghent,41.1538,-81.64378,us,oh
champion heights,41.28999,-80.84595,us,oh
comstock northwest,42.32182,-85.51759,us,mi
fort campbell north,36.65429,-87.46056,us,ky
fort knox,37.89113,-85.96363,us,ky
fort pierce north,27.47364,-80.3593,us,fl
fort pierce south,27.40962,-80.35483,us,fl
fort polk south,31.0511,-93.21578,us,la
hutchinson island south,27.29949,-80.22045,us,fl
inverness highlands south,28.80055,-82.3371,us,fl
bellair-meadowbrook terrace,30.17881,-81.74341,us,fl
cocoa west,28.35942,-80.77109,us,fl
samsula-spruce creek,29.04932,-81.06192,us,fl
southeast arcadia,27.18629,-81.8521,us,fl
zephyrhills south,28.21492,-82.18873,us,fl
zephyrhills west,28.23081,-82.20556,us,fl
lake murray of richland,34.12048,-81.2645,us,sc
nassau village-ratliff,30.51111,-81.80925,us,fl
new port richey east,28.26027,-82.69261,us,fl
north weeki wachee,28.55014,-82.55888,us,fl
clarkston heights-vineland,46.38742,-117.083,us,wa
air force academy,38.99425,-104.86375,us,co
bangor trident base,47.72274,-122.71446,us,wa
village of oak creek (big park),34.7809,-111.76227,us,az
bonadelle ranchos-madera ranchos,36.98467,-119.87463,us,ca
bret harte,37.60207,-121.00519,us,ca
camp pendleton north,33.31465,-117.31603,us,ca
camp pendleton south,33.22844,-117.37929,us,ca
lucas valley-marinwood,38.04011,-122.5755,us,ca
fort bliss,31.81357,-106.41224,us,tx
fort lewis,47.10787,-122.57694,us,wa
garden home-whitford,45.464,-122.75891,us,or
gunbarrel,40.06335,-105.17107,us,co
helena valley southeast,46.61527,-111.92156,us,mt
helena valley west central,46.66291,-112.06044,us,mt
hilmar-irwin,37.40454,-120.85042,us,ca
lackland air force base,29.38663,-98.61797,us,tx
lake morton-berrydale,47.33251,-122.10286,us,wa
lakeland north,47.33343,-122.27695,us,wa
lakeland south,47.27843,-122.28326,us,wa
larkfield-wikiup,38.51342,-122.75094,us,ca
lemoore station,36.26326,-119.90476,us,ca
sierra vista southeast,31.45385,-110.21637,us,az
new kingman-butler,35.26504,-114.03226,us,az
oatfield,45.41418,-122.60007,us,or
oroville east,39.51126,-121.47519,us,ca
otis orchards-east farms,47.70988,-117.07975,us,wa
roseburg north,43.26452,-123.30331,us,or
valencia west,32.13238,-111.11414,us,az
view park-windsor hills,33.99551,-118.34835,us,ca
west clarkston-highland,46.40287,-117.06395,us,wa
west haven-sylvan,45.51613,-122.76809,us,or
west modesto,37.61754,-121.03914,us,ca
west side highway,46.18399,-122.91715,us,wa
tamalpais-homestead valley,37.87834,-122.53625,us,ca
tanglewilde-thompson place,47.05116,-122.78081,us,wa
haiku-pauwela,20.92187,-156.30508,us,hi
hickam field,21.33967,-157.96018,us,hi
marine corps base hawaii - mcbh,21.44336,-157.74981,us,hi
napili-honokowai,20.97533,-156.67826,us,hi
royal kunia,21.39392,-158.0267,us,hi
waihee-waiehu,20.93022,-156.50458,us,hi
wailua homesteads,22.07244,-159.37677,us,hi
knik-fairview,61.51262,-149.60012,us,ak
lakes,61.60713,-149.30861,us,ak
woodlake,37.42106,-77.67931,us,va
dove valley,39.57771,-104.8294,us,co
west greenwich,41.637,-71.66004,us,ri
castle pines north,39.47174,-104.89482,us,co
notre dame,41.70019,-86.23793,us,in
elmendorf air force base,61.25703,-149.63139,us,ak
herndon,38.969732,-77.383871,us,va
richmond,37.540759,-77.433932,us,va
gilbertsville,40.319737,-75.610076,us,pa
reston,38.960186,-77.354497,us,va
flanders,40.85062,-74.704934,us,nj
erlton,39.916361,-75.02079,us,nj
belcoville,39.416588,-74.660023,us,nj
bradevelt,40.32691,-74.266864,us,nj
franklinville,39.659577,-75.033685,us,nj
auburn,39.745695,-75.354712,us,nj
hillsborough,40.4634,-74.633758,us,nj
hillsborough,40.462016,-74.627757,us,nj
lebanon,40.670379,-74.839106,us,nj
montague,41.262093,-74.776107,us,nj
westborough,42.26697,-71.61575,us,ma
belcamp,39.468899,-76.233597,us,md
annapolis junction,39.125599,-76.788803,us,md
sterling,39.001663,-77.40325,us,va
westwood hills,39.038655,-94.608985,us,ks
midlothian,37.503672,-77.651735,us,va
mclean,38.937593,-77.183779,us,va
vienna,38.903484,-77.262818,us,va
lutherville timonium,39.426296,-76.612943,us,md
alexandria,38.804665,-77.043614,us,va
east syracuse,43.063993,-76.071072,us,ny
horsham,40.182846,-75.137135,us,pa
richardson,32.960761,-96.733518,us,tx
state college,40.785422,-77.820985,us,pa
downingtown,40.037163,-75.673347,us,pa
wayne,40.057028,-75.389292,us,pa
ithan,40.028093,-75.362596,us,pa
wayne,40.06521,-75.392646,us,pa
wayne,40.056071,-75.388394,us,pa
spry,39.921239,-76.692569,us,pa
pgh,40.461613,-79.998556,us,pa
wayne,40.066328,-75.395603,us,pa
bryn mawr,40.021566,-75.309203,us,pa
manassas,38.750771,-77.475089,us,va
manakin-sabot,37.601398,-77.702499,us,va
manakin sabot,37.6381,-77.7078,us,va
tampa,27.849953,-82.482676,us,fl
ft myers beach,26.442383,-81.927324,us,fl
boulder,40.047429,-105.246455,us,co
cleveland,41.353298,-81.71568,us,oh
farragut,35.88081,-84.046457,us,tn
las vegas,36.145903,-115.042004,us,nv
rancho mirage,33.770215,-116.393318,us,ca
frisco,33.140793,-96.891631,us,tx
plantation,26.114548,-80.303513,us,fl
oldsmar,28.034767,-82.67262,us,fl
south sioux city,42.469835,-96.413981,us,ne
teterboro,40.86598,-74.054438,us,nj
centreville,38.840081,-77.423164,us,va
centreville,38.047501,-77.8172,us,va
san antonio,29.425173,-98.494599,us,tx
menands,42.691848,-73.724597,us,ny
norfolk,36.846164,-76.285913,us,va
sugar land,29.597075,-95.620971,us,tx
charlottesville,38.029306,-78.476678,us,va
ridge,40.893729,-72.89626,us,ny
ridge,42.676102,-77.913597,us,ny
exton,40.032966,-75.63154,us,pa
exeter,42.981659,-70.950645,us,nh
powell,40.158024,-83.075182,us,oh
powell,40.305801,-81.701897,us,oh
plano,33.019695,-96.697586,us,tx
fairfax,38.847183,-77.306292,us,va
bedford,41.393876,-81.534817,us,oh
bedford,39.146426,-82.02369,us,oh
bedford,40.269077,-82.046875,us,oh
vienna,38.905364,-77.240628,us,va
maclean,38.9257,-77.223278,us,va
maclean,38.933093,-77.203118,us,va
orange,38.176891,-78.017339,us,va
vienna,38.922129,-77.252237,us,va
gainesville,38.783608,-77.655271,us,va
vienna,38.914022,-77.237484,us,va
berwyn,40.045179,-75.441214,us,pa
ventura,34.280832,-119.293107,us,ca
sperryville,38.656082,-78.224491,us,va
newport news,36.977714,-76.430349,us,va
hartford,43.660986,-72.340165,us,vt
jericho,40.788332,-73.535755,us,ny
jericho,44.794201,-73.663101,us,ny
jericho,40.954201,-72.204201,us,ny
moonachie,40.841371,-74.046286,us,nj
washington,38.892062,-77.019912,us,dc
arlington,38.890763,-77.084755,us,va
flanders,40.85062,-74.704934,us,nj
erlton,39.916361,-75.02079,us,nj
belcoville,39.416588,-74.660023,us,nj
bradevelt,40.32691,-74.266864,us,nj
franklinville,39.659577,-75.033685,us,nj
auburn,39.745695,-75.354712,us,nj
hillsborough,40.4634,-74.633758,us,nj
hillsborough,40.462016,-74.627757,us,nj
lebanon,40.670379,-74.839106,us,nj
montague,41.262093,-74.776107,us,nj
mayfield,41.538911,-81.439732,us,oh
mayfield,39.494701,-84.372803,us,oh
ipswich,42.680049,-70.837515,us,ma
lake forest,33.665387,-117.686119,us,ca
lake forest,39.184399,-120.113602,us,ca
lutherville timonium,39.426296,-76.612943,us,md
state college,40.785422,-77.820985,us,pa
downingtown,40.037163,-75.673347,us,pa
wayne,40.057028,-75.389292,us,pa
ithan,40.028093,-75.362596,us,pa
wayne,40.06521,-75.392646,us,pa
wayne,40.056071,-75.388394,us,pa
spry,39.921239,-76.692569,us,pa
pgh,40.461613,-79.998556,us,pa
wayne,40.066328,-75.395603,us,pa
bryn mawr,40.021566,-75.309203,us,pa
mullica hill,39.739969,-75.224855,us,nj
tampa,27.849953,-82.482676,us,fl
ft myers beach,26.442383,-81.927324,us,fl
boulder,40.047429,-105.246455,us,co
cleveland,41.353298,-81.71568,us,oh
farragut,35.88081,-84.046457,us,tn
las vegas,36.145903,-115.042004,us,nv
rancho mirage,33.770215,-116.393318,us,ca
frisco,33.140793,-96.891631,us,tx
plantation,26.114548,-80.303513,us,fl
oldsmar,28.034767,-82.67262,us,fl
malvern,40.033434,-75.512711,us,pa
wyncote,40.094763,-75.149181,us,pa
yardley,40.242511,-74.838988,us,pa
vienna,38.905364,-77.240628,us,va
maclean,38.9257,-77.223278,us,va
maclean,38.933093,-77.203118,us,va
orange,38.176891,-78.017339,us,va
vienna,38.922129,-77.252237,us,va
gainesville,38.783608,-77.655271,us,va
vienna,38.914022,-77.237484,us,va
sandy,40.569705,-111.897282,us,ut
piscataway township,40.551683,-74.474819,us,nj
princeton,40.357298,40.357298,us,nj
tysons,38.918722,-77.231092,us,va
lutherville-timonium,39.437051,-76.619691,us,md
saint petersburg,,,us,FL
not found,29.859862,-71.684817,us,us
